the_geom,school_id,short_name,address,grade_cat,lat,long
"{'type': 'Point', 'coordinates': [-87.74010321099996, 41.807586343000025]}",400009,GLOBAL CITIZENSHIP,4647 W 47TH ST,ES,41.80757851,-87.74009744
"{'type': 'Point', 'coordinates': [-87.70524029799998, 41.87725620200007]}",400011,LOCKE A,3141 W JACKSON BLVD,ES,41.87724835,-87.70523453
"{'type': 'Point', 'coordinates': [-87.72710144299998, 41.93730614400005]}",400013,ASPIRA - EARLY COLLEGE HS,3986 W BARRY AVE,HS,41.93729829,-87.72709566
"{'type': 'Point', 'coordinates': [-87.72183045099996, 41.96641353200005]}",400017,ASPIRA - HAUGAN,3729 W LELAND AVE,ES,41.96640567,-87.72182467
"{'type': 'Point', 'coordinates': [-87.76532776799996, 41.882330068000044]}",400021,CATALYST - CIRCLE ROCK,5608 W WASHINGTON BLVD,ES,41.88232222,-87.76532198
"{'type': 'Point', 'coordinates': [-87.69495078299997, 41.89938442700003]}",400022,CHIARTS HS,2714 W AUGUSTA BLVD,HS,41.89937657,-87.69494501
"{'type': 'Point', 'coordinates': [-87.58793336599996, 41.74318725300003]}",400023,CICS - AVALON/SOUTH SHORE,1501 E 83RD PL,ES,41.74317942,-87.58792764
"{'type': 'Point', 'coordinates': [-87.67024841099999, 41.79405070100006]}",400024,CICS - BASIL,1816 W GARFIELD BLVD,ES,41.79404286,-87.67024266
"{'type': 'Point', 'coordinates': [-87.68136373399994, 41.92242248800005]}",400025,CICS - BUCKTOWN,2235 N HAMILTON AVE,ES,41.92241463,-87.68135796
"{'type': 'Point', 'coordinates': [-87.65756680099997, 41.72025424900005]}",400026,CICS - LOOMIS,9535 S LOOMIS ST,ES,41.72024642,-87.65756106
"{'type': 'Point', 'coordinates': [-87.71049820899998, 41.95089913700008]}",400027,CICS - IRVING PARK,3820 N SPAULDING AVE,ES,41.95089128,-87.71049243
"{'type': 'Point', 'coordinates': [-87.61689410899999, 41.68444086000005]}",400028,CICS - PRAIRIE,11530 S PRAIRIE AVE,ES,41.68443304,-87.61688838
"{'type': 'Point', 'coordinates': [-87.62126649099997, 41.78413423600006]}",400029,CICS - WASHINGTON PARK,110 E 61ST ST,ES,41.7841264,-87.62126075
"{'type': 'Point', 'coordinates': [-87.77675433699994, 41.92169534800007]}",400030,CICS - WEST BELDEN,2245 N MCVICKER AVE,ES,41.9216875,-87.77674854
"{'type': 'Point', 'coordinates': [-87.69262015399994, 41.745373278000045]}",400031,CICS - WRIGHTWOOD,8130 S CALIFORNIA AVE,ES,41.74536545,-87.6926144
"{'type': 'Point', 'coordinates': [-87.66898538699996, 41.74839023800007]}",400032,CICS - ELLISON HS,1817 W 80TH ST,HS,41.74838241,-87.66897964
"{'type': 'Point', 'coordinates': [-87.65577387499997, 41.72122925800005]}",400033,CICS - LONGWOOD,1309 W 95TH ST,HS,41.72122143,-87.65576813
"{'type': 'Point', 'coordinates': [-87.72651005399996, 41.99025288000007]}",400034,CICS - NORTHTOWN HS,3900 W PETERSON AVE,HS,41.99024501,-87.72650426
"{'type': 'Point', 'coordinates': [-87.67482419499999, 42.013039364000065]}",400035,CHICAGO MATH & SCIENCE HS,7212 N CLARK ST,HS,42.01303149,-87.67481842
"{'type': 'Point', 'coordinates': [-87.69437021699997, 41.90677849100007]}",400039,ERIE,1405 N WASHTENAW AVE,ES,41.90677064,-87.69436445
"{'type': 'Point', 'coordinates': [-87.66808270699994, 41.88336987900004]}",400043,HOPE LEARNING ACADEMY,1628 W WASHINGTON,ES,41.88336203,-87.66807695
"{'type': 'Point', 'coordinates': [-87.72107642099996, 41.85837758900004]}",400044,KIPP - ASCEND,1616 S AVERS AVE,ES,41.85836974,-87.72107065
"{'type': 'Point', 'coordinates': [-87.71068525299995, 41.867280562000076]}",400046,LEARN - BUTLER,1132 S HOMAN AVE,ES,41.86727271,-87.71067948
"{'type': 'Point', 'coordinates': [-87.69874448999997, 41.87786848200005]}",400047,LEARN - CAMPBELL,212 S FRANCISCO AVE,ES,41.87786063,-87.69873872
"{'type': 'Point', 'coordinates': [-87.70207666199997, 41.887327767000045]}",400048,LEARN - EXCEL,3021 W CARROLL AVE,ES,41.88731992,-87.70207089
"{'type': 'Point', 'coordinates': [-87.70851345299997, 41.85697029800008]}",400049,LEGACY,3318 W OGDEN AVE,ES,41.85696245,-87.70850768
"{'type': 'Point', 'coordinates': [-87.66772979899997, 41.82570760300007]}",400050,NAMASTE,3737 S PAULINA ST,ES,41.82569976,-87.66772404
"{'type': 'Point', 'coordinates': [-87.66263354399996, 41.90019837700004]}",400051,NOBLE - NOBLE HS,1010 N NOBLE ST,HS,41.90019052,-87.66262778
"{'type': 'Point', 'coordinates': [-87.60416947699997, 41.765260117000025]}",400052,NOBLE - COMER,7131 SOUTH CHICAGO AVE,HS,41.76525228,-87.60416375
"{'type': 'Point', 'coordinates': [-87.66448875999998, 41.89529004900004]}",400053,NOBLE - GOLDER HS,1454 W SUPERIOR ST,HS,41.89528219,-87.664483
"{'type': 'Point', 'coordinates': [-87.73013249799999, 41.91522196200003]}",400054,NOBLE - PRITZKER HS,4131 W CORTLAND AVE,HS,41.91521411,-87.73012671
"{'type': 'Point', 'coordinates': [-87.66086462999994, 41.892432867000025]}",400055,NOBLE - RAUNER HS,1337 W OHIO ST,HS,41.89242501,-87.66085887
"{'type': 'Point', 'coordinates': [-87.71805254499998, 41.895370111000034]}",400056,NOBLE - ROWE CLARK HS,3645 W CHICAGO AVE,HS,41.89536226,-87.71804677
"{'type': 'Point', 'coordinates': [-87.67611669199994, 41.86582526300003]}",400057,NOBLE - UIC HS,1231 S DAMEN AVE,HS,41.86581741,-87.67611093
"{'type': 'Point', 'coordinates': [-87.70899288199996, 41.85857140000007]}",400058,NLCP - CHRISTIANA HS,1615 S. CHRISTIANA AVE.,HS,41.85856355,-87.70898711
"{'type': 'Point', 'coordinates': [-87.70068636899998, 41.86415369000008]}",400059,NLCP - COLLINS HS,1313 S SACRAMENTO DR,HS,41.86414584,-87.7006806
"{'type': 'Point', 'coordinates': [-87.67116619199999, 41.983379306000074]}",400060,AHS - PASSAGES,1643 W BRYN MAWR AVE,ES,41.98337144,-87.67116042
"{'type': 'Point', 'coordinates': [-87.62650705699997, 41.73879874700003]}",400061,PERSPECTIVES - LEADERSHIP HS,8522 S LAFAYETTE AVE,HS,41.73879092,-87.62650132
"{'type': 'Point', 'coordinates': [-87.62650055599994, 41.73753256100008]}",400062,PERSPECTIVES - TECH HS,8522 S LAFAYETTE AVE,HS,41.73752473,-87.62649482
"{'type': 'Point', 'coordinates': [-87.62853664799997, 41.856006955000055]}",400064,PERSPECTIVES - JOSLIN HS,1930 S ARCHER AVE,HS,41.85599911,-87.6285309
"{'type': 'Point', 'coordinates': [-87.62479346299995, 41.82779170300006]}",400066,PERSPECTIVES - MATH & SCI HS,3663 S WABASH AVE,HS,41.82778386,-87.62478772
"{'type': 'Point', 'coordinates': [-87.76334272099996, 41.872768274000066]}",400068,PLATO,5545 W HARRISON ST,ES,41.87276043,-87.76333693
"{'type': 'Point', 'coordinates': [-87.70780224899994, 41.892558026000074]}",400069,POLARIS,620 N SAWYER AVE,ES,41.89255017,-87.70779647
"{'type': 'Point', 'coordinates': [-87.66400157899994, 41.77537520200008]}",400071,PROVIDENCE ENGLEWOOD,6515 S ASHLAND AVE,ES,41.77536737,-87.66399583
"{'type': 'Point', 'coordinates': [-87.60850651899995, 41.82773392800004]}",400075,U OF C - DONOGHUE,707 E 37TH ST,ES,41.82772608,-87.60850078
"{'type': 'Point', 'coordinates': [-87.59879200199998, 41.81119071100005]}",400076,U OF C - NKO,1119 E 46TH ST,ES,41.81118287,-87.59878627
"{'type': 'Point', 'coordinates': [-87.59738544899994, 41.78041974400003]}",400077,U OF C - WOODLAWN HS,6300 S UNIVERSITY AVE,HS,41.78041191,-87.59737972
"{'type': 'Point', 'coordinates': [-87.73050088999997, 41.81014262400004]}",400079,ACERO - ZIZUMBO,4248 W 47TH ST,ES,41.81013479,-87.73049512
"{'type': 'Point', 'coordinates': [-87.73045621599994, 41.80820764300006]}",400080,ACERO - TORRES,4248 W 47TH ST,ES,41.80819981,-87.73045044
"{'type': 'Point', 'coordinates': [-87.66795492899996, 41.85951185700003]}",400081,ACERO - DE LAS CASAS,1641 W 16TH ST,ES,41.85950401,-87.66794917
"{'type': 'Point', 'coordinates': [-87.69959942799994, 41.937483636000024]}",400082,ACERO - FUENTES,2845 W BARRY AVE,ES,41.93747578,-87.69959365
"{'type': 'Point', 'coordinates': [-87.69255666399994, 41.85004325800003]}",400083,ACERO - PAZ,2651 W 23RD ST,ES,41.85003541,-87.6925509
"{'type': 'Point', 'coordinates': [-87.69386739599997, 41.79993802300004]}",400084,ACERO - TAMAYO,5135 S CALIFORNIA AVE,ES,41.79993019,-87.69386164
"{'type': 'Point', 'coordinates': [-87.73047262199998, 41.80917862600006]}",400085,ACERO - GARCIA HS,4248 W 47TH ST,HS,41.80917079,-87.73046685
"{'type': 'Point', 'coordinates': [-87.63436243299998, 41.78150565300007]}",400086,URBAN PREP - ENGLEWOOD HS,6201 S STEWART AVE,HS,41.78149782,-87.63435669
"{'type': 'Point', 'coordinates': [-87.69739985999996, 41.80831666300003]}",400089,ACERO - MARQUEZ,2916 W 47TH ST,ES,41.80830882,-87.6973941
"{'type': 'Point', 'coordinates': [-87.65910055999996, 41.86330925800007]}",400091,CHICAGO TECH HS,1301 W 14TH ST,HS,41.86330141,-87.6590948
"{'type': 'Point', 'coordinates': [-87.60504482199997, 41.65367126700005]}",400092,CICS - BOND,13300 S LANGLEY AVE,ES,41.65366345,-87.6050391
"{'type': 'Point', 'coordinates': [-87.55022808299998, 41.74485694200007]}",400094,EPIC HS,8255 S HOUSTON AVE,HS,41.74484911,-87.55022237
"{'type': 'Point', 'coordinates': [-87.66407823099996, 41.90780503600007]}",400096,ROWE,1424 N CLEAVER ST,ES,41.90779718,-87.66407247
"{'type': 'Point', 'coordinates': [-87.67820102399997, 41.87881666000004]}",400097,NOBLE - BULLS HS,2040 W ADAMS ST,HS,41.87880881,-87.67819526
"{'type': 'Point', 'coordinates': [-87.62634403099997, 41.88274811300005]}",400098,NOBLE - MUCHIN HS,1 N STATE ST,HS,41.88274026,-87.62633828
"{'type': 'Point', 'coordinates': [-87.69400192499995, 41.82289158200007]}",400101,ACERO - CISNEROS,2744 W PERSHING RD,ES,41.82288374,-87.69399616
"{'type': 'Point', 'coordinates': [-87.68724592199999, 41.84597443300004]}",400104,INSTITUTO - HEALTH,2520 S WESTERN AVE,HS,41.84596659,-87.68724016
"{'type': 'Point', 'coordinates': [-87.61363438699999, 41.831125378000024]}",400105,URBAN PREP - BRONZEVILLE HS,521 E 35TH ST,HS,41.83111753,-87.61362865
"{'type': 'Point', 'coordinates': [-87.63512243999998, 41.77837733500007]}",400106,NOBLE - JOHNSON HS,6350 S STEWART AVE,HS,41.7783695,-87.6351167
"{'type': 'Point', 'coordinates': [-87.54558560299995, 41.73334096700006]}",400107,LEARN - SOUTH CHICAGO,8914 S BUFFALO AVE,ES,41.73333313,-87.54557989
"{'type': 'Point', 'coordinates': [-87.66572680299998, 41.74312959900004]}",400111,LEARN - PERKINS,1700 W 83RD ST,ES,41.74312177,-87.66572106
"{'type': 'Point', 'coordinates': [-87.70880254999997, 41.80105025000006]}",400112,ACERO - IDAR,5050 S HOMAN AVE,ES,41.80104241,-87.70879678
"{'type': 'Point', 'coordinates': [-87.68990139399995, 41.90035148900006]}",400114,ACERO - SANTIAGO,2510 W CORTEZ ST,ES,41.90034364,-87.68989562
"{'type': 'Point', 'coordinates': [-87.69308107999996, 41.770999551000045]}",400115,CATALYST - MARIA,6727 S CALIFORNIA AVE,ES,41.77099172,-87.69307532
"{'type': 'Point', 'coordinates': [-87.66764475799994, 41.767397946000074]}",400116,MONTESSORI ENGLEWOOD,6936 S HERMITAGE AVE,ES,41.76739011,-87.66763901
"{'type': 'Point', 'coordinates': [-87.65099246999995, 41.734449451000046]}",400117,NOBLE - HANSBERRY HS,8748 S ABERDEEN ST,HS,41.73444162,-87.65098673
"{'type': 'Point', 'coordinates': [-87.71165999899995, 41.86933592500003]}",400118,NOBLE - DRW HS,931 S HOMAN AVE,HS,41.86932808,-87.71165423
"{'type': 'Point', 'coordinates': [-87.73378416399999, 41.88174060800003]}",400119,LEGAL PREP HS,4319 W WASHINGTON BLVD,HS,41.88173276,-87.73377838
"{'type': 'Point', 'coordinates': [-87.78783623799995, 41.917959531000065]}",400120,ACERO - CLEMENTE,2050 N NATCHEZ AVE,ES,41.91795168,-87.78783044
"{'type': 'Point', 'coordinates': [-87.68441146099997, 42.01648375700006]}",400121,ACERO - DE LA CRUZ,7416 N RIDGE BLVD,ES,42.01647588,-87.68440568
"{'type': 'Point', 'coordinates': [-87.74254468299995, 41.88045503600006]}",400123,YCCS - SCHOLASTIC ACHIEVEMENT,4651 W MADISON ST,HS,41.88044719,-87.7425389
"{'type': 'Point', 'coordinates': [-87.62533651499996, 41.841339015000074]}",400124,YCCS - MCKINLEY,2920 S WABASH AVE,HS,41.84133117,-87.62533077
"{'type': 'Point', 'coordinates': [-87.72714314399997, 41.93819446200007]}",400125,YCCS - ASPIRA PANTOJA,3121 N PULASKI RD,HS,41.9381866,-87.72713736
"{'type': 'Point', 'coordinates': [-87.70686565899996, 41.90158026100005]}",400126,YCCS - ASSOCIATION HOUSE,1116 N KEDZIE AVE,HS,41.90157241,-87.70685988
"{'type': 'Point', 'coordinates': [-87.76022696599995, 41.89498424100003]}",400127,YCCS - AUSTIN CAREER,5352 W CHICAGO AVE,HS,41.89497639,-87.76022118
"{'type': 'Point', 'coordinates': [-87.72366794799996, 41.864951199000075]}",400128,YCCS - CCA ACADEMY,1231 S PULASKI RD,HS,41.86494335,-87.72366217
"{'type': 'Point', 'coordinates': [-87.61584783399996, 41.77417738500003]}",400129,YCCS - PROGRESSIVE LEADERSHIP,6620 S DR MARTIN LUTHER KING JR DR,HS,41.77416955,-87.6158421
"{'type': 'Point', 'coordinates': [-87.64173692699995, 41.75138494400005]}",400130,YCCS - YOUTH DEVELOPMENT,7836 S UNION AVE,HS,41.75137711,-87.64173119
"{'type': 'Point', 'coordinates': [-87.69601179399996, 41.90285755200006]}",400131,YCCS - CAMPOS,2739 W DIVISION ST,HS,41.9028497,-87.69600602
"{'type': 'Point', 'coordinates': [-87.62773989599998, 41.88305502700007]}",400133,YCCS - INNOVATIONS,17 N. STATE ST.,HS,41.88304717,-87.62773415
"{'type': 'Point', 'coordinates': [-87.64489372799994, 41.857215706000034]}",400134,YCCS - ADDAMS,1814 S UNION AVE,HS,41.85720786,-87.64488798
"{'type': 'Point', 'coordinates': [-87.69543578099996, 41.85467250200003]}",400135,YCCS - LATINO YOUTH,2001 S CALIFORNIA AVE,HS,41.85466466,-87.69543001
"{'type': 'Point', 'coordinates': [-87.59233892499998, 41.71292992800005]}",400136,YCCS - OLIVE HARVEY,10001 S WOODLAWN AVE,HS,41.7129221,-87.5923332
"{'type': 'Point', 'coordinates': [-87.59934567399995, 41.809703340000056]}",400137,LITTLE BLACK PEARL HS,1060 E 47TH ST,HS,41.8096955,-87.59933994
"{'type': 'Point', 'coordinates': [-87.57849739099998, 41.746294404000025]}",400139,YCCS - SULLIVAN,8164 S SOUTH CHICAGO AVE,HS,41.74628657,-87.57849167
"{'type': 'Point', 'coordinates': [-87.65924505699996, 41.96530268400005]}",400141,YCCS - TRUMAN,1145 W WILSON AVE,HS,41.96529482,-87.65923929
"{'type': 'Point', 'coordinates': [-87.70205857299999, 41.89081097400003]}",400143,YCCS - WEST TOWN,500 N SACRAMENTO BLVD,HS,41.89080312,-87.7020528
"{'type': 'Point', 'coordinates': [-87.74881607599997, 41.90224788300003]}",400144,YCCS - WEST,4909 W DIVISION ST,HS,41.90224003,-87.74881029
"{'type': 'Point', 'coordinates': [-87.62678721399999, 41.83207990400007]}",400145,YCCS - YOUTH CONNECTION,3424 S STATE ST,HS,41.83207206,-87.62678147
"{'type': 'Point', 'coordinates': [-87.74661962499994, 41.89182399200007]}",400146,KIPP - ACADEMY,4818 W OHIO ST,ES,41.89181614,-87.74661384
"{'type': 'Point', 'coordinates': [-87.65373227599997, 41.69197713500006]}",400147,CHICAGO EXCEL HS,1257 W 111TH ST,HS,41.69196931,-87.65372654
"{'type': 'Point', 'coordinates': [-87.68407070099994, 41.84545386100007]}",400164,INSTITUTO - JUSTICE HS,2570 S BLUE ISLAND AVE,HS,41.84544602,-87.68406494
"{'type': 'Point', 'coordinates': [-87.71103075099995, 41.801770082000075]}",400149,ACERO - SOTO HS,5025 S SAINT LOUIS AVE,HS,41.80176225,-87.71102498
"{'type': 'Point', 'coordinates': [-87.60698563699998, 41.730139214000076]}",400150,YCCS - CHATHAM,9035 S LANGLEY AVE,HS,41.73013138,-87.60697991
"{'type': 'Point', 'coordinates': [-87.70142316299996, 41.887325342000054]}",400151,LEARN - 7,3021 W CARROLL AVE,ES,41.88731749,-87.70141739
"{'type': 'Point', 'coordinates': [-87.69324414699997, 41.81311728400004]}",400153,ACERO - BRIGHTON PARK,4420 S FAIRFIELD AVE,ES,41.81310945,-87.69323838
"{'type': 'Point', 'coordinates': [-87.60257904199995, 41.70667468500005]}",400156,NOBLE - BUTLER HS,821 E 103RD ST,HS,41.70666686,-87.60257332
"{'type': 'Point', 'coordinates': [-87.55620715499998, 41.73463020500003]}",400157,NOBLE - BAKER HS,2710 E 89TH ST,HS,41.73462237,-87.55620144
"{'type': 'Point', 'coordinates': [-87.75752731999995, 41.92218901100006]}",400159,CHRISTOPHER HOUSE,5235 W BELDEN AVE,ES,41.92218116,-87.75752153
"{'type': 'Point', 'coordinates': [-87.61797359699995, 41.679326263000064]}",400161,CHICAGO COLLEGIATE,11816 S INDIANA AVE,HS,41.67931844,-87.61796787
"{'type': 'Point', 'coordinates': [-87.74113441499998, 41.93899628600008]}",400162,INTRINSIC HS,4540 W BELMONT AVE,HS,41.93898843,-87.74112863
"{'type': 'Point', 'coordinates': [-87.63997307499994, 41.793564107000066]}",400163,KIPP - BLOOM,5515 S LOWE AVE,ES,41.79355627,-87.63996733
"{'type': 'Point', 'coordinates': [-87.70272971099996, 41.88732776100005]}",400165,LEARN - MIDDLE,3021 W CARROLL AVE,ES,41.88731991,-87.70272394
"{'type': 'Point', 'coordinates': [-87.68396915099999, 41.79520879000006]}",400167,HORIZON - SOUTHWEST,5401 S. WESTERN,ES,41.79520095,-87.68396339
"{'type': 'Point', 'coordinates': [-87.75968096399998, 41.917274263000024]}",400169,NOBLE - ITW SPEER HS,5321 W GRAND AVE,HS,41.91726641,-87.75967517
"{'type': 'Point', 'coordinates': [-87.64558269299994, 41.90688665300007]}",400170,NOBLE - ACADEMY HS,1443 N OGDEN AVE,HS,41.9068788,-87.64557694
"{'type': 'Point', 'coordinates': [-87.70265051599995, 41.808233623000035]}",400173,PATHWAYS - BRIGHTON PARK HS,3124 W. 47TH STREET,HS,41.80822579,-87.70264475
"{'type': 'Point', 'coordinates': [-87.55649279999994, 41.75975647700005]}",400175,EXCEL SOUTH SHORE HS,7530 S SOUTH SHORE DR,HS,41.75974864,-87.55648708
"{'type': 'Point', 'coordinates': [-87.69096319499994, 41.764995861000045]}",400176,EXCEL SOUTHWEST HS,7050 S WASHTENAW AVE,HS,41.76498803,-87.69095744
"{'type': 'Point', 'coordinates': [-87.57327323499999, 41.73718176700004]}",609674,CHICAGO VOCATIONAL HS,2100 E 87TH ST,HS,41.73717393,-87.57326752
"{'type': 'Point', 'coordinates': [-87.61764317699999, 41.84023342000006]}",609676,DUNBAR HS,3000 S KING DR,HS,41.84022557,-87.61763743
"{'type': 'Point', 'coordinates': [-87.62768107199997, 41.87307377700006]}",609678,JONES HS,700 S STATE ST,HS,41.87306592,-87.62767532
"{'type': 'Point', 'coordinates': [-87.76105410799994, 41.92006725300007]}",609679,PROSSER HS,2148 N LONG AVE,HS,41.9200594,-87.76104832
"{'type': 'Point', 'coordinates': [-87.63539051899994, 41.90158302700007]}",609680,PAYTON HS,1034 N WELLS ST,HS,41.90157517,-87.63538477
"{'type': 'Point', 'coordinates': [-87.66228359799999, 41.80288921500005]}",609682,RICHARDS HS,5009 S LAFLIN ST,HS,41.80288138,-87.66227785
"{'type': 'Point', 'coordinates': [-87.73524333999995, 41.91168154600007]}",609691,NORTH-GRAND HS,4338 W WABANSIA AVE,HS,41.91167369,-87.73523756
"{'type': 'Point', 'coordinates': [-87.63541610699997, 41.74578906200003]}",609692,SIMEON HS,8147 S VINCENNES AVE,HS,41.74578123,-87.63541037
"{'type': 'Point', 'coordinates': [-87.70733808199998, 41.88998505500007]}",609693,WESTINGHOUSE HS,3223 W FRANKLIN BLVD,HS,41.8899772,-87.70733231
"{'type': 'Point', 'coordinates': [-87.75824338999996, 41.77537377700003]}",609694,HANCOCK HS,5437 W 64TH PL,HS,41.77536595,-87.75823761
"{'type': 'Point', 'coordinates': [-87.67948998899999, 41.97507512400006]}",609695,AMUNDSEN HS,5110 N DAMEN AVE,HS,41.97506726,-87.67948421
"{'type': 'Point', 'coordinates': [-87.72110320999997, 41.74938343700006]}",609698,BOGAN HS,3939 W 79TH ST,HS,41.74937561,-87.72109745
"{'type': 'Point', 'coordinates': [-87.70871140199995, 41.84856771900007]}",609704,FARRAGUT HS,2345 S CHRISTIANA AVE,HS,41.84855987,-87.70870563
"{'type': 'Point', 'coordinates': [-87.63757778399997, 41.68995854600007]}",609705,FENGER HS,11220 S WALLACE ST,HS,41.68995073,-87.63757205
"{'type': 'Point', 'coordinates': [-87.75417233699994, 41.93980462500008]}",609708,FOREMAN HS,3235 N LECLAIRE AVE,HS,41.93979677,-87.75416654
"{'type': 'Point', 'coordinates': [-87.68895970099999, 41.79102067400004]}",609709,GAGE PARK HS,5630 S ROCKWELL ST,HS,41.79101284,-87.68895394
"{'type': 'Point', 'coordinates': [-87.62062916799994, 41.71838017300007]}",609710,HARLAN HS,9652 S MICHIGAN AVE,HS,41.71837235,-87.62062344
"{'type': 'Point', 'coordinates': [-87.60173299599995, 41.75375579000007]}",609712,HIRSCH HS,7740 S INGLESIDE AVE,HS,41.75374796,-87.60172727
"{'type': 'Point', 'coordinates': [-87.58662073799997, 41.78226476700007]}",609713,HYDE PARK HS,6220 S STONY ISLAND AVE,HS,41.78225693,-87.58661501
"{'type': 'Point', 'coordinates': [-87.69464442299994, 41.81873690400005]}",609715,KELLY HS,4136 S CALIFORNIA AVE,HS,41.81872906,-87.69463866
"{'type': 'Point', 'coordinates': [-87.73600460799997, 41.92792625900006]}",609716,KELVYN PARK HS,4343 W WRIGHTWOOD AVE,HS,41.9279184,-87.73599882
"{'type': 'Point', 'coordinates': [-87.78084554099996, 41.789969083000074]}",609718,KENNEDY HS,6325 W 56TH ST,HS,41.78996125,-87.78083976
"{'type': 'Point', 'coordinates': [-87.66895845899995, 41.954771933000075]}",609719,LAKE VIEW HS,4015 N ASHLAND AVE,HS,41.95476407,-87.66895269
"{'type': 'Point', 'coordinates': [-87.69101840099995, 41.94665243700007]}",609720,LANE TECH HS,2501 W ADDISON ST,HS,41.94664458,-87.69101263
"{'type': 'Point', 'coordinates': [-87.69990135999996, 41.870946805000074]}",609722,MANLEY HS,2935 W POLK ST,HS,41.87093896,-87.69989559
"{'type': 'Point', 'coordinates': [-87.70805584299995, 41.878451935000044]}",609723,MARSHALL HS,3250 W ADAMS ST,HS,41.87844409,-87.70805007
"{'type': 'Point', 'coordinates': [-87.70250217799997, 41.98759655100008]}",609724,MATHER HS,5835 N LINCOLN AVE,HS,41.98758868,-87.7024964
"{'type': 'Point', 'coordinates': [-87.66566328699997, 41.69204282900006]}",609725,MORGAN PARK HS,1744 W PRYOR AVE,HS,41.69203501,-87.66565755
"{'type': 'Point', 'coordinates': [-87.61635833399998, 41.692770352000025]}",609726,BROOKS HS,250 E 111TH ST,HS,41.69276253,-87.61635261
"{'type': 'Point', 'coordinates': [-87.61980208699998, 41.823887813000056]}",609727,PHILLIPS HS,244 E PERSHING RD,HS,41.82387997,-87.61979635
"{'type': 'Point', 'coordinates': [-87.71482439899995, 41.96483574800004]}",609728,ROOSEVELT HS,3436 W WILSON AVE,HS,41.96482788,-87.71481862
"{'type': 'Point', 'coordinates': [-87.73561789799999, 41.946372403000055]}",609729,SCHURZ HS,3601 N MILWAUKEE AVE,HS,41.94636454,-87.73561211
"{'type': 'Point', 'coordinates': [-87.66714196199996, 41.98903641000004]}",609730,SENN HS,5900 N GLENWOOD AVE,HS,41.98902854,-87.66713619
"{'type': 'Point', 'coordinates': [-87.78352103399999, 41.935641443000065]}",609732,STEINMETZ HS,3030 N MOBILE AVE,HS,41.93563359,-87.78351523
"{'type': 'Point', 'coordinates': [-87.66919791899994, 42.00269543200005]}",609733,SULLIVAN HS,6631 N BOSWORTH AVE,HS,42.00268756,-87.66919215
"{'type': 'Point', 'coordinates': [-87.79155305699999, 41.98296885000008]}",609734,TAFT HS,6530 W BRYN MAWR AVE,HS,41.98296099,-87.79154725
"{'type': 'Point', 'coordinates': [-87.64297222999994, 41.80751791300003]}",609735,TILDEN HS,4747 S UNION AVE,HS,41.80751007,-87.64296648
"{'type': 'Point', 'coordinates': [-87.71339203699995, 41.97319291400004]}",609737,VON STEUBEN HS,5039 N KIMBALL AVE,HS,41.97318505,-87.71338625
"{'type': 'Point', 'coordinates': [-87.64601511799998, 41.91827617100006]}",609738,LINCOLN PARK HS,2001 N ORCHARD ST,HS,41.91826831,-87.64600936
"{'type': 'Point', 'coordinates': [-87.53757600399996, 41.688144762000036]}",609739,WASHINGTON HS,3535 E 114TH ST,HS,41.68813694,-87.5375703
"{'type': 'Point', 'coordinates': [-87.66748863199996, 41.89900256300007]}",609740,WELLS HS,936 N ASHLAND AVE,HS,41.89899471,-87.66748287
"{'type': 'Point', 'coordinates': [-87.71801950899999, 41.78053421900006]}",609741,HUBBARD HS,6200 S HAMLIN AVE,HS,41.78052639,-87.71801374
"{'type': 'Point', 'coordinates': [-87.72239200299998, 41.982980388000044]}",609744,NORTHSIDE LEARNING HS,3730 W BRYN MAWR AVE,HS,41.98297252,-87.72238622
"{'type': 'Point', 'coordinates': [-87.67595251899996, 41.75986026000004]}",609745,SOUTHSIDE HS,7342 S HOYNE AVE,HS,41.75985243,-87.67594677
"{'type': 'Point', 'coordinates': [-87.59042661999996, 41.80377996200008]}",609746,KENWOOD HS,5015 S BLACKSTONE AVE,HS,41.80377212,-87.59042089
"{'type': 'Point', 'coordinates': [-87.67333301499997, 41.80711997100008]}",609983,HEDGES,4747 S WINCHESTER AVE,ES,41.80711213,-87.67332726
"{'type': 'Point', 'coordinates': [-87.73580767499999, 41.878672495000046]}",609985,HEFFERAN,4409 W WILCOX ST,ES,41.87866465,-87.73580189
"{'type': 'Point', 'coordinates': [-87.67189306099993, 41.79059912400004]}",609986,HENDERSON,5650 S WOLCOTT AVE,ES,41.79059129,-87.67188731
"{'type': 'Point', 'coordinates': [-87.63367022199998, 41.815795594000065]}",609987,HENDRICKS,4316 S PRINCETON AVE,ES,41.81578775,-87.63366448
"{'type': 'Point', 'coordinates': [-87.71563815499997, 41.95899666100007]}",609988,HENRY,4250 N SAINT LOUIS AVE,ES,41.9589888,-87.71563237
"{'type': 'Point', 'coordinates': [-87.62835493499995, 41.859748532000026]}",609990,SOUTH LOOP,1601 S DEARBORN ST,ES,41.85974068,-87.62834919
"{'type': 'Point', 'coordinates': [-87.71899962899994, 41.86208914300005]}",609991,HERZL,3711 W DOUGLAS BLVD,ES,41.8620813,-87.71899385
"{'type': 'Point', 'coordinates': [-87.67218734899996, 41.80977813700008]}",609993,LARA,4619 S WOLCOTT AVE,ES,41.8097703,-87.67218159
"{'type': 'Point', 'coordinates': [-87.71036739699997, 41.970343100000036]}",609994,HIBBARD,3244 W AINSLIE ST,ES,41.97033524,-87.71036161
"{'type': 'Point', 'coordinates': [-87.77912885599994, 41.98367955900005]}",609995,HITCH,5625 N MCVICKER AVE,ES,41.9836717,-87.77912305
"{'type': 'Point', 'coordinates': [-87.65379742099998, 41.83803523300003]}",609996,HOLDEN,1104 W 31ST ST,ES,41.83802739,-87.65379167
"{'type': 'Point', 'coordinates': [-87.64980110299996, 41.79379548700007]}",609997,HOLMES,955 W GARFIELD BLVD,ES,41.79378765,-87.64979536
"{'type': 'Point', 'coordinates': [-87.84104726399994, 41.97372263600005]}",609874,DIRKSEN,8601 W FOSTER AVE,ES,41.97371478,-87.84104144
"{'type': 'Point', 'coordinates': [-87.70541868999999, 41.92333057500008]}",609875,DARWIN,3116 W BELDEN AVE,ES,41.92332272,-87.70541291
"{'type': 'Point', 'coordinates': [-87.70020792499997, 41.82185945500004]}",609876,DAVIS N,3014 W 39TH PL,ES,41.82185161,-87.70020216
"{'type': 'Point', 'coordinates': [-87.71735918599995, 41.745085578000044]}",609879,DAWES,3810 W 81ST PL,ES,41.74507775,-87.71735342
"{'type': 'Point', 'coordinates': [-87.70462437799995, 42.00929643000006]}",609880,DECATUR,7030 N SACRAMENTO AVE,ES,42.00928856,-87.70461859
"{'type': 'Point', 'coordinates': [-87.62335032599998, 41.76249809800004]}",609883,DENEEN,7240 S WABASH AVE,ES,41.76249026,-87.62334459
"{'type': 'Point', 'coordinates': [-87.65098563299995, 41.95281737700003]}",609850,GREELEY,832 W SHERIDAN RD,ES,41.95280951,-87.65097987
"{'type': 'Point', 'coordinates': [-87.69526513599999, 41.866443100000026]}",609851,CHALMERS,2745 W ROOSEVELT RD,ES,41.86643525,-87.69525937
"{'type': 'Point', 'coordinates': [-87.68326936699998, 41.97590216800006]}",609852,CHAPPELL,2135 W FOSTER AVE,ES,41.9758943,-87.68326359
"{'type': 'Point', 'coordinates': [-87.69456802399998, 41.91800051100006]}",609853,CHASE,2021 N POINT ST,ES,41.91799265,-87.69456225
"{'type': 'Point', 'coordinates': [-87.68894253199994, 41.896720542000025]}",609854,CHOPIN,2450 W RICE ST,ES,41.89671269,-87.68893676
"{'type': 'Point', 'coordinates': [-87.68561276199995, 41.80166646200007]}",609855,CHRISTOPHER,5042 S ARTESIAN AVE,ES,41.80165862,-87.685607
"{'type': 'Point', 'coordinates': [-87.54461929999997, 41.65456596900003]}",609856,CLAY,13231 S BURLEY AVE,ES,41.65455815,-87.5446136
"{'type': 'Point', 'coordinates': [-87.70644830499998, 41.95204998400004]}",609857,CLEVELAND,3121 W BYRON ST,ES,41.95204212,-87.70644253
"{'type': 'Point', 'coordinates': [-87.69836573599997, 41.992549230000066]}",609859,CLINTON,6110 N FAIRFIELD AVE,ES,41.99254136,-87.69835995
"{'type': 'Point', 'coordinates': [-87.69526678099999, 41.842541193000045]}",609748,YORK HS,2700 S CALIFORNIA AVE,HS,41.84253335,-87.69526102
"{'type': 'Point', 'coordinates': [-87.70871358399995, 41.98132315000004]}",609749,NORTHSIDE PREP HS,5501 N KEDZIE AVE,HS,41.98131528,-87.7087078
"{'type': 'Point', 'coordinates': [-87.66872798899999, 41.86437333200007]}",609750,SIMPSON HS,1321 S PAULINA ST,HS,41.86436548,-87.66872223
"{'type': 'Point', 'coordinates': [-87.60387959699995, 41.81368329700007]}",609751,KING HS,4445 S DREXEL BLVD,HS,41.81367545,-87.60387386
"{'type': 'Point', 'coordinates': [-87.71777542999996, 41.69122855900008]}",609753,CHICAGO AGRICULTURE HS,3857 W 111TH ST,HS,41.69122074,-87.71776967
"{'type': 'Point', 'coordinates': [-87.61922128399999, 41.830562824000026]}",609754,CHICAGO MILITARY HS,3519 S GILES AVE,HS,41.83055498,-87.61921554
"{'type': 'Point', 'coordinates': [-87.66423910299994, 41.87861038500006]}",609755,YOUNG HS,211 S LAFLIN ST,HS,41.87860253,-87.66423334
"{'type': 'Point', 'coordinates': [-87.72204742399998, 41.80306804300005]}",609756,CURIE HS,4959 S ARCHER AVE,HS,41.80306021,-87.72204165
"{'type': 'Point', 'coordinates': [-87.68691191499994, 41.90263364700007]}",609759,CLEMENTE HS,1147 N WESTERN AVE,HS,41.90262579,-87.68690615
"{'type': 'Point', 'coordinates': [-87.59062610199999, 41.65629777000004]}",609760,CARVER MILITARY HS,13100 S DOTY AVE,HS,41.65628995,-87.59062039
"{'type': 'Point', 'coordinates': [-87.60122160099996, 41.70666744300007]}",609761,CORLISS HS,821 E 103RD ST,HS,41.70665962,-87.60121588
"{'type': 'Point', 'coordinates': [-87.65375495099994, 41.70586675900006]}",609762,JULIAN HS,10330 S ELIZABETH ST,HS,41.70585894,-87.65374921
"{'type': 'Point', 'coordinates': [-87.66434506699994, 41.852677984000024]}",609764,JUAREZ HS,1450 W CERMAK RD,HS,41.85267014,-87.66433931
"{'type': 'Point', 'coordinates': [-87.76466897099994, 41.96037165700005]}",609766,VAUGHN HS,4355 N LINDER AVE,HS,41.9603638,-87.76466317
"{'type': 'Point', 'coordinates': [-87.62532056099997, 41.849683267000046]}",609769,GRAHAM HS,2347 S WABASH AVE,HS,41.84967542,-87.62531482
"{'type': 'Point', 'coordinates': [-87.53298174499997, 41.69874662800004]}",609772,ADDAMS,10810 S AVENUE H,ES,41.6987388,-87.53297604
"{'type': 'Point', 'coordinates': [-87.65623443099997, 41.93413416000004]}",609773,TUBMAN,2851 N SEMINARY AVE,ES,41.9341263,-87.65622867
"{'type': 'Point', 'coordinates': [-87.65065890799997, 41.833861755000044]}",609777,ARMOUR,950 W 33RD PL,ES,41.83385391,-87.65065316
"{'type': 'Point', 'coordinates': [-87.68444760599994, 42.01015785800007]}",609779,ARMSTRONG G,2110 W GREENLEAF AVE,ES,42.01014998,-87.68444183
"{'type': 'Point', 'coordinates': [-87.72174809699999, 41.91605248900004]}",609780,MARINE LEADERSHIP AT AMES HS,1920 N HAMLIN AVE,HS,41.91604463,-87.72174232
"{'type': 'Point', 'coordinates': [-87.68104682499995, 41.94507008700003]}",609782,AUDUBON,3500 N HOYNE AVE,ES,41.94506223,-87.68104105
"{'type': 'Point', 'coordinates': [-87.68042331799995, 41.86784013400006]}",609783,JEFFERSON HS,1100 S HAMILTON AVE,HS,41.86783229,-87.68041755
"{'type': 'Point', 'coordinates': [-87.59165953699994, 41.74825482800003]}",609786,AVALON PARK,8045 S KENWOOD AVE,ES,41.74824699,-87.59165381
"{'type': 'Point', 'coordinates': [-87.65807996499996, 41.705138834000024]}",609788,BARNARD,10354 S CHARLES ST,ES,41.70513101,-87.65807422
"{'type': 'Point', 'coordinates': [-87.73939413899996, 41.93251844000008]}",609789,BARRY,2828 N KILBOURN AVE,ES,41.93251058,-87.73938835
"{'type': 'Point', 'coordinates': [-87.67093287799997, 41.75420168100004]}",609790,BARTON,7650 S WOLCOTT AVE,ES,41.75419385,-87.67092713
"{'type': 'Point', 'coordinates': [-87.65353816699997, 41.77425428500004]}",609791,BASS,1140 W 66TH ST,ES,41.77424645,-87.65353242
"{'type': 'Point', 'coordinates': [-87.70215674099995, 41.958227703000034]}",609792,BATEMAN,4220 N RICHMOND ST,ES,41.95821984,-87.70215096
"{'type': 'Point', 'coordinates': [-87.64745858799995, 41.78495021700007]}",609793,NICHOLSON,6006 S PEORIA ST,ES,41.78494238,-87.64745284
"{'type': 'Point', 'coordinates': [-87.70930944799994, 41.97151396300006]}",609794,EDISON,4929 N SAWYER AVE,ES,41.9715061,-87.70930367
"{'type': 'Point', 'coordinates': [-87.77042331799998, 41.86782041200007]}",609795,CLARK ES,1045 S MONITOR AVE,ES,41.86781257,-87.77041753
"{'type': 'Point', 'coordinates': [-87.75757083599996, 41.97240180800003]}",609796,BEAUBIEN,5025 N LARAMIE AVE,ES,41.97239395,-87.75756504
"{'type': 'Point', 'coordinates': [-87.70586058499998, 41.88532889100003]}",609797,BEIDLER,3151 W WALNUT ST,ES,41.88532104,-87.70585481
"{'type': 'Point', 'coordinates': [-87.73402551799995, 41.95894635600007]}",609798,BELDING,4257 N TRIPP AVE,ES,41.95893849,-87.73401973
"{'type': 'Point', 'coordinates': [-87.68602401799996, 41.94953766200007]}",609799,BELL,3730 N OAKLEY AVE,ES,41.9495298,-87.68601824
"{'type': 'Point', 'coordinates': [-87.61739618499996, 41.71044277500005]}",609800,BENNETT,10115 S PRAIRIE AVE,ES,41.71043495,-87.61739046
"{'type': 'Point', 'coordinates': [-87.66497361199998, 41.95078838300003]}",609803,BLAINE,1420 W GRACE ST,ES,41.95078052,-87.66496784
"{'type': 'Point', 'coordinates': [-87.69746860399994, 42.00341947900006]}",609804,BOONE,6710 N WASHTENAW AVE,ES,42.00341161,-87.69746282
"{'type': 'Point', 'coordinates': [-87.66937139799995, 41.74934699100004]}",609805,JOPLIN,7931 S HONORE ST,ES,41.74933916,-87.66936565
"{'type': 'Point', 'coordinates': [-87.55714768699994, 41.75437296800004]}",609806,BRADWELL,7736 S BURNHAM AVE,ES,41.75436513,-87.55714197
"{'type': 'Point', 'coordinates': [-87.70873704499996, 41.75346502100007]}",609807,HAMPTON,3434 W 77TH ST,ES,41.75345719,-87.70873128
"{'type': 'Point', 'coordinates': [-87.63363786799994, 41.68666779100005]}",609808,HALEY,11411 S EGGLESTON AVE,ES,41.68665997,-87.63363214
"{'type': 'Point', 'coordinates': [-87.69629997299995, 41.93097395600006]}",609809,BRENTANO,2723 N FAIRFIELD AVE,ES,41.9309661,-87.6962942
"{'type': 'Point', 'coordinates': [-87.79867472699999, 41.94912224300003]}",609810,BRIDGE,3800 N NEW ENGLAND AVE,ES,41.94911439,-87.79866892
"{'type': 'Point', 'coordinates': [-87.56208994199994, 41.69973404900003]}",609811,BRIGHT,10740 S CALHOUN AVE,ES,41.69972622,-87.56208423
"{'type': 'Point', 'coordinates': [-87.67068815299996, 41.883004637000056]}",609812,BROWN W,54 N HERMITAGE AVE,ES,41.88299678,-87.67068239
"{'type': 'Point', 'coordinates': [-87.62175170499995, 41.77162819600005]}",609813,BROWNELL,6741 S MICHIGAN AVE,ES,41.77162036,-87.62174597
"{'type': 'Point', 'coordinates': [-87.57608057899995, 41.76085531700005]}",609815,BOUCHET,7355 S JEFFERY BLVD,ES,41.76084748,-87.57607486
"{'type': 'Point', 'coordinates': [-87.69656181099998, 41.97576219700005]}",609817,BUDLONG,2701 W FOSTER AVE,ES,41.97575433,-87.69655603
"{'type': 'Point', 'coordinates': [-87.78270536999997, 41.91760599000003]}",609818,BURBANK,2035 N MOBILE AVE,ES,41.91759814,-87.78269957
"{'type': 'Point', 'coordinates': [-87.61614626099998, 41.796767405000026]}",609819,BURKE,5356 S KING DR,ES,41.79675956,-87.61614052
"{'type': 'Point', 'coordinates': [-87.66985889199998, 41.93794533600004]}",609820,BURLEY,1630 W BARRY AVE,ES,41.93793747,-87.66985312
"{'type': 'Point', 'coordinates': [-87.56713630699994, 41.71440989100006]}",609821,BURNHAM,9928 S CRANDON AVE,ES,41.71440206,-87.56713059
"{'type': 'Point', 'coordinates': [-87.60744104999998, 41.72848846800008]}",609827,BURNSIDE,650 E 91ST PL,ES,41.72848064,-87.60743532
"{'type': 'Point', 'coordinates': [-87.66866636799995, 41.91236576500006]}",609828,BURR,1621 W WABANSIA AVE,ES,41.91235791,-87.6686606
"{'type': 'Point', 'coordinates': [-87.69246239299997, 41.828875749000076]}",609829,BURROUGHS,3542 S WASHTENAW AVE,ES,41.82886791,-87.69245663
"{'type': 'Point', 'coordinates': [-87.76561144999994, 41.89767042200003]}",609830,BRUNSON,932 N CENTRAL AVE,ES,41.89766257,-87.76560566
"{'type': 'Point', 'coordinates': [-87.79155027199994, 41.79503879600003]}",609832,BYRNE,5329 S OAK PARK AVE,ES,41.79503097,-87.79154448
"{'type': 'Point', 'coordinates': [-87.58073474899999, 41.73923418800007]}",609833,CALDWELL,8546 S CREGIER AVE,ES,41.73922636,-87.58072903
"{'type': 'Point', 'coordinates': [-87.71732472499997, 41.84370596100007]}",609834,LITTLE VILLAGE,2620 S LAWNDALE AVE,ES,41.84369812,-87.71731895
"{'type': 'Point', 'coordinates': [-87.71793241399996, 41.90379997100007]}",609835,CAMERON,1234 N MONTICELLO AVE,ES,41.90379212,-87.71792664
"{'type': 'Point', 'coordinates': [-87.82930151699998, 41.94801488300004]}",609836,CANTY,3740 N PANAMA AVE,ES,41.94800703,-87.8292957
"{'type': 'Point', 'coordinates': [-87.59080073799998, 41.78337616300007]}",609837,CARNEGIE,1414 E 61ST PL,ES,41.78336832,-87.59079501
"{'type': 'Point', 'coordinates': [-87.69601783099995, 41.742524453000044]}",609839,CARROLL,2929 W 83RD ST,ES,41.74251663,-87.69601208
"{'type': 'Point', 'coordinates': [-87.68780530199996, 41.79327998000008]}",609842,CARSON,5516 S MAPLEWOOD AVE,ES,41.79327214,-87.68779954
"{'type': 'Point', 'coordinates': [-87.62245849099997, 41.78983574400007]}",609844,CARTER,5740 S MICHIGAN AVE,ES,41.78982791,-87.62245275
"{'type': 'Point', 'coordinates': [-87.59952135099996, 41.65370993300007]}",609845,CARVER G,901 E 133RD PL,ES,41.65370212,-87.59951563
"{'type': 'Point', 'coordinates': [-87.60647956799994, 41.657412787000055]}",609848,ALDRIDGE,630 E 131ST ST,ES,41.65740497,-87.60647385
"{'type': 'Point', 'coordinates': [-87.70322124099994, 41.68735487200007]}",609849,CASSELL,11314 S SPAULDING AVE,ES,41.68734706,-87.70321549
"{'type': 'Point', 'coordinates': [-87.68090253399998, 41.69303382500004]}",609861,CLISSOLD,2350 W 110TH PL,ES,41.69302601,-87.68089679
"{'type': 'Point', 'coordinates': [-87.56597548899998, 41.74142064100005]}",609862,COLES,8441 S YATES BLVD,ES,41.74141281,-87.56596977
"{'type': 'Point', 'coordinates': [-87.68194381699999, 41.89957363000008]}",609863,COLUMBUS,1003 N LEAVITT ST,ES,41.89956578,-87.68193805
"{'type': 'Point', 'coordinates': [-87.65978033499994, 41.74524485100005]}",609864,COOK,8150 S BISHOP ST,ES,41.74523702,-87.65977459
"{'type': 'Point', 'coordinates': [-87.67776829499996, 42.01709546700005]}",609865,JORDAN,7414 N WOLCOTT AVE,ES,42.01708759,-87.67776252
"{'type': 'Point', 'coordinates': [-87.68377107399994, 41.95556105900005]}",609866,COONLEY,4046 N LEAVITT ST,ES,41.9555532,-87.6837653
"{'type': 'Point', 'coordinates': [-87.66723284299997, 41.85603904100003]}",609867,COOPER,1624 W 19TH ST,ES,41.85603119,-87.66722708
"{'type': 'Point', 'coordinates': [-87.65717495399997, 41.784688697000036]}",609869,LANGFORD,6010 S THROOP ST,ES,41.78468086,-87.65716921
"{'type': 'Point', 'coordinates': [-87.73119864199998, 41.84561026500006]}",609870,CORKERY,2510 S KILDARE AVE,ES,41.84560242,-87.73119287
"{'type': 'Point', 'coordinates': [-87.68568234499998, 41.688198656000054]}",609871,VICK,2554 W 113TH ST,ES,41.68819084,-87.6856766
"{'type': 'Point', 'coordinates': [-87.65798588399997, 41.85603657200005]}",609872,PEREZ,1241 W 19TH ST,ES,41.85602872,-87.65798013
"{'type': 'Point', 'coordinates': [-87.71247592199995, 41.852671333000046]}",609873,CROWN,2128 S SAINT LOUIS AVE,ES,41.85266349,-87.71247015
"{'type': 'Point', 'coordinates': [-87.60466613399996, 41.70756544300008]}",609978,SMITH,744 E 103RD ST,ES,41.70755762,-87.60466041
"{'type': 'Point', 'coordinates': [-87.64034649899997, 41.839602703000025]}",609979,HEALY,3010 S PARNELL AVE,ES,41.83959486,-87.64034075
"{'type': 'Point', 'coordinates': [-87.74573183399997, 41.808182835000025]}",609981,HEARST,4640 S LAMON AVE,ES,41.808175,-87.74572606
"{'type': 'Point', 'coordinates': [-87.81313733599995, 41.942559525000036]}",609884,DEVER,3436 N OSCEOLA AVE,ES,41.94255167,-87.81313153
"{'type': 'Point', 'coordinates': [-87.64265732399997, 41.795653523000055]}",609885,DEWEY,5415 S UNION AVE,ES,41.79564568,-87.64265158
"{'type': 'Point', 'coordinates': [-87.60998460499997, 41.74367707400006]}",609887,DIXON,8306 S SAINT LAWRENCE AVE,ES,41.74366924,-87.60997887
"{'type': 'Point', 'coordinates': [-87.61228028299996, 41.83112847600006]}",609891,DOOLITTLE,535 E 35TH ST,ES,41.83112063,-87.61227454
"{'type': 'Point', 'coordinates': [-87.79936505999996, 41.77390664200004]}",609893,DORE,7134 W 65TH ST,ES,41.77389882,-87.79935927
"{'type': 'Point', 'coordinates': [-87.62855919299994, 41.84405116100004]}",609894,DRAKE,2710 S DEARBORN ST,ES,41.84404331,-87.62855345
"{'type': 'Point', 'coordinates': [-87.63017021399997, 41.725617044000046]}",609895,TURNER-DREW,9300 S PRINCETON AVE,ES,41.72560922,-87.63016448
"{'type': 'Point', 'coordinates': [-87.67450036599996, 41.91592166000004]}",609896,DRUMMOND,1845 W CORTLAND ST,ES,41.9159138,-87.6744946
"{'type': 'Point', 'coordinates': [-87.67555241399998, 41.78123300800007]}",609897,EARLE,2040 W 62ND ST,ES,41.78122517,-87.67554666
"{'type': 'Point', 'coordinates': [-87.70795839599998, 41.77442828400007]}",609898,EBERHART,3400 W 65TH PL,ES,41.77442045,-87.70795263
"{'type': 'Point', 'coordinates': [-87.81117560099995, 42.00441578700003]}",609899,EBINGER,7350 W PRATT AVE,ES,42.00440792,-87.81116978
"{'type': 'Point', 'coordinates': [-87.62165833599994, 41.68542622100006]}",609900,CURTIS,32 E 115TH ST,ES,41.6854184,-87.62165261
"{'type': 'Point', 'coordinates': [-87.76184627499998, 41.99944470100007]}",609901,EDGEBROOK,6525 N HIAWATHA AVE,ES,41.99943683,-87.76184047
"{'type': 'Point', 'coordinates': [-87.63431125199997, 41.66945184100007]}",609902,METCALFE,12339 S NORMAL AVE,ES,41.66944402,-87.63430552
"{'type': 'Point', 'coordinates': [-87.72586194899998, 41.805549376000045]}",609903,EDWARDS,4815 S KARLOV AVE,ES,41.80554154,-87.72585618
"{'type': 'Point', 'coordinates': [-87.76659516899997, 41.88553742800008]}",609904,ELLINGTON,243 N PARKSIDE AVE,ES,41.88552958,-87.76658938
"{'type': 'Point', 'coordinates': [-87.71581020599996, 41.875751972000046]}",609907,ERICSON,3600 W 5TH AVE,ES,41.87574412,-87.71580443
"{'type': 'Point', 'coordinates': [-87.66916441299998, 41.689427425000076]}",609908,ESMOND,1865 W MONTVALE AVE,ES,41.68941961,-87.66915867
"{'type': 'Point', 'coordinates': [-87.68131606399999, 41.83156300400003]}",609909,EVERETT,3419 S BELL AVE,ES,41.83155516,-87.6813103
"{'type': 'Point', 'coordinates': [-87.74933641599995, 41.93579243100004]}",609910,FALCONER,3020 N LAMON AVE,ES,41.93578457,-87.74933063
"{'type': 'Point', 'coordinates': [-87.76607745799998, 41.97979791900008]}",609912,FARNSWORTH,5414 N LINDER AVE,ES,41.97979006,-87.76607166
"{'type': 'Point', 'coordinates': [-87.64041938199995, 41.71119144700003]}",609917,FERNWOOD,10041 S UNION AVE,ES,41.71118362,-87.64041365
"{'type': 'Point', 'coordinates': [-87.66999117499995, 42.00967172900005]}",609918,FIELD,7019 N ASHLAND AVE,ES,42.00966386,-87.6699854
"{'type': 'Point', 'coordinates': [-87.60863863099996, 41.785190655000065]}",609919,FISKE,6020 S LANGLEY AVE,ES,41.78518282,-87.6086329
"{'type': 'Point', 'coordinates': [-87.70511784599995, 41.850779329000034]}",609920,KANOON,2233 S KEDZIE AVE,ES,41.85077148,-87.70511208
"{'type': 'Point', 'coordinates': [-87.69601164599999, 41.84795527700004]}",609921,TELPOCHCALLI,2832 W 24TH BLVD,ES,41.84794743,-87.69600588
"{'type': 'Point', 'coordinates': [-87.75795836499998, 41.92161181100005]}",609922,BELMONT-CRAGIN,5252 W PALMER ST,ES,41.92160396,-87.75795257
"{'type': 'Point', 'coordinates': [-87.65548690399999, 41.729680502000065]}",609924,FORT DEARBORN,9025 S THROOP ST,ES,41.72967267,-87.65548116
"{'type': 'Point', 'coordinates': [-87.70216867499994, 41.87017556600006]}",609925,KELLMAN,3030 W ARTHINGTON ST,ES,41.87016772,-87.7021629
"{'type': 'Point', 'coordinates': [-87.63551856499998, 41.90660784800008]}",609926,FRANKLIN,225 W EVERGREEN AVE,ES,41.90659999,-87.63551281
"{'type': 'Point', 'coordinates': [-87.66810505999996, 41.73843330600005]}",609927,FOSTER PARK,8530 S WOOD ST,ES,41.73842548,-87.66809931
"{'type': 'Point', 'coordinates': [-87.61178978099997, 41.81801124800006]}",609928,FULLER,4214 S ST LAWRENCE AVE,ES,41.8180034,-87.61178404
"{'type': 'Point', 'coordinates': [-87.66844163499997, 41.79758810800007]}",609929,FULTON,5300 S HERMITAGE AVE,ES,41.79758027,-87.66843588
"{'type': 'Point', 'coordinates': [-87.71689744399998, 41.917624370000055]}",609930,FUNSTON,2010 N CENTRAL PARK AVE,ES,41.91761651,-87.71689166
"{'type': 'Point', 'coordinates': [-87.67194475299999, 42.021098434000066]}",609933,GALE,1631 W JONQUIL TER,ES,42.02109056,-87.67193898
"{'type': 'Point', 'coordinates': [-87.53518101099996, 41.70680882900007]}",609935,GALLISTEL,10347 S EWING AVE,ES,41.706801,-87.53517531
"{'type': 'Point', 'coordinates': [-87.79624092299997, 41.97635952500008]}",609937,GARVY,5225 N OAK PARK AVE,ES,41.97635166,-87.79623511
"{'type': 'Point', 'coordinates': [-87.71870240799996, 41.83707299400004]}",609938,GARY,3740 W 31ST ST,ES,41.83706515,-87.71869664
"{'type': 'Point', 'coordinates': [-87.62372516999994, 41.72534010700008]}",609939,GILLESPIE,9301 S STATE ST,ES,41.72533228,-87.62371944
"{'type': 'Point', 'coordinates': [-87.67597126499999, 41.76062195800006]}",609941,RANDOLPH,7316 S HOYNE AVE,ES,41.76061413,-87.67596551
"{'type': 'Point', 'coordinates': [-87.69290546899998, 41.922838865000074]}",609942,GOETHE,2236 N ROCKWELL ST,ES,41.92283101,-87.6928997
"{'type': 'Point', 'coordinates': [-87.62255138799998, 41.67062535900004]}",609943,OWENS,12302 S STATE ST,ES,41.67061754,-87.62254566
"{'type': 'Point', 'coordinates': [-87.55331241599998, 41.66248882000008]}",609944,GRISSOM,12810 S ESCANABA AVE,ES,41.662481,-87.55330671
"{'type': 'Point', 'coordinates': [-87.65791825999997, 41.97582439900003]}",609945,GOUDY,5120 N WINTHROP AVE,ES,41.97581653,-87.65791249
"{'type': 'Point', 'coordinates': [-87.64334998299995, 41.81331157100004]}",609947,GRAHAM ES,4436 S UNION AVE,ES,41.81330373,-87.64334424
"{'type': 'Point', 'coordinates': [-87.75712139299998, 41.94877143800005]}",609949,GRAY,3730 N LARAMIE AVE,ES,41.94876358,-87.7571156
"{'type': 'Point', 'coordinates': [-87.71719609199994, 41.838798362000034]}",609950,ORTIZ DE DOMINGUEZ,3000 S LAWNDALE AVE,ES,41.83879052,-87.71719032
"{'type': 'Point', 'coordinates': [-87.59750866499996, 41.81118130600004]}",609951,ARIEL,1119 E 46TH ST,ES,41.81117346,-87.59750293
"{'type': 'Point', 'coordinates': [-87.67149812699995, 41.82967712400006]}",609952,GREENE,3525 S HONORE ST,ES,41.82966928,-87.67149237
"{'type': 'Point', 'coordinates': [-87.71867190399996, 41.87075001000005]}",609954,GREGORY,3715 W POLK ST,ES,41.87074216,-87.71866613
"{'type': 'Point', 'coordinates': [-87.64503097799997, 41.73892798700007]}",609955,GRESHAM,8524 S GREEN ST,ES,41.73892016,-87.64502524
"{'type': 'Point', 'coordinates': [-87.75880907099997, 41.77547209000005]}",609956,GRIMES,5450 W 64TH PL,ES,41.77546426,-87.75880329
"{'type': 'Point', 'coordinates': [-87.69936994899996, 41.81301520900007]}",609958,GUNSAULUS,4420 S SACRAMENTO AVE,ES,41.81300737,-87.69936419
"{'type': 'Point', 'coordinates': [-87.63381207899994, 41.84996616500007]}",609959,HAINES,247 W 23RD PL,ES,41.84995832,-87.63380633
"{'type': 'Point', 'coordinates': [-87.75581904199998, 41.89917920600004]}",609975,HAY,1018 N LARAMIE AVE,ES,41.89917136,-87.75581325
"{'type': 'Point', 'coordinates': [-87.66850954799997, 41.994548758000064]}",609976,HAYT,1518 W GRANVILLE AVE,ES,41.99454089,-87.66850377
"{'type': 'Point', 'coordinates': [-87.59439772499996, 41.77337337000006]}",609977,WOODLAWN,6657 S KIMBARK AVE,ES,41.77336553,-87.594392
"{'type': 'Point', 'coordinates': [-87.75940417499999, 41.893620060000046]}",610000,HOWE,720 N LOREL AVE,ES,41.89361221,-87.75939839
"{'type': 'Point', 'coordinates': [-87.56823381899994, 41.73334558500005]}",610002,HOYNE,8905 S CRANDON AVE,ES,41.73333775,-87.5682281
"{'type': 'Point', 'coordinates': [-87.65363918999998, 41.74245945600006]}",610003,CUFFE,8324 S RACINE AVE,ES,41.74245163,-87.65363345
"{'type': 'Point', 'coordinates': [-87.61125018499996, 41.70034296600005]}",610004,CULLEN,10650 S EBERHART AVE,ES,41.70033514,-87.61124446
"{'type': 'Point', 'coordinates': [-87.73178316499997, 41.860525583000026]}",610005,HUGHES C,4247 W 15TH ST,ES,41.86051774,-87.73177739
"{'type': 'Point', 'coordinates': [-87.71954659799997, 41.76679311200007]}",610006,HURLEY,3849 W 69TH PL,ES,41.76678528,-87.71954083
"{'type': 'Point', 'coordinates': [-87.65337130899997, 41.87126267600007]}",610009,GALILEO,820 S CARPENTER ST,ES,41.87125482,-87.65336555
"{'type': 'Point', 'coordinates': [-87.67581548799996, 41.93925535900007]}",610010,JAHN,3149 N WOLCOTT AVE,ES,41.9392475,-87.67580972
"{'type': 'Point', 'coordinates': [-87.70053520099998, 41.98464864500005]}",610011,JAMIESON,5650 N MOZART ST,ES,41.98464078,-87.70052942
"{'type': 'Point', 'coordinates': [-87.66221519099997, 41.85885672400008]}",610013,PILSEN,1420 W 17TH ST,ES,41.85884888,-87.66220943
"{'type': 'Point', 'coordinates': [-87.65230734899995, 41.85807262600008]}",610015,JUNGMAN,1746 S MILLER ST,ES,41.85806478,-87.65230159
"{'type': 'Point', 'coordinates': [-87.67723825499996, 41.72527126500006]}",610016,KELLOGG,9241 S LEAVITT ST,ES,41.72526344,-87.67723251
"{'type': 'Point', 'coordinates': [-87.69732130399996, 41.84794856100007]}",610017,SAUCEDO,2850 W 24TH BLVD,ES,41.84794072,-87.69731554
"{'type': 'Point', 'coordinates': [-87.64089776799995, 41.77646064600003]}",610019,KERSHAW,6450 S LOWE AVE,ES,41.77645281,-87.64089203
"{'type': 'Point', 'coordinates': [-87.71423942399997, 41.904510618000074]}",610021,CASALS,3501 W POTOMAC AVE,ES,41.90450276,-87.71423365
"{'type': 'Point', 'coordinates': [-87.81205985299994, 41.97850923800007]}",610105,ORIOLE PARK,5424 N OKETO AVE,ES,41.97850138,-87.81205404
"{'type': 'Point', 'coordinates': [-87.73126637799999, 41.90014750800003]}",610106,PICCOLO,1040 N KEELER AVE,ES,41.90013966,-87.7312606
"{'type': 'Point', 'coordinates': [-87.66543199799997, 41.89181393600006]}",610107,OTIS,525 N ARMOUR ST,ES,41.89180608,-87.66542624
"{'type': 'Point', 'coordinates': [-87.67487075299994, 41.774578907000034]}",610108,OTOOLE,6550 S SEELEY AVE,ES,41.77457107,-87.674865
"{'type': 'Point', 'coordinates': [-87.70575484699998, 41.74285774800006]}",610109,OWEN,8247 S CHRISTIANA AVE,ES,41.74284992,-87.70574909
"{'type': 'Point', 'coordinates': [-87.61978540199999, 41.82736311200006]}",610110,WELLS ES,249 E 37TH ST,ES,41.82735527,-87.61977966
"{'type': 'Point', 'coordinates': [-87.73921873699999, 41.97329725700007]}",610111,PALMER,5051 N KENNETH AVE,ES,41.97328939,-87.73921295
"{'type': 'Point', 'coordinates': [-87.63409159599996, 41.770787631000076]}",610112,PARKER,6800 S STEWART AVE,ES,41.7707798,-87.63408586
"{'type': 'Point', 'coordinates': [-87.61155132599998, 41.766484379000076]}",610115,PARK MANOR,7037 S RHODES AVE,ES,41.76647654,-87.61154559
"{'type': 'Point', 'coordinates': [-87.77658449199998, 41.780199561000074]}",609960,HALE,6140 S MELVINA AVE,ES,41.78019173,-87.77657871
"{'type': 'Point', 'coordinates': [-87.55186743199994, 41.74376091800008]}",609961,NINOS HEROES,8344 S COMMERCIAL AVE,ES,41.74375308,-87.55186172
"{'type': 'Point', 'coordinates': [-87.67087114199995, 41.94522751800008]}",609963,HAMILTON,1650 W CORNELIA AVE,ES,41.94521966,-87.67086537
"{'type': 'Point', 'coordinates': [-87.66118041199996, 41.80724939800007]}",609964,HAMLINE,4747 S BISHOP ST,ES,41.80724156,-87.66117466
"{'type': 'Point', 'coordinates': [-87.69624906799999, 41.852726981000046]}",609966,HAMMOND,2819 W 21ST PL,ES,41.85271913,-87.6962433
"{'type': 'Point', 'coordinates': [-87.68567360599997, 41.84922275200006]}",609967,FINKL,2332 S WESTERN AVE,ES,41.84921491,-87.68566784
"{'type': 'Point', 'coordinates': [-87.72393691299999, 41.91482419700003]}",609968,MCAULIFFE,1841 N SPRINGFIELD AVE,ES,41.91481634,-87.72393113
"{'type': 'Point', 'coordinates': [-87.58686032499998, 41.79345508500006]}",609969,HARTE,1556 E 56TH ST,ES,41.79344724,-87.5868546
"{'type': 'Point', 'coordinates': [-87.63274261299995, 41.75734837500005]}",609971,HARVARD,7525 S HARVARD,ES,41.75734054,-87.63273687
"{'type': 'Point', 'coordinates': [-87.72313382099998, 41.964036572000055]}",609972,HAUGAN,4540 N HAMLIN AVE,ES,41.96402871,-87.72312803
"{'type': 'Point', 'coordinates': [-87.73431910099998, 41.841401646000065]}",609973,ZAPATA,2728 S KOSTNER AVE,ES,41.8413938,-87.73431332
"{'type': 'Point', 'coordinates': [-87.65771464199997, 41.94228335200006]}",609974,HAWTHORNE,3319 N CLIFTON AVE,ES,41.94227549,-87.65770888
"{'type': 'Point', 'coordinates': [-87.66822823999996, 42.003648336000026]}",610022,KILMER,6700 N GREENVIEW AVE,ES,42.00364046,-87.66822247
"{'type': 'Point', 'coordinates': [-87.71602317999998, 41.84849561400006]}",610024,CARDENAS,2345 S MILLARD AVE,ES,41.84848777,-87.71601741
"{'type': 'Point', 'coordinates': [-87.77948838499998, 41.78997246500006]}",610026,KINZIE,5625 S MOBILE AVE,ES,41.78996463,-87.7794826
"{'type': 'Point', 'coordinates': [-87.63952645899997, 41.72363473300004]}",610027,KIPLING,9351 S LOWE AVE,ES,41.72362691,-87.63952072
"{'type': 'Point', 'coordinates': [-87.66509903499997, 41.90889398500008]}",610029,LOZANO,1501 N GREENVIEW AVE,ES,41.90888613,-87.66509327
"{'type': 'Point', 'coordinates': [-87.60248718199995, 41.79800972000004]}",610030,KOZMINSKI,936 E 54TH ST,ES,41.79800188,-87.60248145
"{'type': 'Point', 'coordinates': [-87.65250587999998, 41.719299773000046]}",610032,GREEN,1150 W 96TH ST,ES,41.71929195,-87.65250014
"{'type': 'Point', 'coordinates': [-87.63757061899997, 41.913907392000056]}",610033,LASALLE,1734 N ORLEANS ST,ES,41.91389953,-87.63756486
"{'type': 'Point', 'coordinates': [-87.71296255999994, 41.86296787100008]}",610034,LAWNDALE,3500 W DOUGLAS BLVD,ES,41.86296002,-87.71295679
"{'type': 'Point', 'coordinates': [-87.75455573999994, 41.90683390200007]}",610036,LEWIS,1431 N LEAMINGTON AVE,ES,41.90682605,-87.75454995
"{'type': 'Point', 'coordinates': [-87.65993856899996, 41.79769267100005]}",610037,LIBBY,5300 S LOOMIS BLVD,ES,41.79768483,-87.65993282
"{'type': 'Point', 'coordinates': [-87.64450306299995, 41.92453267700006]}",610038,LINCOLN,615 W KEMPER PL,ES,41.92452482,-87.6444973
"{'type': 'Point', 'coordinates': [-87.70264045199997, 41.940017140000066]}",610039,VON LINNE,3221 N SACRAMENTO AVE,ES,41.94000928,-87.70263467
"{'type': 'Point', 'coordinates': [-87.74852080199997, 41.91882195000005]}",610040,LLOYD,2103 N LAMON AVE,ES,41.9188141,-87.74851501
"{'type': 'Point', 'coordinates': [-87.79560987499997, 41.931770208000046]}",610041,LOCKE J,2828 N OAK PARK AVE,ES,41.93176235,-87.79560407
"{'type': 'Point', 'coordinates': [-87.78392464499996, 41.91272587800006]}",610043,LOVETT,6333 W BLOOMINGDALE AVE,ES,41.91271803,-87.78391885
"{'type': 'Point', 'coordinates': [-87.71022277799995, 41.90652744500005]}",610044,LOWELL,3320 W HIRSCH ST,ES,41.90651959,-87.710217
"{'type': 'Point', 'coordinates': [-87.77717999799995, 41.93420001800007]}",610046,LYON,2941 N MCVICKER AVE,ES,41.93419216,-87.7771742
"{'type': 'Point', 'coordinates': [-87.59071812199994, 41.75955589600005]}",610047,MADISON,7433 S DORCHESTER AVE,ES,41.75954806,-87.5907124
"{'type': 'Point', 'coordinates': [-87.63983226899995, 41.908254741000064]}",610048,MANIERRE,1420 N HUDSON AVE,ES,41.90824688,-87.63982651
"{'type': 'Point', 'coordinates': [-87.75792630099994, 41.920618825000076]}",610051,NORTHWEST,5252 W PALMER ST,ES,41.92061097,-87.75792051
"{'type': 'Point', 'coordinates': [-87.57482135799995, 41.74828196200008]}",610052,MANN,8050 S CHAPPEL AVE,ES,41.74827413,-87.57481564
"{'type': 'Point', 'coordinates': [-87.69703555799998, 41.773888912000075]}",610053,MARQUETTE,6550 S RICHMOND ST,ES,41.77388108,-87.6970298
"{'type': 'Point', 'coordinates': [-87.55248913699995, 41.71659584500003]}",610054,MARSH,9822 S EXCHANGE AVE,ES,41.71658802,-87.55248343
"{'type': 'Point', 'coordinates': [-87.70809779299998, 41.87972144100007]}",610055,FARADAY,3250 W MONROE ST,ES,41.87971359,-87.70809202
"{'type': 'Point', 'coordinates': [-87.73167821099997, 41.85687154500005]}",610056,MASON,4217 W 18TH ST,ES,41.8568637,-87.73167243
"{'type': 'Point', 'coordinates': [-87.69212082199994, 41.78091173200005]}",610057,FAIRFIELD,6201 S FAIRFIELD AVE,ES,41.7809039,-87.69211506
"{'type': 'Point', 'coordinates': [-87.65729320099996, 41.923211382000034]}",610059,MAYER,2250 N CLIFTON AVE,ES,41.92320352,-87.65728744
"{'type': 'Point', 'coordinates': [-87.66099042999997, 41.874307490000035]}",610060,CHICAGO WORLD LANGUAGE ACADEMY,1340 W HARRISON ST,ES,41.87429964,-87.66098467
"{'type': 'Point', 'coordinates': [-87.64110832399996, 41.83000070800006]}",610062,MCCLELLAN,3527 S WALLACE ST,ES,41.82999286,-87.64110258
"{'type': 'Point', 'coordinates': [-87.70630586099998, 41.84227500900005]}",610063,MCCORMICK,2712 S SAWYER AVE,ES,41.84226717,-87.70630009
"{'type': 'Point', 'coordinates': [-87.60936294499999, 41.77543168200003]}",610065,TILL,6543 S CHAMPLAIN AVE,ES,41.77542384,-87.60935721
"{'type': 'Point', 'coordinates': [-87.61922017599994, 41.734557738000035]}",610066,MCDADE,8801 S INDIANA AVE,ES,41.73454991,-87.61921444
"{'type': 'Point', 'coordinates': [-87.69179225899995, 41.768150596000055]}",610067,MCKAY,6901 S FAIRFIELD AVE,ES,41.76814276,-87.6917865
"{'type': 'Point', 'coordinates': [-87.76152056399997, 41.92396311200008]}",610068,HANSON PARK,5411 W FULLERTON AVE,ES,41.92395526,-87.76151477
"{'type': 'Point', 'coordinates': [-87.67629402499995, 41.96785473400007]}",610070,MCPHERSON,4728 N WOLCOTT AVE,ES,41.96784687,-87.67628825
"{'type': 'Point', 'coordinates': [-87.68319035299999, 41.89209001900008]}",610073,MITCHELL,2233 W OHIO ST,ES,41.89208217,-87.68318459
"{'type': 'Point', 'coordinates': [-87.71922953199999, 41.92999646100003]}",610074,MONROE,3651 W SCHUBERT AVE,ES,41.9299886,-87.71922375
"{'type': 'Point', 'coordinates': [-87.69694715899999, 41.91251334000003]}",610076,MOOS,1711 N CALIFORNIA AVE,ES,41.91250548,-87.69694139
"{'type': 'Point', 'coordinates': [-87.68855501299998, 41.78432111600006]}",610077,MORRILL,6011 S ROCKWELL ST,ES,41.78431328,-87.68854926
"{'type': 'Point', 'coordinates': [-87.65157910499994, 41.94901116600005]}",610078,INTER-AMERICAN,851 W WAVELAND AVE,ES,41.9490033,-87.65157334
"{'type': 'Point', 'coordinates': [-87.64134555599998, 41.84440800600004]}",610081,SHERIDAN,533 W 27TH ST,ES,41.84440016,-87.64133981
"{'type': 'Point', 'coordinates': [-87.70581569899997, 41.695741680000026]}",610082,MOUNT GREENWOOD,10841 S HOMAN AVE,ES,41.69573386,-87.70580994
"{'type': 'Point', 'coordinates': [-87.78963613799993, 41.97013274400007]}",610083,BEARD,6445 W STRONG ST,ES,41.97012488,-87.78963033
"{'type': 'Point', 'coordinates': [-87.69728408899994, 41.69717815300004]}",610084,KELLER,3020 W 108TH ST,ES,41.69717033,-87.69727834
"{'type': 'Point', 'coordinates': [-87.64765822399994, 41.70195994000005]}",610086,MOUNT VERNON,10540 S MORGAN ST,ES,41.70195212,-87.64765249
"{'type': 'Point', 'coordinates': [-87.79061021199999, 41.77656409700006]}",610087,BLAIR,6751 W 63RD PL,ES,41.77655627,-87.79060442
"{'type': 'Point', 'coordinates': [-87.72189392599995, 41.92091750600008]}",610088,MOZART,2200 N HAMLIN AVE,ES,41.92090965,-87.72188814
"{'type': 'Point', 'coordinates': [-87.71683763799996, 41.950085615000035]}",610089,MURPHY,3539 W GRACE ST,ES,41.95007775,-87.71683186
"{'type': 'Point', 'coordinates': [-87.59334613599998, 41.79854332700006]}",610090,MURRAY,5335 S KENWOOD AVE,ES,41.79853549,-87.59334041
"{'type': 'Point', 'coordinates': [-87.63896345699999, 41.66488116700003]}",610091,BROWN R,12607 S UNION AVE,ES,41.66487335,-87.63895773
"{'type': 'Point', 'coordinates': [-87.74794166399994, 41.891817600000024]}",610092,NASH,4837 W ERIE ST,ES,41.89180975,-87.74793588
"{'type': 'Point', 'coordinates': [-87.62093918799997, 41.73841442500003]}",610093,NEIL,8555 S MICHIGAN AVE,ES,41.7384066,-87.62093346
"{'type': 'Point', 'coordinates': [-87.64456698299995, 41.941644419000056]}",610094,NETTELHORST,3252 N BROADWAY ST,ES,41.94163655,-87.64456122
"{'type': 'Point', 'coordinates': [-87.64599600999998, 41.913955077000026]}",610095,NEWBERRY,700 W WILLOW ST,ES,41.91394722,-87.64599025
"{'type': 'Point', 'coordinates': [-87.68914462299995, 41.79772221600007]}",610096,NIGHTINGALE,5250 S ROCKWELL ST,ES,41.79771438,-87.68913886
"{'type': 'Point', 'coordinates': [-87.73142587499996, 41.91958930800007]}",610097,NIXON,2121 N KEELER AVE,ES,41.91958145,-87.73142009
"{'type': 'Point', 'coordinates': [-87.72996041399995, 41.90616300600004]}",610098,NOBEL,4127 W HIRSCH ST,ES,41.90615515,-87.72995463
"{'type': 'Point', 'coordinates': [-87.80298525199998, 41.98816037000006]}",610099,NORWOOD PARK,5900 N NINA AVE,ES,41.98815251,-87.80297944
"{'type': 'Point', 'coordinates': [-87.73244887899995, 41.90691505900003]}",610100,WEST PARK,1425 N TRIPP AVE,ES,41.90690721,-87.7324431
"{'type': 'Point', 'coordinates': [-87.64547523899995, 41.754677894000054]}",610102,OGLESBY,7646 S GREEN ST,ES,41.75467006,-87.6454695
"{'type': 'Point', 'coordinates': [-87.57281167699995, 41.768610151000075]}",610103,OKEEFFE,6940 S MERRILL AVE,ES,41.76860231,-87.57280595
"{'type': 'Point', 'coordinates': [-87.79311406499994, 41.99379821400004]}",610104,ONAHAN,6634 W RAVEN ST,ES,41.99379035,-87.79310826
"{'type': 'Point', 'coordinates': [-87.58296010799995, 41.768563028000074]}",610116,PARKSIDE,6938 S EAST END AVE,ES,41.76855519,-87.58295438
"{'type': 'Point', 'coordinates': [-87.73267222599998, 41.78690321000005]}",610117,PASTEUR,5825 S KOSTNER AVE,ES,41.78689538,-87.73266646
"{'type': 'Point', 'coordinates': [-87.71922202799999, 41.787906804000045]}",610120,PECK,3826 W 58TH ST,ES,41.78789897,-87.71921626
"{'type': 'Point', 'coordinates': [-87.68362141599994, 41.87160334200007]}",610121,IRVING,749 S OAKLEY BLVD,ES,41.87159549,-87.68361565
"{'type': 'Point', 'coordinates': [-87.66585580799995, 41.98346366200008]}",610122,PEIRCE,1423 W BRYN MAWR AVE,ES,41.98345579,-87.66585004
"{'type': 'Point', 'coordinates': [-87.72239132299995, 41.85838026500005]}",610123,PENN,1616 S AVERS AVE,ES,41.85837242,-87.72238555
"{'type': 'Point', 'coordinates': [-87.59626234199999, 41.72854197300006]}",610124,WASHINGTON H ES,9130 S UNIVERSITY AVE,ES,41.72853414,-87.59625662
"{'type': 'Point', 'coordinates': [-87.68075029699997, 41.84810878600007]}",610125,RUIZ,2410 S LEAVITT ST,ES,41.84810094,-87.68074453
"{'type': 'Point', 'coordinates': [-87.61834339599994, 41.83653480100003]}",610126,PERSHING,3200 S CALUMET AVE,ES,41.83652695,-87.61833765
"{'type': 'Point', 'coordinates': [-87.71258836199996, 41.98156500500005]}",610127,PETERSON,5510 N CHRISTIANA AVE,ES,41.98155714,-87.71258258
"{'type': 'Point', 'coordinates': [-87.64758290299994, 41.706610683000065]}",610128,GARVEY,10309 S MORGAN ST,ES,41.70660286,-87.64757717
"{'type': 'Point', 'coordinates': [-87.68329650599998, 41.85290824200007]}",610129,PICKARD,2301 W 21ST PL,ES,41.8529004,-87.68329074
"{'type': 'Point', 'coordinates': [-87.60789686699997, 41.740348065000035]}",610130,PIRIE,650 E 85TH ST,ES,41.74034023,-87.60789114
"{'type': 'Point', 'coordinates': [-87.69253151699996, 41.860266747000026]}",610131,PLAMONDON,2642 W 15TH PL,ES,41.8602589,-87.69252575
"{'type': 'Point', 'coordinates': [-87.60642489899999, 41.70263782600006]}",610132,POE,10538 S LANGLEY AVE,ES,41.70263,-87.60641917
"{'type': 'Point', 'coordinates': [-87.71880307099997, 41.893243462000044]}",610133,WARD L,646 N LAWNDALE AVE,ES,41.89323561,-87.71879729
"{'type': 'Point', 'coordinates': [-87.76101279999995, 41.95699549700004]}",610135,PORTAGE PARK,5330 W BERTEAU AVE,ES,41.95698764,-87.761007
"{'type': 'Point', 'coordinates': [-87.66953327099998, 41.92884896100003]}",610136,PRESCOTT,1632 W WRIGHTWOOD AVE,ES,41.9288411,-87.6695275
"{'type': 'Point', 'coordinates': [-87.77241996699996, 41.96562693200008]}",610137,PRUSSING,4650 N MENARD AVE,ES,41.96561907,-87.77241417
"{'type': 'Point', 'coordinates': [-87.68380719999999, 41.91849413600005]}",610138,PULASKI,2230 W MCLEAN AVE,ES,41.91848628,-87.68380143
"{'type': 'Point', 'coordinates': [-87.60943669299996, 41.68882717500003]}",610139,PULLMAN,11311 S FORRESTVILLE AVE,ES,41.68881935,-87.60943097
"{'type': 'Point', 'coordinates': [-87.67092818899994, 41.96075355800008]}",610141,RAVENSWOOD,4332 N PAULINA ST,ES,41.96074569,-87.67092242
"{'type': 'Point', 'coordinates': [-87.59475780299994, 41.792355722000025]}",610142,RAY,5631 S KIMBARK AVE,ES,41.79234788,-87.59475207
"{'type': 'Point', 'coordinates': [-87.60493116599997, 41.80418163400003]}",610143,REAVIS,834 E 50TH ST,ES,41.80417379,-87.60492543
"{'type': 'Point', 'coordinates': [-87.71954632699999, 41.94110185000005]}",610144,REILLY,3650 W SCHOOL ST,ES,41.94109399,-87.71954054
"{'type': 'Point', 'coordinates': [-87.76898841599996, 41.94302675300003]}",610145,REINBERG,3425 N MAJOR AVE,ES,41.9430189,-87.76898262
"{'type': 'Point', 'coordinates': [-87.60018255299997, 41.76420370100004]}",610146,REVERE,1010 E 72ND ST,ES,41.76419587,-87.60017682
"{'type': 'Point', 'coordinates': [-87.69719117699998, 42.01527292000003]}",610147,ROGERS,7345 N WASHTENAW AVE,ES,42.01526505,-87.69718539
"{'type': 'Point', 'coordinates': [-87.66604268799995, 41.807150671000045]}",610148,CHAVEZ,4747 S MARSHFIELD AVE,ES,41.80714283,-87.66603693
"{'type': 'Point', 'coordinates': [-87.61807218099995, 41.751953409000066]}",610152,RUGGLES,7831 S PRAIRIE AVE,ES,41.75194558,-87.61806645
"{'type': 'Point', 'coordinates': [-87.63884843899996, 41.735387219000074]}",610153,RYDER,8716 S WALLACE ST,ES,41.73537939,-87.6388427
"{'type': 'Point', 'coordinates': [-87.74595723999994, 41.99117711300005]}",610155,SAUGANASH,6040 N KILPATRICK AVE,ES,41.99116925,-87.74595144
"{'type': 'Point', 'coordinates': [-87.70501154399994, 41.79750603900004]}",610157,SAWYER,5248 S SAWYER AVE,ES,41.7974982,-87.70500578
"{'type': 'Point', 'coordinates': [-87.79872650799996, 41.914158480000026]}",610158,SAYRE,1850 N NEWLAND AVE,ES,41.91415063,-87.79872071
"{'type': 'Point', 'coordinates': [-87.73218456399997, 41.941685463000056]}",610159,SCAMMON,4201 W HENDERSON ST,ES,41.9416776,-87.73217878
"{'type': 'Point', 'coordinates': [-87.81420047299997, 42.01689950800005]}",610163,STOCK,7507 W BIRCHWOOD AVE,ES,42.01689164,-87.81419465
"{'type': 'Point', 'coordinates': [-87.76119626299999, 41.93041117200005]}",610165,SCHUBERT,2727 N LONG AVE,ES,41.93040332,-87.76119047
"{'type': 'Point', 'coordinates': [-87.66877776599995, 41.81034108100005]}",610167,SEWARD,4600 S HERMITAGE AVE,ES,41.81033324,-87.66877201
"{'type': 'Point', 'coordinates': [-87.70420435599999, 41.81107644800005]}",610170,COLUMBIA EXPLORERS,4520 S KEDZIE AVE,ES,41.81106861,-87.70419859
"{'type': 'Point', 'coordinates': [-87.55279365699994, 41.73172474900008]}",610171,MIRELES,9000 S EXCHANGE AVE,ES,41.73171692,-87.55278794
"{'type': 'Point', 'coordinates': [-87.65022719399997, 41.79977404500005]}",610172,SHERMAN,1000 W 52ND ST,ES,41.79976621,-87.65022145
"{'type': 'Point', 'coordinates': [-87.63228512399996, 41.79080808300006]}",610173,SHERWOOD,245 W 57TH ST,ES,41.79080024,-87.63227938
"{'type': 'Point', 'coordinates': [-87.68965299599995, 41.81591732600003]}",610174,SHIELDS,4250 S ROCKWELL ST,ES,41.81590949,-87.68964724
"{'type': 'Point', 'coordinates': [-87.59391067399997, 41.804301860000066]}",610175,SHOESMITH,1330 E 50TH ST,ES,41.80429402,-87.59390494
"{'type': 'Point', 'coordinates': [-87.65867479199994, 41.690926697000066]}",610176,SHOOP,11140 S BISHOP ST,ES,41.69091888,-87.65866905
"{'type': 'Point', 'coordinates': [-87.65942473499996, 41.879110395000055]}",610177,SKINNER,1260 W ADAMS ST,ES,41.87910254,-87.65941898
"{'type': 'Point', 'coordinates': [-87.59693760599998, 41.71699670000004]}",610178,SCHMID,9755 S GREENWOOD AVE,ES,41.71698887,-87.59693188
"{'type': 'Point', 'coordinates': [-87.78198033999996, 41.95887589500006]}",610179,SMYSER,4310 N MELVINA AVE,ES,41.95886804,-87.78197454
"{'type': 'Point', 'coordinates': [-87.65345078199994, 41.86535886900003]}",610180,SMYTH,1059 W 13TH ST,ES,41.86535102,-87.65344503
"{'type': 'Point', 'coordinates': [-87.72404842199995, 41.993950201000075]}",610182,SOLOMON,6206 N HAMLIN AVE,ES,41.99394233,-87.72404263
"{'type': 'Point', 'coordinates': [-87.75045051699999, 41.88488424700006]}",610183,SPENCER,214 N LAVERGNE AVE,ES,41.8848764,-87.75044473
"{'type': 'Point', 'coordinates': [-87.73167145199994, 41.74711470500006]}",610185,STEVENSON,8010 S KOSTNER AVE,ES,41.74710688,-87.73166568
"{'type': 'Point', 'coordinates': [-87.63997933899998, 41.69650398600004]}",610188,DUNNE,10845 S UNION AVE,ES,41.69649616,-87.6399736
"{'type': 'Point', 'coordinates': [-87.68479856399995, 41.99536692200007]}",610191,STONE,6239 N LEAVITT ST,ES,41.99535905,-87.68479279
"{'type': 'Point', 'coordinates': [-87.71332327799996, 41.91194593500006]}",610192,STOWE,3444 W WABANSIA AVE,ES,41.91193808,-87.7133175
"{'type': 'Point', 'coordinates': [-87.54293331899999, 41.743836360000046]}",610193,NEW SULLIVAN,8331 S MACKINAW AVE,ES,41.74382852,-87.54292761
"{'type': 'Point', 'coordinates': [-87.73352973099998, 41.87083622600005]}",610194,SUMNER,4320 W 5TH AVE,ES,41.87082838,-87.73352395
"{'type': 'Point', 'coordinates': [-87.67682691999994, 41.71145289400005]}",610195,SUTHERLAND,10015 S LEAVITT ST,ES,41.71144507,-87.67682117
"{'type': 'Point', 'coordinates': [-87.65830184999999, 41.98914693200004]}",610196,SWIFT,5900 N WINTHROP AVE,ES,41.98913906,-87.65829608
"{'type': 'Point', 'coordinates': [-87.67372848899998, 41.89241246600005]}",610197,TALCOTT,1840 W OHIO ST,ES,41.89240461,-87.67372272
"{'type': 'Point', 'coordinates': [-87.71099309699997, 41.79235391900005]}",610226,SANDOVAL,5534 S SAINT LOUIS AVE,ES,41.79234608,-87.71098733
"{'type': 'Point', 'coordinates': [-87.72555141699996, 41.840088269000034]}",610227,WHITNEY,2815 S KOMENSKY AVE,ES,41.84008043,-87.72554564
"{'type': 'Point', 'coordinates': [-87.67339741399996, 41.85048873300008]}",610228,WHITTIER,1900 W 23RD ST,ES,41.85048089,-87.67339165
"{'type': 'Point', 'coordinates': [-87.67776674799995, 41.90706086100005]}",610229,PRITZKER,2009 W SCHILLER ST,ES,41.90705301,-87.67776098
"{'type': 'Point', 'coordinates': [-87.77835066799997, 42.00749853800005]}",610230,WILDWOOD,6950 N HIAWATHA AVE,ES,42.00749067,-87.77834486
"{'type': 'Point', 'coordinates': [-87.62931407699995, 41.85280762000008]}",610231,NATIONAL TEACHERS,55 W CERMAK RD,ES,41.85279977,-87.62930833
"{'type': 'Point', 'coordinates': [-87.76994331499998, 41.95760684800007]}",610390,RICKOVER MILITARY HS,5700 W BERTEAU AVE,HS,41.95759899,-87.76993752
"{'type': 'Point', 'coordinates': [-87.67166760199996, 41.78204863800005]}",610391,LINDBLOM HS,6130 S WOLCOTT AVE,HS,41.7820408,-87.67166185
"{'type': 'Point', 'coordinates': [-87.73529799399995, 41.83440445700006]}",610392,WORLD LANGUAGE HS,3120 S KOSTNER AVE,HS,41.83439662,-87.73529222
"{'type': 'Point', 'coordinates': [-87.65247911099999, 41.96555532900004]}",610394,UPLIFT HS,900 W WILSON AVE,HS,41.96554746,-87.65247335
"{'type': 'Point', 'coordinates': [-87.70645040999995, 41.76441490600007]}",610396,TARKINGTON,3330 W 71ST ST,ES,41.76440708,-87.70644465
"{'type': 'Point', 'coordinates': [-87.67633224099995, 41.968827443000066]}",610402,DEVRY HS,1900 W LAWRENCE AVE,HS,41.96881958,-87.67632647
"{'type': 'Point', 'coordinates': [-87.67764187699999, 41.883222369000066]}",610405,SUDER,2022 W WASHINGTON BLVD,ES,41.88321452,-87.67763611
"{'type': 'Point', 'coordinates': [-87.53297647299996, 41.71547820700005]}",610198,TAYLOR,9912 S AVENUE H,ES,41.71547038,-87.53297077
"{'type': 'Point', 'coordinates': [-87.65811657699999, 41.67751326500007]}",610199,COLEMON,1441 W 119TH ST,ES,41.67750545,-87.65811084
"{'type': 'Point', 'coordinates': [-87.54428568699996, 41.73333207200005]}",610200,THORP J,8914 S BUFFALO AVE,ES,41.73332424,-87.54427998
"{'type': 'Point', 'coordinates': [-87.77763709499999, 41.94857917000007]}",610201,THORP O,6024 W WARWICK AVE,ES,41.94857131,-87.77763129
"{'type': 'Point', 'coordinates': [-87.73057216499996, 41.884110091000025]}",610202,TILTON,223 N KEELER AVE,ES,41.88410224,-87.73056638
"{'type': 'Point', 'coordinates': [-87.70818494799994, 41.78753106400006]}",610203,TONTI,5815 S HOMAN AVE,ES,41.78752323,-87.70817918
"{'type': 'Point', 'coordinates': [-87.75893418099997, 41.79905423100007]}",610206,TWAIN,5134 S LOTUS AVE,ES,41.7990464,-87.7589284
"{'type': 'Point', 'coordinates': [-87.66556436599996, 41.72082485900006]}",610207,VANDERPOEL,9510 S PROSPECT AVE,ES,41.72081703,-87.66555862
"{'type': 'Point', 'coordinates': [-87.62715341899997, 41.69627017000005]}",610208,LAVIZZO,138 W 109TH ST,ES,41.69626235,-87.62714769
"{'type': 'Point', 'coordinates': [-87.72461101099998, 41.97164186600003]}",610209,VOLTA,4950 N AVERS AVE,ES,41.971634,-87.72460522
"{'type': 'Point', 'coordinates': [-87.71061457199994, 41.97151230900005]}",610212,ALBANY PARK,4929 N SAWYER AVE,ES,41.97150444,-87.71060879
"{'type': 'Point', 'coordinates': [-87.60102384399994, 41.773485736000055]}",610213,WADSWORTH,6650 S ELLIS AVE,ES,41.7734779,-87.60101811
"{'type': 'Point', 'coordinates': [-87.70507002799997, 41.84096475500007]}",610215,MADERO,3202 W 28TH ST,ES,41.84095691,-87.70506426
"{'type': 'Point', 'coordinates': [-87.64809192699994, 41.85484359600008]}",610216,WALSH,2015 S PEORIA ST,ES,41.85483575,-87.64808617
"{'type': 'Point', 'coordinates': [-87.63536153699994, 41.843987937000065]}",610217,WARD J,2701 S SHIELDS AVE,ES,41.84398009,-87.63535579
"{'type': 'Point', 'coordinates': [-87.57535826799995, 41.72677074000006]}",610218,WARREN,9239 S JEFFERY AVE,ES,41.72676291,-87.57535255
"{'type': 'Point', 'coordinates': [-87.53602100299997, 41.688139310000054]}",610219,WASHINGTON G ES,3611 E 114TH ST,ES,41.68813148,-87.5360153
"{'type': 'Point', 'coordinates': [-87.69133828799994, 41.96437326900008]}",610220,WATERS,4540 N CAMPBELL AVE,ES,41.9643654,-87.69133251
"{'type': 'Point', 'coordinates': [-87.72753015199999, 41.869923705000076]}",610221,WEBSTER,4055 W ARTHINGTON ST,ES,41.86991586,-87.72752437
"{'type': 'Point', 'coordinates': [-87.65821058299997, 41.765083729000025]}",610223,WENTWORTH,1340 W 71ST ST,ES,41.7650759,-87.65820484
"{'type': 'Point', 'coordinates': [-87.65538955899996, 41.68391482900006]}",610225,WHISTLER,11533 S ADA ST,ES,41.68390701,-87.65538382
"{'type': 'Point', 'coordinates': [-87.70028608699994, 41.915046404000066]}",610234,YATES,1839 N RICHMOND ST,ES,41.91503855,-87.70028031
"{'type': 'Point', 'coordinates': [-87.76714863899997, 41.90679842600008]}",610235,YOUNG ES,1434 N PARKSIDE AVE,ES,41.90679057,-87.76714285
"{'type': 'Point', 'coordinates': [-87.62714254799994, 41.80914260000003]}",610237,BEETHOVEN,25 W 47TH ST,ES,41.80913476,-87.62713681
"{'type': 'Point', 'coordinates': [-87.65302353199996, 41.76536839900007]}",610238,BOND,7050 S MAY ST,ES,41.76536057,-87.65301779
"{'type': 'Point', 'coordinates': [-87.67221215699999, 41.80235070700007]}",610239,DALEY,5024 S WOLCOTT AVE,ES,41.80234287,-87.6722064
"{'type': 'Point', 'coordinates': [-87.64975492899998, 41.95999202200005]}",610242,BRENNEMANN,4251 N CLARENDON AVE,ES,41.95998416,-87.64974917
"{'type': 'Point', 'coordinates': [-87.75333065699994, 41.872892852000064]}",610244,CLARK HS,5101 W HARRISON ST,HS,41.87288501,-87.75332487
"{'type': 'Point', 'coordinates': [-87.76767424699995, 41.890376478000064]}",610245,DOUGLASS HS,543 N WALLER AVE,HS,41.89036863,-87.76766846
"{'type': 'Point', 'coordinates': [-87.62569731899998, 41.79847280000007]}",610246,BEASLEY,5255 S STATE ST,ES,41.79846496,-87.62569158
"{'type': 'Point', 'coordinates': [-87.77819260299998, 41.94306377700008]}",610248,CHICAGO ACADEMY ES,3400 N AUSTIN AV,ES,41.94305592,-87.7781868
"{'type': 'Point', 'coordinates': [-87.69026659799994, 41.79405588700007]}",610249,TALMAN,5450 S TALMAN AVE,ES,41.79404805,-87.69026084
"{'type': 'Point', 'coordinates': [-87.63363818699997, 41.90142439200008]}",610250,SALAZAR,160 W WENDELL ST,ES,41.90141653,-87.63363243
"{'type': 'Point', 'coordinates': [-87.69919277999998, 41.88295777500008]}",610251,CATHER,2908 W WASHINGTON BLVD,ES,41.88294992,-87.69918701
"{'type': 'Point', 'coordinates': [-87.68032073099994, 41.87987767200008]}",610252,DETT,2131 W MONROE ST,ES,41.87986982,-87.68031497
"{'type': 'Point', 'coordinates': [-87.71574934499995, 41.85889129200007]}",610254,DVORAK,3615 W 16TH ST,ES,41.85888345,-87.71574357
"{'type': 'Point', 'coordinates': [-87.59907250599997, 41.81735717200007]}",610256,ROBINSON,4225 S LAKE PARK AVE,ES,41.81734933,-87.59906677
"{'type': 'Point', 'coordinates': [-87.70511360399996, 41.889185987000076]}",610257,MORTON,431 N TROY ST,ES,41.88917814,-87.70510783
"{'type': 'Point', 'coordinates': [-87.61721991499996, 41.77990833200005]}",610263,DULLES,6311 S CALUMET AVE,ES,41.77990049,-87.61721418
"{'type': 'Point', 'coordinates': [-87.60118013599998, 41.740191623000044]}",610268,ASHE,8505 S INGLESIDE AVE,ES,41.74018379,-87.60117441
"{'type': 'Point', 'coordinates': [-87.65476421399995, 41.97095695100006]}",610269,MCCUTCHEON,4865 N SHERIDAN RD,ES,41.97094908,-87.65475845
"{'type': 'Point', 'coordinates': [-87.70224682299994, 41.87382279600007]}",610271,JENSEN,3030 W HARRISON ST,ES,41.87381495,-87.70224105
"{'type': 'Point', 'coordinates': [-87.70314453299994, 41.86184403900006]}",610274,JOHNSON,1420 S ALBANY AVE,ES,41.86183619,-87.70313876
"{'type': 'Point', 'coordinates': [-87.61662368399999, 41.81436612700003]}",610276,MOLLISON,4415 S DR MARTIN L KING JR DR,ES,41.81435828,-87.61661794
"{'type': 'Point', 'coordinates': [-87.60679676699993, 41.76068047100006]}",610279,TANNER,7350 S EVANS AVE,ES,41.76067264,-87.60679104
"{'type': 'Point', 'coordinates': [-87.55679496499994, 41.76033963800006]}",610281,POWELL,7511 S SOUTH SHORE DR,ES,41.7603318,-87.55678925
"{'type': 'Point', 'coordinates': [-87.74673656499994, 41.89782692000006]}",610282,MCNAIR,4820 W WALTON ST,ES,41.89781907,-87.74673078
"{'type': 'Point', 'coordinates': [-87.67317410399994, 42.007710444000054]}",610284,NEW FIELD,1707 W MORSE AVE,ES,42.00770257,-87.67316833
"{'type': 'Point', 'coordinates': [-87.70961544199997, 41.742358393000075]}",610287,ASHBURN,8300 S ST LOUIS AVE,ES,41.74235057,-87.70960968
"{'type': 'Point', 'coordinates': [-87.63728308899994, 41.77273533300007]}",610290,MAYS,6656 S NORMAL BLVD,ES,41.7727275,-87.63727735
"{'type': 'Point', 'coordinates': [-87.72889006199995, 41.775313218000065]}",610291,LEE,6448 S TRIPP AVE,ES,41.77530539,-87.72888429
"{'type': 'Point', 'coordinates': [-87.72466700899997, 41.87880678100004]}",610293,MELODY,3937 W WILCOX ST,ES,41.87879893,-87.72466123
"{'type': 'Point', 'coordinates': [-87.64699977299995, 41.681039189000046]}",610295,HIGGINS,11710 S MORGAN ST,ES,41.68103137,-87.64699404
"{'type': 'Point', 'coordinates': [-87.62804609899996, 41.747193749000076]}",610298,LENART,8101 S LASALLE ST,ES,41.74718592,-87.62804036
"{'type': 'Point', 'coordinates': [-87.64134028299998, 41.765342814000064]}",610299,KING ES,644 W 71ST ST,ES,41.76533498,-87.64133454
"{'type': 'Point', 'coordinates': [-87.63475625499996, 41.74887605600003]}",610300,WESTCOTT,409 W 80TH ST,ES,41.74886823,-87.63475052
"{'type': 'Point', 'coordinates': [-87.68696598499997, 41.87912608200003]}",610304,PHOENIX MILITARY HS,145 S CAMPBELL AVE,HS,41.87911823,-87.68696022
"{'type': 'Point', 'coordinates': [-87.74928133899994, 41.873594627000045]}",610305,LELAND,512 S LAVERGNE AVE,ES,41.87358678,-87.74927555
"{'type': 'Point', 'coordinates': [-87.66809706899994, 41.883914608000055]}",610308,RUDOLPH,1628 W WASHINGTON BLVD,ES,41.88390676,-87.66809131
"{'type': 'Point', 'coordinates': [-87.58959522199996, 41.73314014400006]}",610312,MCDOWELL,1419 E 89TH ST,ES,41.73313231,-87.5895895
"{'type': 'Point', 'coordinates': [-87.68576197299996, 41.90530170900007]}",610313,DE DIEGO,1313 N CLAREMONT AVE,ES,41.90529385,-87.6857562
"{'type': 'Point', 'coordinates': [-87.65054427699994, 41.67231722400004]}",610315,WHITE,1136 W 122ND ST,ES,41.67230941,-87.65053854
"{'type': 'Point', 'coordinates': [-87.58218745899995, 41.72611528600004]}",610316,EARHART,1710 E 93RD ST,ES,41.72610746,-87.58218174
"{'type': 'Point', 'coordinates': [-87.69208269299997, 41.82390784100005]}",610317,BRIGHTON PARK,3825 S WASHTENAW AVE,ES,41.8239,-87.69207693
"{'type': 'Point', 'coordinates': [-87.66782226799995, 41.82936346300005]}",610319,EVERGREEN,3537 S PAULINA ST,ES,41.82935562,-87.66781651
"{'type': 'Point', 'coordinates': [-87.55755574799997, 41.734634553000035]}",610323,BOWEN HS,2710 E 89TH ST,HS,41.73462672,-87.55755003
"{'type': 'Point', 'coordinates': [-87.70804665499998, 41.93397805500007]}",610325,AVONDALE-LOGANDALE,3212 W GEORGE ST,ES,41.9339702,-87.70804088
"{'type': 'Point', 'coordinates': [-87.67521621999998, 41.85776265700008]}",610329,OROZCO,1940 W 18TH ST,ES,41.85775481,-87.67521046
"{'type': 'Point', 'coordinates': [-87.71542889599993, 41.88621791000003]}",610334,RABY HS,3545 W FULTON BLVD,HS,41.88621006,-87.71542312
"{'type': 'Point', 'coordinates': [-87.64922243699993, 41.758932565000066]}",610339,STAGG,7424 S MORGAN ST,ES,41.75892473,-87.64921669
"{'type': 'Point', 'coordinates': [-87.77685236599996, 41.94306234800007]}",610340,CHICAGO ACADEMY HS,3400 N AUSTIN AVE,HS,41.94305449,-87.77684657
"{'type': 'Point', 'coordinates': [-87.68305570999996, 41.90682366500005]}",610342,SABIN,2216 W HIRSCH ST,ES,41.90681581,-87.68304994
"{'type': 'Point', 'coordinates': [-87.60842450599995, 41.81450664000005]}",610345,WOODSON,4414 S EVANS AVE,ES,41.8144988,-87.60841877
"{'type': 'Point', 'coordinates': [-87.68106695299997, 41.777518342000064]}",610347,CLAREMONT,2300 W 64TH ST,ES,41.77751051,-87.6810612
"{'type': 'Point', 'coordinates': [-87.57664867099999, 41.72970019300004]}",610350,BLACK,9101 S EUCLID AVE,ES,41.72969236,-87.57664295
"{'type': 'Point', 'coordinates': [-87.72996105799996, 41.73885176600004]}",610352,DURKIN PARK,8445 S KOLIN AVE,ES,41.73884394,-87.72995529
"{'type': 'Point', 'coordinates': [-87.71165940899994, 41.82438516800005]}",610353,CALMECA,3456 W 38TH ST,ES,41.82437733,-87.71165364
"{'type': 'Point', 'coordinates': [-87.70715650899996, 41.96172892000004]}",610354,NORTH RIVER,4416 N TROY ST,ES,41.96172106,-87.70715073
"{'type': 'Point', 'coordinates': [-87.66385873099995, 41.96231563900005]}",610355,COURTENAY,4420 N BEACON ST,ES,41.96230777,-87.66385296
"{'type': 'Point', 'coordinates': [-87.69895187399999, 41.84776954000006]}",610357,SPRY HS,2400 S MARSHALL BLVD,HS,41.84776169,-87.69894611
"{'type': 'Point', 'coordinates': [-87.63931120499996, 41.715673184000025]}",610362,EVERS,9811 S LOWE AVE,ES,41.71566536,-87.63930547
"{'type': 'Point', 'coordinates': [-87.64608850699994, 41.95682399700007]}",610363,DISNEY,4140 N MARINE DR,ES,41.95681613,-87.64608274
"{'type': 'Point', 'coordinates': [-87.61432573299999, 41.65374079700007]}",610364,DUBOIS,330 E 133RD ST,ES,41.65373298,-87.61432001
"{'type': 'Point', 'coordinates': [-87.64805006299997, 41.71620112100004]}",610366,WACKER,9746 S MORGAN ST,ES,41.7161933,-87.64804432
"{'type': 'Point', 'coordinates': [-87.76630334499998, 41.87798668000005]}",610367,DEPRIEST,139 S PARKSIDE AVE,ES,41.87797883,-87.76629755
"{'type': 'Point', 'coordinates': [-87.62987439199998, 41.70535014600006]}",610368,HUGHES L,240 W 104TH ST,ES,41.70534232,-87.62986866
"{'type': 'Point', 'coordinates': [-87.64677247499998, 41.73413330100004]}",610369,JACKSON M,917 W 88TH ST,ES,41.73412547,-87.64676673
"{'type': 'Point', 'coordinates': [-87.62503572099996, 41.80612543900003]}",610380,WILLIAMS HS,4934 S WABASH AVE,HS,41.8061176,-87.62502998
"{'type': 'Point', 'coordinates': [-87.62501020999997, 41.80521201300007]}",610381,BRONZEVILLE HS,4934 S WABASH AVE,HS,41.80520417,-87.62500447
"{'type': 'Point', 'coordinates': [-87.73530524599994, 41.83351511500007]}",610383,SOCIAL JUSTICE HS,3120 S KOSTNER AVE,HS,41.83350728,-87.73529947
"{'type': 'Point', 'coordinates': [-87.73528373799996, 41.836176659000046]}",610384,INFINITY HS,3120 S KOSTNER AVE,HS,41.83616882,-87.73527796
"{'type': 'Point', 'coordinates': [-87.73528907399998, 41.835289714000055]}",610385,MULTICULTURAL ARTS HIGH SCHOOL,3120 S KOSTNER AVE,HS,41.83528187,-87.7352833
"{'type': 'Point', 'coordinates': [-87.66738351799995, 41.80352255500003]}",610386,PEACE AND EDUCATION HS,4946 S PAULINA ST,HS,41.80351472,-87.66737776
"{'type': 'Point', 'coordinates': [-87.72666536999998, 41.89455457100007]}",610389,ORR HS,730 N PULASKI RD,HS,41.89454672,-87.72665959
"{'type': 'Point', 'coordinates': [-87.70204735499999, 41.864156415000025]}",610499,COLLINS HS,1313 S SACRAMENTO DR,HS,41.86414857,-87.70204159
"{'type': 'Point', 'coordinates': [-87.72725015599997, 41.86698747400004]}",610503,FRAZIER PROSPECTIVE,4027 W GRENSHAW ST,ES,41.86697963,-87.72724438
"{'type': 'Point', 'coordinates': [-87.67754760899999, 41.82778275600003]}",610504,THOMAS,3625 S HOYNE AVE,ES,41.82777491,-87.67754185
"{'type': 'Point', 'coordinates': [-87.63276272899998, 41.82815316800003]}",610513,AIR FORCE HS,3630 S WELLS ST,HS,41.82814532,-87.63275698
"{'type': 'Point', 'coordinates': [-87.76192216199996, 41.88600113500007]}",610518,AUSTIN CCA HS,231 N PINE AVE,HS,41.88599329,-87.76191637
"{'type': 'Point', 'coordinates': [-87.67370179699998, 41.90292231300003]}",610520,LASALLE II,1148 N HONORE ST,ES,41.90291446,-87.67369603
"{'type': 'Point', 'coordinates': [-87.66653563299997, 41.771228945000075]}",610521,DAVIS M,6740 S PAULINA ST,ES,41.77122111,-87.66652988
"{'type': 'Point', 'coordinates': [-87.81377704999994, 41.99424581400007]}",610523,EDISON PARK,6220 N OLCOTT AVE,ES,41.99423795,-87.81377123
"{'type': 'Point', 'coordinates': [-87.68056778299996, 41.93580241700005]}",610524,ALCOTT HS,2957 N HOYNE AVE,HS,41.93579456,-87.68056201
"{'type': 'Point', 'coordinates': [-87.65941044499993, 41.893555493000065]}",610529,OGDEN HS,1250 W ERIE ST,HS,41.89354764,-87.65940468
"{'type': 'Point', 'coordinates': [-87.59040182899997, 41.76776294600006]}",610530,SOUTH SHORE ES,1415 E 70TH ST,ES,41.76775511,-87.5903961
"{'type': 'Point', 'coordinates': [-87.71137568699999, 41.793487165000045]}",610532,HERNANDEZ,3510 W 55TH ST,ES,41.79347933,-87.71136992
"{'type': 'Point', 'coordinates': [-87.76578636499994, 41.921325436000075]}",610533,PRIETO,2231 N CENTRAL AVE,ES,41.92131758,-87.76578057
"{'type': 'Point', 'coordinates': [-87.64484725199998, 41.905116977000034]}",610534,SKINNER NORTH,640 W SCOTT ST,ES,41.90510912,-87.64484149
"{'type': 'Point', 'coordinates': [-87.77013305499997, 41.93493847800005]}",610539,CAMRAS,3000 N MANGO AVE,ES,41.93493062,-87.77012726
"{'type': 'Point', 'coordinates': [-87.72478890799994, 41.94003377300004]}",610541,LORCA,3231 N SPRINGFIELD AVE,ES,41.94002591,-87.72478312
"{'type': 'Point', 'coordinates': [-87.70592298999998, 42.002966866000065]}",610542,WEST RIDGE,6700 N WHIPPLE ST,ES,42.00295899,-87.70591721
"{'type': 'Point', 'coordinates': [-87.71106458799994, 41.79520839000003]}",610543,SOLORIO HS,5400 S ST LOUIS AVE,HS,41.79520056,-87.71105882
"{'type': 'Point', 'coordinates': [-87.73992600499997, 41.771086902000036]}",610544,AZUELA,4707 W MARQUETTE RD,ES,41.77107907,-87.73992023
"{'type': 'Point', 'coordinates': [-87.57635835999997, 41.75879949900008]}",610547,SOUTH SHORE INTL HS,1955 E 75TH ST,HS,41.75879166,-87.57635264
"{'type': 'Point', 'coordinates': [-87.66497489199998, 41.86858372900008]}",610548,STEM,1522 W FILLMORE ST,ES,41.86857588,-87.66496913
"{'type': 'Point', 'coordinates': [-87.70406582499999, 41.73524684800003]}",610557,PATHWAYS - ASHBURN HS,3284 W 87TH ST,HS,41.73523902,-87.70406007
"{'type': 'Point', 'coordinates': [-87.70735110799995, 41.75375763100004]}",610558,GOODE HS,7651 S HOMAN AVE,HS,41.7537498,-87.70734535
"{'type': 'Point', 'coordinates': [-87.68978553299996, 41.80649925000006]}",610559,SHIELDS MIDDLE,2611 W 48TH ST,ES,41.80649141,-87.68977977
"{'type': 'Point', 'coordinates': [-87.68330711199997, 41.87695529400003]}",610561,CRANE MEDICAL HS,2245 W JACKSON BLVD,HS,41.87694744,-87.68330135
"{'type': 'Point', 'coordinates': [-87.67754712499999, 41.808420382000065]}",610563,BACK OF THE YARDS HS,2111 W 47TH ST,HS,41.80841254,-87.67754137
"{'type': 'Point', 'coordinates': [-87.72136929599998, 41.95249553100007]}",610564,DISNEY II HS,3900 N LAWNDALE AVE,HS,41.95248767,-87.72136351
"{'type': 'Point', 'coordinates': [-87.64913009099996, 41.76390380700008]}",610565,EXCEL ENGLEWOOD HS,7141 S MORGAN ST,HS,41.76389597,-87.64912435
"{'type': 'Point', 'coordinates': [-87.70521209999998, 41.93944107000004]}",610568,PATHWAYS - AVONDALE HS,3100 W BELMONT AVE,HS,41.93943321,-87.70520632
"{'type': 'Point', 'coordinates': [-87.80668758799999, 42.01717910700006]}",610569,OMBUDSMAN - NORTHWEST HS,7500 N HARLEM AVE,HS,42.01717124,-87.80668177
"{'type': 'Point', 'coordinates': [-87.68364028699995, 41.78303441600008]}",610570,OMBUDSMAN - SOUTH HS,6057 S. WESTERN AVE,HS,41.78302658,-87.68363453
"{'type': 'Point', 'coordinates': [-87.68784806199994, 41.87468084500006]}",610571,OMBUDSMAN - WEST HS,2401 W. CONGRESS PKWY,HS,41.874673,-87.6878423
"{'type': 'Point', 'coordinates': [-87.55991261799994, 41.742679217000045]}",400168,GREAT LAKES,8401 S SAGINAW AVE,ES,41.74267138,-87.5599069
"{'type': 'Point', 'coordinates': [-87.64641889699999, 41.929857714000036]}",609774,ALCOTT ES,2625 N ORCHARD ST,ES,41.92984985,-87.64641314
"{'type': 'Point', 'coordinates': [-87.70019023999998, 41.84775456700004]}",610184,SPRY ES,2400 S MARSHALL BLVD,ES,41.84774672,-87.70018447
"{'type': 'Point', 'coordinates': [-87.62930232099995, 41.89998434700004]}",610101,OGDEN ES,24 W WALTON ST,ES,41.89997649,-87.62929657
"{'type': 'Point', 'coordinates': [-87.73068416299998, 41.95046836700004]}",610515,DISNEY II ES,3815 N KEDVALE AVE,ES,41.95046051,-87.73067838
"{'type': 'Point', 'coordinates': [-87.55180926599996, 41.75312273800006]}",610573,SAFE ACHIEVE HS,7530 S SOUTH SHORE DR,HS,41.7531149,-87.55180355
"{'type': 'Point', 'coordinates': [-87.71820992499994, 41.935734326000045]}",400172,ASPIRA - BUSINESS & FINANCE HS,2989 N. MILWAUKEE AVE,HS,41.93572647,-87.71820414
"{'type': 'Point', 'coordinates': [-87.75543014199997, 41.888270429000045]}",400178,MOVING EVEREST,416 N. LARAMIE AVE,ES,41.88826258,-87.75542435
"{'type': 'Point', 'coordinates': [-87.52799077999998, 41.70486642100008]}",610586,SADLOWSKI,3930 E 105TH ST,ES,41.70485859,-87.52798508
"{'type': 'Point', 'coordinates': [-87.69706324099997, 41.807995031000075]}",400179,NOBLE - MANSUETO HS,2911 W 47TH ST,HS,41.80798719,-87.69705748
"{'type': 'Point', 'coordinates': [-87.72662057999997, 41.89381288800007]}",400180,KIPP - ONE,730 N PULASKI RD,ES,41.89380504,-87.7266148
"{'type': 'Point', 'coordinates': [-87.61224484199994, 41.80121200800005]}",610587,DYETT ARTS HS,555 E 51ST ST,HS,41.80120417,-87.61223911
"{'type': 'Point', 'coordinates': [-87.72542736399998, 41.78383415400003]}",610588,RICHARDSON,6018 S KARLOV AVE,ES,41.78382632,-87.7254216
"{'type': 'Point', 'coordinates': [-87.72638539799999, 41.78960488700005]}",610589,SOR JUANA,4120 W 57TH ST,ES,41.78959705,-87.72637963
"{'type': 'Point', 'coordinates': [-87.62662692199996, 41.81925701700004]}",610590,BRONZEVILLE CLASSICAL,8 W ROOT ST,ES,41.81924917,-87.62662118
"{'type': 'Point', 'coordinates': [-87.58333340099995, 41.76004217600007]}",400181,ART IN MOTION,7415 S EAST END AVE,HS,41.76003434,-87.58332768
"{'type': 'Point', 'coordinates': [-87.63685651399999, 41.77025781800006]}",610592,ENGLEWOOD STEM HS,6835 S NORMAL BLVD,HS,41.77024998,-87.63685077
"{'type': 'Point', 'coordinates': [-87.64282188399994, 41.69511308600005]}",610593,OMBUDSMAN - ROSELAND HS,10928 S HALSTED ST,HS,41.69510526,-87.64281615
"{'type': 'Point', 'coordinates': [-87.68795219699996, 41.90284861200007]}",610594,PATHWAYS - HUMBOLDT PARK HS,2421 W DIVISION ST,HS,41.90284076,-87.68794643
"{'type': 'Point', 'coordinates': [-87.55051847399994, 41.75312497800007]}",610572,SAFE ACHIEVE ES,7530 S SOUTH SHORE DR,ES,41.75311714,-87.55051276
