vendor_id,vendor,address_line_1,city,state,zip_code,address_line_2
94192177E,"""D"" CONSTRUCTION, INC.",1488 S BROADWAY,COAL CITY,IL,60416,
93428432T,"""READING IN MOTION""",65 E WACKER DR  1800 EFT,CHICAGO,IL,60601,
50092043,100 CLUB OF CHICAGO,875 N MICHIGAN AVENUE SUITE 1351,CHICAGO,IL,60611,
1047177,1020 BUILDING PARTNERSHIP,C/O DON GARFIELD,CHICAGO,IL,60617,9420 S. STONEY ISLAND AVE
93744130Z,104TH STREET LPSH,C/O MERCY HOUSING  LAKEFRONT,CHICAGO,IL,60603,120 S LA SALLE ST STE 1850
94328711Z,"10GEN, INC.",555 UNIVERSITY AVENUE EFT,PALO ALTO,CA,94301,
85249964Z,1140 NORTH BRANCH DEVELOPMENT LLC,701 W ERIE ST,CHICAGO,IL,60610,
55480108,1200  SAINT  JAMES  LLC.,4201 WEST 36TH  STREET,CHICAGO,IL,60632,
54718021,1240 SOUTH WABASH CORP,2901 WEST ESTES,CHICAGO,IL,60645,
85247677X,1301 ELSTON LLC,1250 W DIVISION ST,CHICAGO,IL,60622,
90141873X,1319 S SPAULDING LLC,OR CHICAGO TITLE INSURANCE ACCT#029036254-002,CHICAGO,IL,60601,
94731224P,1325 S. STATE STREET LLC,2000 N RACINE AVE,CHICAGO,IL,60614,
94082322V,"1330 SOUTH MICHIGAN, LLC.",3831 RUBY ST,SCHILLER PARK,IL,60176,
54971071,"1430 W. IRVING PARK, II  LLC.",5479 NORTH MILWAUKEE,CHICAGO,IL,60613,
53838022,1454 S MICHIGAN LLC,1525 W HOMER S#401,CHICAGO,IL,60642,
39858397T,14TH PLACE LLC,5110 SAN FELIPE ST UNIT 304W,HOUSTON,TX,77056-3670,
54262037,1531 ACQUISTION CO LLC,1531 N DAMEN,CHICAGO,IL,60622,
55089027,1555  WABASH  LLC.,1440 WEST TAYLOR STREET,CHICAGO,IL,60607,
31335659M,1607 W. HOWARD LLC,4355 N RAVENSWOOD AVE,CHICAGO,IL,60613,4355 N RAVENSWOOD AVE
56721023,1625 S. CLARK ST LLC,C/O DLA PIPER LLP,CHICAGO,IL,60602,203 N LASALLE ST STE. 1900
85245290T,1641 LLC,1 N BISHOP ST,CHICAGO,IL,60607,
85240061T,1-800 CONFERENCE,1051 E WOODFIELD RD,CHICAGO,IL,60617,
3905060L,18TH STREET. DEVELOPMENT. CORP.,1839 S CARPENTER ST,CHICAGO,IL,60608,
93813888X,2434 W DIVISION LLC,2434 W DIVISION ST,CHICAGO,IL,60622,
94146540T,"2454 NORTH LAWNDALE, LLC.",4010 GREENACRE DRIVE EFT,NORTHBROOK,IL,60062,
93783763V,2454-60 W 38TH STREET LLC,2829 W CERMAK RD,CHICAGO,IL,60620,
90506670Z,2657 NORTH KEDZIE LLC,2657 N KEDZIE AVE,CHICAGO,IL,60647,
51479023,27 TOURS INC,818 19TH AVE SOUTH,NASHVILLE,TN,37203,
69303246A,30 NORTH LASALLE LP,24069 NETWORK PL,CHICAGO,IL,60673-1240,
61322110A,30 NORTH. LASALLE PARTNERS LLC,30 N LA SALLE ST STE 1420,CHICAGO,IL,60602,30 N LA SALLE ST STE 1420
93136326X,33 NORTH LASALLE PARTNERS LP,3648 COLLECTION CENTER DR,CHICAGO,IL,60693,
89964042Z,3339 W DOUGLAS LLC,OR CHICAGO TITLE INSURANCE ACCT #029036245,CHICAGO,IL,60601,
94777886E,3350 - 3 LLC.,207 E OHIO ST,CHICAGO,IL,60611,
93885657P,350 GREEN LLC,411 S HEWITT STREET EFT,LOS ANGELES,CA,90013,
56638044,"360 W. HUBBARD PLACE, LLC.",350 W. HUBBARD,CHICAGO,IL,60654,SUITE  #500
56532027,3600 W. BELMONT LLC.,1030 WEST CHICAGO AVENUE,CHICAGO,IL,60642,SUITE  #300
93428440L,3M,3 CENTER BLDG 225-5S-08,SAINT PAUL,MN,55133-3225,
1070146,3X DATA CORPORATION,1130 S. CANAL ST.,CHICAGO,IL,60607,
55939022,400 S. JEFFERSON CHICAGO LLC,1040 WEST RANDOLPH STREET,CHICAGO,IL,60607,
53828725V,40TH & LAKE PARK LLC,1649 W GRACE ST,CHICAGO,IL,60613,
31316084H,4150 PARTNERSHIP,10150 VIRGINIA AVE UNIT J,CHICAGO RIDGE,IL,60415-1380,10150 VIRGINIA AVE UNIT J
55096022,4356  DIVERSEY  LLC.,4356 WEST DIVERSEY AVENUE,CHICAGO,IL,60659,
85250992E,4554 BROADWAY LLC,4554 N BROADWAY STE 215,CHICAGO,IL,60640,
31323491M,4600 BUILDING CORP,ATTN: PHILLIP G. CAROLLO,CHICAGO,IL,60629,4600 W 72ND ST
93607922H,"4800 N DAMEN, LLC",2105 W BELMONT AVE,CHICAGO,IL,60618,
55953173,5100 MARINE DRIVE CONDO ASSOCIATION,5100 NORTH MARINE DRIVE,CHICAGO,IL,60640,
93348948H,51ST STREET BUSINESS ASSOCIATI,124 E 51ST STREET EFT ST,CHICAGO,IL,60615,
56760064,535 N. MICHIGAN VENTURE LLC,535 NORTH MICHIGAN AVENUE,CHICAGO,IL,60611,#200
94192146T,536 KIRKWOOD LLC,7035 VETERANS BLVD,BURR RIDGE,IL,60527,
55254048,"5454 S. SOUTH SHORE DRIVE, LLC",32 NORTH DEAN STREET,ENGLEWOOD,NJ,07631,
46709908T,550 ADAMS LLC,C/O FIFIELD REALTY CORP,CHICAGO,IL,60606,20 N WACKER DR
39880667V,"550 JACKSON ASSOCIATES, LLC",737 N MICHIGAN AVE,CHICAGO,IL,60611,
87164602P,5-ALARM FIRE & SAFETY,350 AUSTIN CIRCLE EFT,DELAFIELD,WI,53018,
93697003H,6801 BUILDING LLC,1634 E 53RD ST,CHICAGO,IL,60615,
5547131E,69 W. WASHINGTON MANAGEMENT. CO. LLC,69 W WASHINGTON ST STE 1430,CHICAGO,IL,60602,
54899022,"7048-50  MERRILL,  LLC.",312 NORTH MAY STREET,CHICAGO,IL,60607,SUITE   #2B
54094030,720 CLARK DEV LLC,217 N JEFFERSON,CHICAGO,IL,60661,
93696973T,7424 S PHILLIPS LLC,2130 W BELMONT EFT,CHICAGO,IL,60618,
85537346X,79TH STREET LP,7444 N LONG AVE,SKOKIE,IL,60077,
60489322V,"826CHI, INC., NFP",1331 N MILWAUKEE AVE,CHICAGO,IL,60622,
52461044,860 LAKE SHORE DRIVE TRUST,880 N LAKE SHORE DR,CHICAGO,IL,60611,
89123305A,8700 BUILDING LLC,7300 S NARRAGANSETT,BEDFORD PARK,IL,60638,
78848089L,901 W. 63RD LP,247 S STATE ST # 810,CHICAGO,IL,60614,
85247395A,950 W. MONROE STREET DEV LLC,"C/O MR PROPERTIES, LLC",DES PLAINES,IL,60018,1350 E TOUHY AVE STE 370W
31324950Z,"95TH & STONY I, LLC",C/O US EQUITIES,CHICAGO,IL,60602,20 N MICHIGAN AVE STE 400
93428444E,95TH ST/BEVERLY HILLS BUSI ASN,9006 S HOYNE AVE,CHICAGO,IL,60620,
55313030,97TH STREET SSA LLC,694 GRANDVIEW LANE,LAKE FORREST,IL,60045,
41098496E,"A & D PROPERTY SERVICES, INC.",7346 S EXCHANGE AVE,CHICAGO,IL,60649,
95089576L,"A & O RECOVERY SOLUTIONS, LLC.",700 N SACRAMENTO BLVD,CHICAGO,IL,60612,
92086146L,A & P AUTO COLOR INC.,6740 S WESTERN AVENUE EFT,CHICAGO,IL,60636,
3608830P,A & P MANAGEMENT,ATT: OFFICE OF BLDG NORA MOUSTAPHN,CHICAGO,IL,60660,5816 N SHERIDAN RD
31319211T,"A F C INTERNATIONAL, INC.",PO BOX 894  EFT,DEMOTTE,IN,46310,
28976533T,"A KNOCK AT MIDNIGHT, NFP",400 W 76TH STREET EFT ST,CHICAGO,IL,60620,STE 202
16013326X,A LITTLE BIT OF HEAVEN,11321 S WENTWORTH AVE,CHICAGO,IL,60626,
93131290T,A PERSONNEL COMMITMENT,223 W JACKSON BOULEVARD EFT,CHICAGO,IL,60606,
93145610H,A SAFE HAVEN FOUNDATION,2750 W ROOSEVELT ROAD EFT,CHICAGO,IL,60608,
93260000Z,A SAFE HAVEN LLC.,PO BOX 210  EFT,PALOS PARK,IL,60464,
31342659L,A SONG FOR MARY MARY INC.,16501 VENTURA BLVD STE 304,ENCINO,CA,91436,
61070332P,A T & T LONG DISTANCE,PO BOX 27-850,KANSAS CITY,MO,64180,
85239811M,A T & T SMART CARD SYSTEMS,200 COTTONTAIL LN,SOMERSET,NJ,,
93695880X,A T & T U-VERSE,PO BOX 5014,CAROL STREAM,IL,60197,
93278205L,"A. EPSTEIN & SONS INTERNATIONAL, INC",600 W FULTON STREET EFT,CHICAGO,IL,60661-1199,
14814119M,A. EPSTEIN & SONS INTERNTL INC,600 W FULTON ST,CHICAGO,IL,60661-1199,
3617301M,A. FINKLE & SONS CO.INC,2011 N SOUTHPORT AVE # 1,CHICAGO,IL,60614,
92680013H,"A. M. C. MECHANICAL, INC.",11535 W 183RD PL,ORLAND PARK,IL,60467,
15229294V,"A.M. BUS COMPANY, INC.",100 W 91ST ST FL 1ST,CHICAGO,IL,60620-1435,
93688656M,"A.W.T. WORLD TRADE, INC.",4321 N KNOX AVENUE EPAY,CHICAGO,IL,60641-1906,
31344785H,A-1 LEGAL VIDEO,PO BOX 1272,MORTON GROVE,IL,60053,
94196270L,AAA RENTAL SYSTEM,3020 W 167TH ST,MARKHAM,IL,60428,
38023013L,AAAE ALA & FEDERAL AFRS MEMBERSHIP,601 MADISON ST STE 400,ALEXANDRIA,VA,22314,
56638059,AARON BRUDNELL,P O  BOX  #89132,TUCSON,AZ,857529132,
93700094Z,AB REALTY PARNTERS LLC,1134 STRATFORD ROAD EFT,DEERFIELD,IL,60015,
94338833Z,ABBEY PAVING CO INC,1949 COUNTRY LINE RD,AURORA,IL,60502,
22058477L,ABBEY PUB & RESTAURANT,3420 W GRACE ST,CHICAGO,IL,60618,
56779241,ABERDEEN DEVELOPMENT INC,1651 WEST OGDEN AVENUE,CHICAGO,IL,60612,
22184423L,ABJ COMMUNITY SERVICES INC,1507 E 53RD STREET EFT ST,CHICAGO,IL,60615,
93688664E,ABLE CARD LLC,1300 W OPTICAL DR  600 EPAY,AZUSA,CA,91702,
31325968V,ABLE PROFESSIONAL SERV CORP,180 N WABASH AVE FL 6TH,CHICAGO,IL,60601,
59759916A,"ABNA OF ILLINOIS, INC.",9901 S WESTERN AVE # 1,CHICAGO,IL,60643,
93294785E,ABNE TIRE RECYCLING,1460 RAYMOND ST,SOUTH ELGIN,IL,60177,
22707890P,ABRAHAM LINCOLN BOOK SHOP INC,357 W CHICAGO AVE # 1,CHICAGO,IL,60610,
93910226M,ABRAHAM LINCOLN CENTER,3858 S COTTAGE GROVE EFT,CHICAGO,IL,60653,
93783758T,ABRAHAM LINCOLN CENTRE 01,3858 S COTTAGE GROVE AVE,CHICAGO,IL,60653,
94556466M,ABT SRBI INC,640 N LA SALLE DR STE 640,CHICAGO,IL,60654,
95235670E,ACACIA FINANCIAL GROUP,FOUR GREENTREE CENTER,MARLTON,NJ,,SUITE #206 13000 LINCOLN DRIVE WEST
13110299E,ACACIA PARK CEMETERY & MASOL CORP,7800 W IRVING PARK RD,CHICAGO,IL,60706-2135,
93944609T,ACADEMY OF SCHOLASTIC,ACHIEVEMENT,CHICAGO,IL,60644,4651 W MADISON EFT
94140234E,ACCENTURE,PO BOX 70629,CHICAGO,IL,60673-0629,
94287252P,ACCESS COMMUNITY HEALTH NETWORK,222 N CANAL ST,CHICAGO,IL,60606,
94141262E,"ACCESS ELEVATOR, INC.",1000 W INDUSTRIAL DR,BENSENVILLE,IL,60106,
93427616P,ACCESS LIVING OF METROPOLITAN CHICAGO,614 W ROOSEVELT RD,CHICAGO,IL,60607,
23809601Z,"ACCESS ONE,INC",820 W JACKSON BLVD,CHICAGO,IL,60607,FL 4TH
93568823M,ACCION CHICAGO,1436 W RANDOLPH ST STE 300,CHICAGO,IL,60607,
31292327Z,ACCU WEATHER INC,"ACCUWEATHER SALES & SERVICE, INC",STATE COLLEGE,PA,16803-2215,385 SCIENCE PARK RD
94569908V,ACCURATE BACKGROUND INC,7515 IRVINE CENTER DR,IRVINE,CA,92618,
87960195M,"ACCURATE GROUP, INC.",101 SCHELTER RD,LINCOLNSHIRE,IL,60069,
79007343X,ACCURATE OFFICE SUPPLY,260 GERZEVSKE LN,CAROL STREAM,IL,60188,
85251070X,ACCURINT,PO BOX 538358,ATLANTA,GA,30353,
50080121,ACE USA,DEPT. CH 10123,PALATINE,IL,600550123,
31338754Z,"ACHIEVEGLOBAL, INC",WACHOVIA LOCKBOX SERVICES,CHARLOTTE,NC,28262,
56760381,ACME ROAD CO,3310 WEST END AVENUE,NASHVILLE,TN,37203,SUITE  #400
22082093Z,ACORN GARAGE INC.,417 N HOYNE AVE,CHICAGO,IL,60612,
93651858Z,ACOSTA MEDICAL TESTING CORP,2560 BERNICE AVE,LANSING,IL,60438,
33664551X,APCR,PO BOX 66294,CHICAGO,IL,60666,
31284933M,ACRE DEVELOPMENT LLC,4849 N MILWAUKEE AVE STE 102,CHICAGO,IL,60630,
93472752X,ACTION AUTOMATION INC,5160 W 125TH PL,ALSIP,IL,60803,
82295339M,ACTIVE TRANSPORTATION ALLIANCE 01,9 W HUBBARD ST # 402,CHICAGO,IL,60654-8484,
54339943Z,"ACTIVE TRANSPORTATION ALLIANCE, NFP",9 W HUBBARD ST # 402,CHICAGO,IL,60610,
40791610L,ACTRACE,7 JOYCE CIR,WESTFORD,MA,,
93503887E,ACURA FINANCIAL SERVICES,PO BOX 60001,CITY OF INDUSTRY,CA,91716,
95235442X,ACXIOM CORPORATION,32801 COLLECTION CENTER DR,CHICAGO,IL,60693-0328,
54563022,ADA PROPERTIES INC,5820 W IRVING PARK ROAD,CHICAGO,IL,60634,
93427628A,ADA S MCKINLEY COMM. SERVICE,725 S WELLS EFT,CHICAGO,IL,60607,
94538559Z,ADA S MCKINLEY COMMUNITY SERVICES INC,1359 W WASHINGTON BOULEVARD EFT,CHICAGO,IL,60607,
61610984A,"ADA S. MC KINLEY COMMUNITY SERVICES, INC.",2916 S DEARBORN ST,CHICAGO,IL,60616,
57451242T,ADAM BROOKS,1347 W NORWOOD ST,CHICAGO,IL,60660,
93702000M,ADAM VELARDE,1624 W 18TH ST,CHICAGO,IL,60608,
54611021,ADAPTIVE DIGITAL SYSTEMS INC,20322 SW ACACIA STREET   (EFT),NEWPORT BEACH,CA,92660,
94319511M,ADB AIRFIELD SOLUTIONS,PO BOX 29160,NEW YORK,NY,10087-9160,
53061026,ADDEO MUSIC INTERNATIONAL INC,PO BOX 534,NEW YORK,NY,10014,
36756847H,ADDUCCI DORF LEHNER MITCHELL,150 N MICHIGAN AVE # 2130,CHICAGO,IL,60601,
69532732X,"ADDUS HEALTHCARE, INC.",2401 S PLUM GROVE ROAD EFT,PALATINE,IL,60067,
55774021,ADELE  D.  NICHOLS,4510 NORTH PAULINA STREET,CHICAGO,IL,60640,#3E
22653427Z,ADELSTEIN/LISTON,222 W ONTARIO ST,CHICAGO,IL,60610,STE 600
93835716E,ADONIS DUCRE,437 W DIVISION ST,CHICAGO,IL,60610,
74834061E,ADRIAN ARCE,5231 W PARKER AVE,CHICAGO,IL,60639,
93391679M,ADRIANA MAYA,1911 N LAWNDALE AVE,CHICAGO,IL,60647,
58285095L,ADS LLC,PO BOX 673809,DETROIT,MI,48267,
93826452A,"ADSYSTECH, INC",8401 COLESVILLE ROAD EFT,SILVER SPRING,MD,20910,
93261292V,ADVANCE AUTO CENTER,PO BOX 411342,CHICAGO,IL,60641,
93740372V,ADVANCE COMPUTER TECHNICAL GR.,3566 S PRARIE,CHICAGO,IL,60653,
3706966T,ADVANCE ELECTRICAL. SUPPLY CO,263 N OAKLEY BOULEVARD EFT,CHICAGO,IL,60612,
31313870T,ADVANCED BOILER CONTROL SERV,8730 CLINE AVE,CROWN POINT,IN,60462,202
33675322T,"ADVANCED COMMODITES, INC",MIDWEST QUALITY FOODS,BARTLETT,IL,60103,840 W BARTLETT RD STE 3
93853319E,ADVANCED DISCOVERY,PO BOX 415018,KANSAS CITY,MO,64141-0518,
54287025,ADVANCED DISTRIBUTION SOLUTION,2401 W HASSELL RD STE 1525,HOFFMAN ESTATES,IL,60169,
31321022Z,"ADVANCED SUPPLY COMPANY, INC.",8901 W 192ND ST,MOKENA,IL,60448,
85248972P,ADVANTAGE CHEVROLET,9510 W JOLIET ROAD EFT,HODGKINS,IL,60525,
93860058T,ADVANTAGE MICROFILM SERVICES,630 JOSEPH STREET EFT,LAKE IN THE HILLS,IL,60156,
55774022,"ADVANTAGE SIGN INSTALLATION, INC.",1275 WEST ROOSEVELT ROAD,CHICAGO,IL,60185,
85245565Z,ADVOCATE HEALTH&HOSPITALS CORP,ADVOCATE OCCUP HLTH,PARK RIDGE,IL,60068,205 W TOUHY STE 104
85242515E,ADVOCATE ILLINOIS MASONIC,ADVOCATE HEALTH CARE  (EFT),OAK BROOK,IL,60523,2025 WINDSOR DR
93427944A,AECOM INC,27755 DIEHL RD STE 100,WARRENVILLE,IL,60555,
93130188X,AECOM SERVICES OF ILLINOIS INC,303 E WACKER DRIVE EFT,CHICAGO,IL,60601,
94920393E,AECOM TECHNICAL SERVICES,1178 PAYSPHERE CIR,CHICAGO,IL,60674,
94188617Z,AECOM USA INC,1178 PAYSPHERE CIR,CHICAGO,IL,60674,
31324392P,AERO MARINE SERVICE,3313 LAWRENCE,CHICAGO HEIGHTS,IL,60411,
93568847M,AERO O'HARE LLC,201 W STREET,ANNAPOLIS,MD,21401,
38890082V,AERO SNOW REMOVAL CORP,20 SINTSINK DR EAST,PORT WASHINGTON,NY,11050-2205,
35727670A,"AEROSHELL AEROBATIC TEAM, INC",ALEN HENLEY,EMELLE,AL,35459,576 HENLEY DR
93412476A,AFSCME COUNCIL 31,205 N MICHIGAN AVE STE 2100  EFT,CHICAGO,IL,60601,
93798279V,AFSCME PERSONAL SUPPORT PROGRAM,615 S 2ND ST,SPRINGFIELD,IL,62704,
31327956M,"AFTER-SCHOOL MATTERS, INC.",72 E RANDOLPH ST,CHICAGO,IL,60601,
93454953H,AGAE/M-K SIGNS JOINT VENTURE,4549 N MILWAUKEE AVENUE EFT,CHICAGO,IL,60630,
95032088E,AGAPE MISSIONS INC,840 PLAINFIELD ROAD EFT,JOLIET,IL,60435,
94277328M,AGELESS EYE CARE PC,528 E BOWEN AVE,CHICAGO,IL,60653,
47228761M,AGENCY GROUP,1775 BROADWAY STE 430,NEW YORK,NY,10019,
94184809H,AGILENT TECHNOLOGIES INC,2850 CENTERVILLE RD,WILMINGTON,DE,,
89417072A,AGORA COMM SERVICES CORP,1459 W 79TH STREET EFT ST,CHICAGO,IL,60620,
50089306,AHSHARE CLAYBROOKS,877 E 100TH ST.,CHICAGO,IL,60628,
87871424L,AIDS FOUNDATION OF CHICAGO,200 W JACKSON BLVD  2200  EFT,CHICAGO,IL,60606,
23151615L,AIDS LEGAL COUNCIL OF CHICAGO,180 N MICHIGAN AVE STE 2110,CHICAGO,IL,60601,
93676959H,AIR CHOICE ONE,12300 OLD TESSON RD,SAINT LOUIS,MO,63128,
31316936Z,AIR ONE EQUIPMENT INC,360 PRODUCTION DRIVE EFT,SOUTH ELGIN,IL,60177-2637,
94279111V,AIRAD INC,515 CONSUMERS RD STE 406,TORONTO,IL,,
94099183A,AIRCOMM CHAUFEURRED SERVICES,9806 SOUTHWEST HWY,OAK LAWN,IL,60453,
94371013H,AIRLINES FOR AMERICA,1301 PENNSYLVANIA AVE NW,WASHINGTON,DC,20004,
93977360V,AIRPORT CONTRACTING GROUP,311 S WACKER DR,CHICAGO,IL,60606,
33674881Z,AIRPORT PROPERTY MANAGEMENT GROUP,300 S WACKER DR # 200,CHICAGO,IL,60606,
93427636V,AIRPORTS COUNCIL INT L-NA CONF,PO BOX 79286,BALTIMORE,MD,21279-0286,
51544022,AKELA FAMILY INC,15441 S W 31 LANE,MIAMI,FL,33185,
55783022,AKRAM ZANAYED & ASSOCIATES,& ALMA OLVERA,BRIDGEVIEW,IL,60455,8550 S HARLEM SUITE G
52865043,ALAN E BROOKER PHD,2609 CAPITOL AVE SUITE 2,SACRAMENTO,CA,95871,
52174028,ALAN KADISH,9400 AVERS AVE,EVANSTON,IL,60203,
93602620V,ALAN WARD PROPERTIES LLC,5339 W BELMONT EFT,CHICAGO,IL,60641,
56760223,ALARM WILL SOUND INC,1354 WEST FOSTER AVENUE,CHICAGO,IL,60640,APT.  #2W
94708294L,"ALBANY PARK COMMUNITY CENTER, INC",1945 W WILSON AVE STE 3000 3RD FLOOR EFT,CHICAGO,IL,60640,
93487746H,ALBIN CARLSON & CO,745 S ROHLWING ROAD EFT,ADDISON,IL,60101,
56171023,ALBUKERK & ASSOCIATES,& MARIO NAVIA JR.,CHICAGO,IL,60607,1450 W RANDOLPH
7873300Z,ALCO CONSTRUCTION COMPANY INC,3608 N MILWAUKEE AVE # 1,CHICAGO,IL,60641,
93993932A,ALD. JASON ERVIN,2602 W 16TH ST,CHICAGO,IL,60608,
85250900X,ALDERMAN WILLIE B COCHRAN,6357 S COTTAGE GROVE AVE,CHICAGO,IL,60637,
25940976T,ALDRIDGE ELECTRIC INC,844 E ROCKLAND ROAD EFT,LIBERTYVILLE,IL,60048,
55823027,ALEAH SIEGEL,10 WEST ELM,CHICAGO,IL,60610,#1808
93340536E,ALEJANDRO MIRELES,2816 W 21ST ST,CHICAGO,IL,60623,
93704526A,ALEX FRASER,3532 N NATOMA AVE,CHICAGO,IL,60634,
50091186,ALEX GUALINO,200 NORTH JEFFERSON STREET - #1908,CHICAGO,IL,60661-1281,
93297372Z,ALEXANDER CHEMICAL CORP,16932 COLLECTIONS CENTER DRIVE EFT,CHICAGO,IL,60693,
55849031,ALEXANDER JASON,P O   BOX   #375,PINOLE,CA,94564,
56383035,ALFONSO WATERS,3409 WEST MADISON STREET,CHICAGO,IL,60624,
22547787H,ALFRED BENESCH & COMPANY,205 N MICHIGAN AVE STE 2400,CHICAGO,IL,60601,
95141330X,ALFRED QUIJANO,4256 N RAVENSWOOD EFT,CHICAGO,IL,60613,
94543215X,ALICE L. WILSON,1090 RAINTREE DRIVE EFT,BOLINGBROOK,IL,60440,
3630259Z,"ALIVIO MEDICAL CENTER,INC",2355 S WESTERN AVE # 1,CHICAGO,IL,60608,
22023637H,"ALL CHICAGO, INC.",4100 W BELMONT AVE,CHICAGO,IL,60641,
93849160X,"ALL SAINTS SENIOR HOUSING, NFP",721 N LA SALLE DR,CHICAGO,IL,60654,
93841623H,ALL TIME WRECKING & HAULING INC,5247 W LAKE STREET EFT,CHICAGO,IL,60644,
7069810E,"ALL TOWN BUS SERVICES, INC",2345 W NELSON ST,CHICAGO,IL,60618,
55828024,ALLEN TOUSSAINT,272 ABALON COURT,NEW ORLEANS,LA,70114,
23196481E,ALLIANCE CHICAGO COMMUNITY HEALTH,1276 N CLYBOURN AVE,CHICAGO,IL,60610,
95235410E,"ALLIANCE DEMOLITION SERVICES, INC.",10823 S LANGLEY AVE,CHICAGO,IL,60628,
31336167H,ALLIANCE FOR COMMUNITY PEACE,509 W ELM ST  BSMT,CHICAGO,IL,60610,
72159044L,ALLIANCE FOR WATER EFFICIENCY,PO BOX 804127,CHICAGO,IL,60680-4127,
93427588M,ALLIANCE OF LOCAL SERVICE ORGANIZATIONS,ORGANIZATIONS,CHICAGO,IL,60647,2665 W FULLERTON AVENUE EFT
31326824M,"ALLIANCE REHAB, INC.",2803 BUTTERFIELD RD STE 200,OAK BROOK,IL,60523,
94739285E,"ALLIANCE TRAINING & CONSULTING, INC.",8900 INDIAN CREEK PKWY,OVERLAND PARK,KS,66210,
93275053V,ALLIED APPRAISAL CO,7700 BRUSH HILL ROAD EFT,BURR RIDGE,IL,60527,
31345840E,ALLIED BINDERS & PACKAGING INC,125 WHEELER ST,LA VERGNE,TN,37086,
93681748H,ALLIED BUILDING PRODUCTS,25547 NETWORK PL,CHICAGO,IL,60673-1255,
93561430M,"ALLIED SERVICES GROUP, INC.",14150 S WESTERN AVE,POSEN,IL,60469,
5195191T,ALLIED WASTE TRANSPORTATION INC,2608 S DAMEN,CHICAGO,IL,60608,
95265354V,ALLISON MCJUNKIN,C/O THE VERSCHUUR/IYER GROUP MERRILL GROUP,CHICAGO,IL,60603,
94545022E,ALLOVER MEDIA,16335 36TH AVE NORTH,PLYMOUTH,MN,55446,
94068513M,"ALLSTAR FIRE EQUIPMENT, INC.",12328 ROAD LOWR AZUSA,ARCADIA,CA,91006,
93215925M,ALLY,PO BOX 51014,CAROL STREAM,IL,60125-1014,
56760047,ALOE BLACC TOURING INC C/O NKSFB,10960 WILSHIRE BOULEVARD,LOS ANGELES,CA,90024,5TH  FLOOR
94382358P,ALPHA BAKING CO,36230 TREASURY CENTER,CHICAGO,IL,60694-6200,
51740030,ALSJ INC,Attn: Andy Lee - President,MORTON GROVE,IL,60053,6603 W. Beckwith Rd.
94233154L,ALTA BICYCLE SHARE INC.,711 SE GRAND AVE,PORTLAND,OR,97214,
94125910T,"ALTA PLANNING & DESIGN, INC.",711 SE GRAND AVE,PORTLAND,OR,97214,
23288277Z,ALTA VISTA GRAPHICS CORPORATION,3435 N KIMBALL AVE,CHICAGO,IL,60618,
93841631Z,ALTEP,224 N DESPLAINES ST STE 1N  EFT,CHICAGO,IL,60661,
8509307T,ALTERNATIVE SCHOOLS NETWORK,1807 W SUNNYSIDE AVE STE 1D,CHICAGO,IL,60640,
15692383V,ALTERNATIVES INC,4730 N SHERIDAN ROAD EFT,CHICAGO,IL,60640,
93210575T,ALTOM TRANSPORT INC,PO BOX 518,ELMHURST,IL,60126,
56101021,ALTON LOGAN,312 NORTH MAY STREET,CHICAGO,IL,60607,
95243285M,ALVIN M. FOREMAN,10540 S WESTERN AVE,CHICAGO,IL,60643,
93868385V,"AM TRIO PARK, LLC.",TWO SEAPORT LANE,BOSTON,MA,,
31345957X,AMALGAMATED BANK 6100001161-1,20 N WACKER DR # 722,CHICAGO,IL,60606,
3909476L,AMALGAMATED BANK OF CHICAGO,1 W MONROE ST  10049336,CHICAGO,IL,60603,
93794269H,AMANDA EAVES,3074 W PALMER BLVD,CHICAGO,IL,60647,
37086246Z,AMAZON.COM BILLING DEPARTMENT,PO BOX 80463,SEATTLE,WA,98108,
93745360V,AMBROSE GENTILE,3636 N ORIOLE AVE,CHICAGO,IL,60634,
35130668M,AMEC T & T MEDIA SERVICES,8745 W HIGGINS RD,CHICAGO,IL,60631,
34829388H,AMER. SOCIETY OF COMP. AUTHORS,2690 CUMBERLAND PARKWAY ST  490,ATLANTA,GA,30339,
94347928E,"AMERESCO, INC.",111 SPEEN ST,FRAMINGHAM,MA,,
31288564P,AMERICAN AIRLINES 01,PO BOX 619616,DALLAS,TX,75261-9616,
14851054E,"AMERICAN AIRLINES, INC.",4333 AMON CARTER BLVD,FORT WORTH,TX,76155,
94536004H,AMERICAN APPRAISAL ASSOCIATES INC,411 E WISCONSIN AVE,MILWAUKEE,WI,53202,
31288455M,AMERICAN ARBITRATION ASSOCIATION,13455 NOEL RD STE 1750,DALLAS,TX,75240,
31346004A,AMERICAN ASSOCIATION OF AIRPORT EXEC,601 MADISON ST STE 400,ALEXANDRIA,VA,22314,
45218408A,AMERICAN BUILDING SERVICES LLC,953 SETON CT,WHEELING,IL,60090,
037290,AMERICAN CANCER SOCIETY,77 E MONROE ST,CHICAGO,IL,60603,
22399476L,AMERICAN DEMOLITION CORP.,305 RAMONA AVE,ELGIN,IL,60120,
15782966H,"AMERICAN DRUG STORES, INC",75 REMITTANCE DR STE 1242,CHICAGO,IL,60675-1242,
85239630A,AMERICAN EXPRESS 02,777 AMERICAN EXPY,FORT LAUDERDALE,FL,33337,
14862714M,AMERICAN EXPRESS TRAVEL RELATE,TRAVEL RELATED SRVC,FORT LAUDERDALE,FL,33336-0001,PO BOX 360001
85250851L,AMERICAN FAMILY INSURANCE,PO BOX 7430,MADISON,WI,53777-0001,
51838162,AMERICAN GENERAL ANNUITY SERVICE CORPORATION,BOBBY STEELE,AMARILLO,TX,791013546,205 E 10TH AVE
93868390X,"AMERICAN HEALTHWAYS SERVICES, LLC.",701 COOL SPRINGS BLVD,NASHVILLE,TN,37067,
1052180,AMERICAN HEART ASSOCIATION,P O BOX 843543,DALLAS,TX,752843543,
3766004Z,AMERICAN IDEAL CLEANING COMPANYINC,10351 S MICHIGAN AVE,CHICAGO,IL,60628,
83859246E,AMERICAN INDIAN CENTER,1630 W WILSON EFT,CHICAGO,IL,60640,
93688672X,AMERICAN LEGAL PUBLISHING CORP,432 WALNUT ST STE 1200  EPAY,CINCINNATI,OH,45202,
31329758T,AMERICAN LIBRARY ASSOCIATION,155 N WACKER DR,CHICAGO,IL,60606,
93131433A,AMERICAN LUNG ASSOCIATION OF THE UPPER MIDWEST,3000 KELLY LN,SPRINGFIELD,IL,62711,
85247016X,AMERICAN MESSAGING,PO BOX 5749  EFT,CAROL STREAM,IL,60197-5733,
93913740V,AMERICAN NATIONAL TITLE SERVICE INC.,2300 BARRINGTON RD,HOFFMAN ESTATES,IL,60169,
93736967H,AMERICAN SOCIETY FOR QUALITY. INC.,PO BOX 3005,MILWAUKEE,WI,53201-3066,
44804804X,AMERICAN THEATRE COMPANY,1909 W BYRON STREET EFT,CHICAGO,IL,60613-2731,
94279136Z,"AMERICAN TRAFFIC SOLUTIONS, INC.",1330 W SOUTHERN AVE,TEMPE,AZ,85282,
31346235Z,AMERICAN WATERWORKS ASSOCIATION 01,6666 W QUINCY AVE,DENVER,CO,80235,
14856801E,AMERITECH 06,225 W RANDOLPH ST FL 23C,CHICAGO,IL,60606,
93340572V,AMICUS COURT REPORTERS,300 W ADAMS ST,CHICAGO,IL,60606,
91775467P,AMIGOS LIBRARY SERVICES,14400 MIDWAY RD,DALLAS,TX,75244,
55969025,AMJAD ALI KHAN,25 HILLHOUSE LANE,OLD BROOKVILLE,NY,11545,
54263112,AMJAD ALOWISI,8818 W 178TH STREET,TINLEY PARK,IL,60487,
56703021,AMLI MANAGEMENT COMPANY 01,200 WEST MONROE STREET,CHICAGO,IL,60606,SUITE  #2200
9018245E,AMMONS TRANSPORTATION SERVICES,9001 S GENOA AVE,CHICAGO,IL,60620,
93775973H,"AMOONJUMP4U, INC.",5109 WEST LAKE ST,MELROSE PARK,IL,60160,
93264167P,ANA R MARADIAGA,3234 W EVERGREEN AVE,CHICAGO,IL,60651,
95091968X,"ANCHOR MECHANICAL, INC",255 N CALIFORNIA AVE,CHICAGO,IL,60612,
93785396A,ANCHOR REALTY,7559 S ESSEX AVE,CHICAGO,IL,60649,
23130373M,ANDERSON & SHAH ROOFING INC.,23900 COUNTY FARM RD,JOLIET,IL,60436-9531,
95055597V,ANDERSON KREIGER LLP.,ONE CANAL PARK,CAMBRIDGE,MA,,SUITE #200
93534466T,"ANDERSON SHUMAKER COMPANY, INC.",824 S CENTRAL AVENUE EFT,CHICAGO,IL,60644,
93216953M,ANDERSONVILLE CHAMBER OF COMM,5356 N CLARK ST FL 2ND  EFT,CHICAGO,IL,60640,
39068903P,ANDERSONVILLE DEV CORPORATION,1478 W CATALPS AVE,CHICAGO,IL,60640,
56113031,ANDREOU & CASSON LTD,"ESTATE OF LORRAINE P PHILLIPS, A DISABLED PERSON",CHICAGO,IL,60661,"661 W LAKE STREET, 2N"
52930036,ANDREW & MARVA MAYFIELD,PO BOX 1141              (EFT),MATTESON,IL,60443,
51649029,ANDREW DENNIS D O,C/O COUNTERMEASURES CONSULTING,CHICAGO,IL,60612,1900 W POLK STREET - ROOM  #1300
95137044P,ANDREW KALOTAY ASSOCIATES INC,61 BROADWAY,NEW YORK,NY,10006,
93549061P,ANDREW M HALE & ASSOCIATES,53 W JACKSON EFT,CHICAGO,IL,60604,
53836021,ANDREW SYSTEMS INC.,2700 ELLIS RD,JOLIET,IL,60433,
94690561Z,ANDREW WILLIAMS 01,1459 E PARK PL,CHICAGO,IL,60637,
52146022,"ANESI, OZMON, RODIN, NOVAK & KOHEN LTD",& JANICE SWANK,CHICAGO,IL,60601,161 N. CLARK ST. 21ST FL
93908395V,ANGEL FLIGHT MARKETING SERVICES,222 S MORGAN ST STE 2-B,CHICAGO,IL,60607,
93243676Z,ANGEL L DELVALLE,3744 N WILTON AVE,CHICAGO,IL,60613,
56144021,ANGEL R. VAZQUEZ,754 BRONX RIVER ROAD,BRONXVILLE,NY,10708,#B63
95043517P,ANGELICA ASSAS,3304 W 60TH PL,CHICAGO,IL,60629,
94678750M,ANGELINE J CARNEY,23 BROOK LN,PALOS HILLS,IL,60464,
55849029,ANGELINI & ANGELINI,PHILLIP J VAN KUIKEN & DANIEL MACKEY,CHICAGO,IL,60656,650 N DEARBORN ST SUITE 700
93703878M,ANGELO A HERRERA,3233 S UNION AVE,CHICAGO,IL,60616,
88322717H,ANGELOS HALARIS MD,55 TIMBER TRAIL DR,OAK BROOK,IL,60523,
3638146Z,ANIXTER CENTER,6610 N CLARK ST STE OFC,CHICAGO,IL,60626,
94761747Z,ANN MARIE SHIPSTAD,PO BOX 560,EVANSTON,IL,60204,
95038398M,ANN RAY,5319 W 25TH ST,CICERO,IL,60804,
31309969Z,ANSELL HEALTHCARE PRODUCTS LLC,DEPT CH 17373,PALATINE,IL,60132,
56713066,ANTHEUS CAPITAL,32 NORTH DEAN STREET,ENGLEWOOD,NJ,07631,
55388022,ANTHONY J PERAICA & ASSOCIATES LTD,5130 S ARCHER AVE,CHICAGO,IL,60632,
93392764T,ANTHONY MARTOCCI CEMETERY MEMO,2139 N NEVA AVE,CHICAGO,IL,60707,
80840672V,ANTHONY MUNIZZI JR,1501 W PERSHING RD,CHICAGO,IL,60609,
93398110V,ANTHONY R MARTIN,10614 S SPRINGFIELD AVE,CHICAGO,IL,60655,
93704320M,ANTHONY R. DOWNING,6035 S ST LAWRENCE AVE,CHICAGO,IL,60637,
93332409H,ANTONIO CASAS,2451 S ASHLAND AVE,CHICAGO,IL,60608,
56713105,ANTONIO CROSS,8710 S KINGSTON,CHICAGO,IL,60617,
93731794A,ANTWAN L DOBSON,1212 S MICHIGAN AVE,CHICAGO,IL,60605,
21967887A,"AON CONSULTING, INC",PO BOX 93736,CHICAGO,IL,60673-3736,
95245256P,AON RISK SERVICES CENTRAL INC,PO BOX 92380,CHICAGO,IL,60675-2380,
33675191V,AOR TRANSIT,PO BOX 66511,AMF OHARE,IL,60666,PO BOX 66511
93963589P,APARTMENT FINDERS,1114 W BRYN MAWR AVE,CHICAGO,IL,60660,
77194924H,APERTA INC,2180 SATELLITE BLVD STE 400,DULUTH,GA,30097,
93867543H,APEX CONSULTING ENGINEERS LLC,111 E WACKER DRIVE EFT,CHICAGO,IL,60601,
23446563X,"APNA GHAR, INC. OUR HOME",4753 N BROADWAY STE 632,CHICAGO,IL,60640,
56611066,APOLLO PLASTIC CORPORATION,5333 NORTH ELSTON AVENUE,CHICAGO,IL,60630,
94263937Z,"APPAREL INDUSTRY BOARD, INC.",16 W GRAND AVE,CHICAGO,IL,60654,
93333872M,ASIF VADARIA,2457 W PETERSON AVE,CHICAGO,IL,60659,
5647692E,APPEAL FOR CHARITIES & GOODWILL INC,"& GOODWILL, INC",CHICAGO,IL,60621,50 W 71ST ST
31322886A,APPLICATIONS SOFTWARE TECHNOLOGY CORP.,1755 PARK ST # 115,NAPERVILLE,IL,60563,1755 PARK ST # 115
31287639L,APPLIED BIOSYSTEMS,850 LINCOLN CENTER DR,FOSTER CITY,CA,94404,
31332352E,APPLIED PAVEMENT TECH. INC.,3001 RESEARCH RD STE C,CHAMPAIGN,IL,60515,STE J
22347645A,APPLIED REAL ESTATE ANALYSIS INC,914 S WABASH AVE,CHICAGO,IL,60605,
54295773P,APPRAISAL SYSTEMS LLC,15 S PROSPECT AVE,PARK RIDGE,IL,60068-4164,
93361098T,APRIL COBRA ENTERPRISES INC,1250 S GROVE AVE,BARRINGTON,IL,60010,
31339353A,APWA,PO BOX 27296,KANSAS CITY,MO,64180,
94663811V,AQUEDUCT DEVELOPMENT LLC,400 N RACINE AVE,CHICAGO,IL,60642,
93293354V,ARAB AMERICAN ACTION NETWORK,3148 W 63RD STREET EFT ST,CHICAGO,IL,60629,
14811284A,"ARAMARK UNIFORM SERVICES,INC",4200 S HALSTED ST STE 604,CHICAGO,IL,60609,
54669024,ARAZ  INC,5200 NORTH  OTTO,CHICAGO,IL,60656,
93713586V,ARBORETUM VIEW ANIMAL HOSPITAL,2551 WARRENVILLE ROAD EPAY,DOWNERS GROVE,IL,60515,
94649737E,"ARBORJET, INC.",99 BLUEBERRY HILL RD,WOBURN,MA,,
89944925V,"ARCHER ADVISORS, LLC & 5839 ARCHER DEVELOPMENT LLC JOINTLY&SEVERALLY",8847 S HARLEM AVE,BRIDGEVIEW,IL,60455,
39279104T,ARCHER AVENUE LLC,ARCHER AVENUE LLC,CHICAGO,IL,60616,302 W 31ST ST
55891027,ARCHER-CICERO LLC.,225 WEST HUBBARD,CHICAGO,IL,60654,4TH  FLOOR
54971076,ARCO / MURRY NATIONAL CONSTRUCTION,ONE OAKBROOK TERRACE,OAKBROOK TERRACE,IL,60181,SUITE  #300
94062030M,ARCONAS,5700 KEATON CRESCENT,MISSISSAUGA,CAN,,
27469811A,ARDC,130 E RANDOLPH ST FL 1500TH,CHICAGO,IL,60601,
93419989M,"ARDMORE ASSOCIATES, LLC",33 N DEARBORN STREET EFT,CHICAGO,IL,606020000,
93441547T,ARELY GASCA,4839 W DRUMMOND PL,CHICAGO,IL,60639,
52171003E,ARGONNE NATIONAL LABORATORY,PO BOX 87916,CAROL STREAM,IL,60188,
92555718M,ARLINGTON CEMETERY DBA ELM LAWN CEMETERY,401 E LAKE ST,ELMHURST,IL,60126,
95045522X,ARLINGTON GLASS & MIRRORS,6351 W MONTROSE AVE,CHICAGO,IL,60630,
56340037,ARMAND MCWILLIAMS,7349 S COLES UNIT C,CHICAGO,IL,60649,
95043531P,ARMANDO CARDENAS,2107 S MARSHALL BLVD FL 2ND,CHICAGO,IL,60623,
94277323M,ARMITAGE BUTCHER LLC,1021 W ARMITAGE AVE,CHICAGO,IL,60614,
93339480Z,ARMY TIMES PUBLISHING CO,PO BOX 791102,BALTIMORE,MD,21279-1102,
33652264P,"ARNOLD SCOTT HARRIS, P.C.",600 W JACKSON BOULEVARD EFT,CHICAGO,IL,60661,STE 400
33662989L,"ARONSON & ASSOCIATES, LIMITED",1020 N MILWAUKEE AVE,DEERFIELD,IL,60015,
54261023,ARQUILLA & FINK LTD,& RAHEEM SYED,CHICAGO,IL,60603,105 W ADAMS STREET 39TH FL
31322299P,ARROW LUMBER CO.,PO BOX 88264 DEPT  A,CHICAGO,IL,60680-1264,
25942130T,ARROW ROAD CONSTRUCTION COMPANY.,3401 S BUSSE RD,MOUNT PROSPECT,IL,60056,
55747247Z,ARROWHEAD SCIENTIFIC INC,14400 COLLEGE BLVD STE 100,LENEXA,KS,66215,
93653934L,ART INSTITUTE OF CHICAGO,36 S WABASH AVENUE MAILROOM,CHICAGO,IL,60603-3703,
31283304A,ARTHUR CLESEN INC,543 DIENS DR,WHEELING,IL,60090-2687,
31306525T,ARTHUR D. GRIFFIN COMM. CENTER COMMUNITY CENTER,1613 W WASHINGTON BOULEVARD EFT,CHICAGO,IL,60612,
93461844A,ARTHUR F. KOHRMAN M D,3730 N LAKE SHORE DR APT 3A,CHICAGO,IL,60613,
94101149L,"ARTHUR J. GALLAGHER RISK MANAGEMENT SERVICES, INC.",TWO PIERCE PLACE,ITASCA,IL,60143,
71791136H,ARTHUR J. SMITH 01,"ART'S ENTERPRISES, INC",CHICAGO,IL,60605,232 E 14TH ST UNIT 2E
81991246X,ARTHUR P DONNER CPA,760 N FRONTAGE STE 105,WILLOWBROOK,IL,60527,
93809091L,"ARTHUR RUBALCABA & CO., LIMITED",1823 S MICHIGAN AVENUE EFT,CHICAGO,IL,60616,
94543211A,ARTISTIC ENGRAVING CO,2929 S 18TH AVE,BROADVIEW,IL,60155,
93516798V,ARTS AUTO REBUILDERS,7400 S WESTERN AVENUE EFT,CHICAGO,IL,60636,
94632246E,ARTS MIDWEST INC,2908 HENNEPIN AVE,MINNEAPOLIS,MN,55408,
53828684Z,ARUP NORTH AMERICA LIMITED,35 E WACKER DR STE 1800,CHICAGO,IL,60601,
93516810P,ASBACH & VANSELOW INC,1000 BROWN STREET EFT,WAUCONDA,IL,60084,
55881021,ASHER GITTLER & D'ALBA,200 WEST JACKSON BLVD SUITE 1900,CHICAGO,IL,60606,
95258599T,"ASI WORKS, INC.",8301 PROFESSIONAL EAST EFT PL,HYATTSVILLE,MD,20785,
22188778X,"ASI, INC",2619 W ARMITAGE AVE,CHICAGO,IL,60647,
93792297Z,"ASI, INC.",2619 W ARMITAGE AVENUE EFT,CHICAGO,IL,60647-4208,
88359525X,ASIAN HEALTH COALITION ILLINOI,180 W WASHINGTON ST STE 1000,CHICAGO,IL,60602,
1058850,ASIAN HUMAN SERVICES,4753 N. BROADWAY    (EFT),CHICAGO,IL,60640,SUITE 700
93116302M,"ASIAN HUMAN SERVICES, INC.",4753 N BROADWAY # 700,CHICAGO,IL,60640-5266,
93339506P,"ASKREPLY, INC",5025 N CENTRAL AVENUE EFT,PHOENIX,AZ,85012,
90792866A,"ASPHALT OPERATING SERVICES OF CHICAGO, LLC.",651 COMISKEY RD,BARTLETT,IL,60103,
31305107Z,ASPIRA INC. OF ILLINOIS,2415 N MILWAUKEE EFT,CHICAGO,IL,60647,
92421301A,ASSET LLC,4939 N HAMLIN AVE,CHICAGO,IL,60625,
94146536V,"ASSETWORKS, INC.",PO BOX 202525,DALLAS,TX,75320,
31313549P,"ASSOCIATED PROPERTY COUNSELORS, LIMITED","COUNSELORS, LTD.",CHICAGO,IL,60632,5301 S CICERO AVE
3676836M,ASSOCIATION HOUSE OF CHICAGO,2150 W NORTH AVE,CHICAGO,IL,60647,
38308115L,ASSOCIATION OF METRO WATER AGENCIES,1717 K STREET N.W. STE 801,WASHINGTON,DC,20036,
22188863Z,ASSURANCE CORPORATION,1520 W DIVISION EFT,CHICAGO,IL,60622,
94016132M,ASTORTOWER CONDOMINIUM ASSOCIATION,PO BOX 66089,CHICAGO,IL,60666,
94152438V,"ASYMMETRIC COMBAT INSTITUTE, LLC.",2801 WADE HAMPTON BLVD,TAYLORS,SC,29687,
93427676E,AT & T 09,PO BOX 13134,NEWARK,NJ,,
33655921H,AT & T BROADBAND,PO BOX 173885,DENVER,CO,80217-3885,
51441023,AT & T ILLINOIS,C/O TODD L SHIVERS,WHEATON,IL,60187,202 W WILLOW AVE STE 102
60755925X,AT & T INTERNET SERVICES,PO BOX 650396,DALLAS,TX,75266-0396,
66554527L,AT & T MOBILITY,PO BOX 6463,CAROL STREAM,IL,60197-6463,
82152908Z,"A-T SOLUTIONS, INC",11905 BOWMAN DR,FREDERICKSBURG,VA,22408,
87451913H,AT&T CORP,PO BOX 5000,CAROL STREAM,IL,60197-5000,
14810775A,AT&T TELECONFERENCE SERVICES,PO BOX 2840,OMAHA,NE,68103,
51071027,ATHLETICO LTD,625 ENTERPRISE DRIVE,OAK BROOK,IL,60523,
22493318M,"ATKINSON-BAKER,INC.",330 N BRAND BLVD # 250,GLENDALE,CA,91203-2330,
47992230M,ATLAS FIRST ACCESS MATERIAL,5050 N RIVER RD,SCHILLER PARK,IL,60176,
94104543H,"ATLAS SALES & RENTALS, INC.",PO BOX 15100,FREMONT,CA,94539,
3770639P,"ATLAS STATIONERS, INC",227 W LAKE ST,CHICAGO,IL,60606,
93697008H,ATRIUM SERVICES INC,2999 OVERLAND AVE,LOS ANGELES,CA,90064,
93549082Z,"ATTORNEY'S TITLE GUARANTEE FUND, INC.",ONE SOUTH WACKER DRIVE,CHICAGO,IL,60606,
95236545V,AUDAEXPLORE,4215 SOLUTIONS CENTER,CHICAGO,IL,60677,
94663840X,AUDIENCE ARCHITECTS,1412 W BELMONT AVE,CHICAGO,IL,60657,
9308539E,AUDIO VISUAL SYSTEMS INC,315 S GREEN ST,CHICAGO,IL,60607,
94685042H,"AUNT MARTHA'S YOUTH SERVICES CENTER, INC.",19990 GOVERNORS HWY,OLYMPIA FIELDS,IL,60461,
56561060,AURORA CHICAGO LAKESHORE HOSPITAL,4840 NORTH MARINE DRIVE,CHICAGO,IL,60640,
93502125T,AURORA SPORTSMENS CLUB,PO BOX 414,AURORA,IL,60507,
55855029,AUSTIN 1900 BUILDING LIMITED PARTNERSHIP,1900 NORTH AUSTIN AVENUE,CHICAGO,IL,60639,4TH FLOOR
94067423H,"AUSTIN 1900 BUILDING LP & MCCARTHY, DUFFY LLP",180 N LA SALLE ST,CHICAGO,IL,60601,
90553713X,AUSTIN CHAMBER OF COMMERCE,645 S CENTRAL AVENUE EFT,CHICAGO,IL,60624,
95265334P,AUSTIN CHILD CARE PROVIDERS NETWORK,5701 W DIVISION ST,CHICAGO,IL,60651,
95235454L,AUSTIN POWER PARTNERS,8750 W BRYN MAWR AVE,CHICAGO,IL,60631-3546,
93998220T,AUSTRIAN BAKERY,2532 N CLARK ST,CHICAGO,IL,60618,
92032363Z,AUTO TRUCK GROUP,1420 BREWSTER CREEK BLVD,BARTLETT,IL,60103,
21965259V,AUTOMATIC DATA PROCESSING DEALER SERVICE DIVISION,7350 W LAWRENCE AVE,CHICAGO,IL,60656,
93285938P,"AUTOMATIC DOORS, INC.",118 BARTLETT AVENUE EFT,BARTLETT,IL,60103,
93653974V,"AVENUE HOMES, LIMITED",12212 70TH ST,PALOS HEIGHTS,IL,60463,
95251559P,AVESTA SYSTEMS INC,5601 HUDSON DR,HUDSON,OH,44236,
31340163A,"AVIALL, INC.",2055 DIPLOMAT DR,DALLAS,TX,75234,
31336666A,AVIATION SECURITY CLEARINGHSE,601 MADISON ST STE 400,ALEXANDRIA,VA,22314,
23214192E,"AVID CONSULTING, LLC",12454 S WENTWORTH AVE,CHICAGO,IL,60628,
93275041H,AVID IDENTIFICATION SYSTEMS IN,3185 HAMNER AVENUE EFT,NORCO,CA,92860-1983,
56638074,AVILA LAW GROUP LLC,MARIO BEAR & MARIE BEAR,CHICAGO,IL,60646,6201 WEST TOUHY AVE SUITE 201
22542753T,AVIS RENT A CAR SYSTEMS INC,214 N CLARK ST,CHICAGO,IL,60601,
93934364M,AVNET INC,PO BOX 70390,CHICAGO,IL,60673-0390,
55376212,AXIOM GLOBAL INC.,P O   BOX   #60000,SAN FRANCISCO,CA,94160,
50066681,AYESHA S HAKEEM,P.O. BOX 19728,CHICAGO,IL,60619,
86603698T,AZTEC SUPPLY CORPORATION,5024 W 67TH STREET EFT,BEDFORD PARK,IL,60638,
22295242L,"B & W TRUCK REPAIR, INC",3701 S IRON ST FL 1ST,CHICAGO,IL,60609,
3771918P,B J'S MARKET & BAKERY,8734 S STONY ISLAND AVE,CHICAGO,IL,60617,
94661991P,B STRONG COMMUNICATIONS INC,326 S TAYLOR AVE,OAK PARK,IL,60302,
21995246T,BACINO'S OF LINCOLN PARK LIMITED,2204 N LINCOLN AVE,CHICAGO,IL,60611,
56638338,BACK BAY MANAGEMENT LLC,520 SOUTH INDEPENDENCE BLVD,VIRGINIA BEACH,VA,23452,
5295228H,BACK OF THE YARDS NEIGHBORHOOD COUNCIL,1751 W 47TH ST FL 2ND  EFT,CHICAGO,IL,60609,
94018152X,BADGER METER INC,PO BOX 88223,MILWAUKEE,WI,53288-0223,
54692033,BAGCRAFT PAPERCON,3900 WEST 43RD STREET,CHICAGO,IL,60632,
55903627,BAIZER KOLAR & LEWIS P C,& ELISABETH LANZI,HIGHLAND PARK,IL,60035,513 CENTRAL AVE 5TH FLOOR
21963342H,BAKER & MCKINZIE - PALO ALTO,660 HANSEN WAY,PALO ALTO,CA,94304-0309,
93716133E,BAKER & TAYLOR CO,2550 W TYVOLA ROAD EFT,CHARLOTTE,NC,28217,
86446974E,"BAKER TILLY VIRCHOW KRAUSE, LLP",TEN TERRACE COURT    (EFT),MADISON,WI,53707-7398,PO BOX 7398
14906312P,BANK OF AMERICA NT & SA,PO BOX 60307,LOS ANGELES,CA,90060-0307,
31285120H,"BANK OF AMERICA, N.A.",231 S LA SALLE ST # 1500,CHICAGO,IL,60604,
37297966A,BANK OF NEW YORK CO,2 N LA SALLE ST STE 1020,CHICAGO,IL,60602,2 N LA SALLE ST STE 1020
93427688T,BANK OF NY MIDWEST TRUST CO,21 WEST ST,NEW YORK,NY,10015,
21963377P,"BANSLEY & KIENER, L.LP.",8745 W HIGGINS RD STE 200,CHICAGO,IL,60631,8745 W HIGGINS RD STE 200
93696978T,BARBARA & CHARLES SPAULDING,1738 W CHASE AVE,CHICAGO,IL,60626,
1028883,BARBARA B GOODMAN,& ASSOCIATES,NORTHBROOK,IL,60062,"400 SKOKIE BLVD, STE 380"
94267102M,BARBARA BELEJEC,6252 N CENTRAL AVE APT 10,CHICAGO,IL,60638,
93454973M,BARBARA R ALEXANDER,83 WEDGEWOOD DRIVE EFT,WINTHROP,ME,,
94675217E,BARCLAYS CAPITAL INC,745 SEVENTH AVE,NEW YORK,NY,10019,
72582389T,BARKER & CASTRO LLC,115 S LA SALLE ST # 2900,CHICAGO,IL,60603,
3914875V,BARNERS REAL ESTATE.INC.,2002 W CHICAGO AVE # 158,CHICAGO,IL,60622,
86948710A,BARNES & THORNBURG,ONE NORTH WACKER DR #4400,CHICAGO,IL,60606,
93549053X,"BARRICADE LITES, INC.",PO BOX 385  EFT,ADDISON,IL,60101-0385,
55126021,BARRIDO & ROBISON LLC,LATONYA HENDERSON AS GUARDIAN OF TYJUAN GARDNER,CHICAGO,IL,60604,53 W JACKSON BLVD SUITE 1625
93906130P,BARRINGTON SADDLERY,760 W NORTHWEST HWY,BARRINGTON,IL,60010,
93703428E,BARRY A MITCHELL,9700 S PEORIA ST,CHICAGO,IL,60643,
55762022,BARRY A. SPECTOR,1603 ORRINGTON AVENUE - #800,EVANSTON,IL,60201-3872,
86410138V,BARRY CALLEBAUT USA LLC A DELAWARE LIMITED LIABILITY COMPANY,400 INDUSTRIAL PARK RD,SAINT ALBANS,VT,,
58196517E,BARRY DOLINS,6888 N WILDWOOD AVE,CHICAGO,IL,60646,
94027395L,BARRY HOLDER,1501 W PERSHING RD,CHICAGO,IL,60609,
56532028,BARRY LAND PARCEL / SCOTT GOLDMAN,1030 WEST CHICAGO AVENUE,CHICAGO,IL,60642,SUITE  #300
93620246P,BARTLIT BECK HERMAN PELENCHAR & SCOTT LLP,& JUAN RIVERA,CHICAGO,IL,60610,54 W HUBBRD ST
39747615T,BATTERY SOLUTIONS INC,5900 BRIGHTIN PINES CT,HOWELL,MI,48116,
92893998P,BATTLE LAW OFFICE,1016 W JACKSON BOULEVARD EFT,CHICAGO,IL,60607,
59373809V,"BAUER LATOZA STUDIO, LIMITED",2241 S WABASH AVE,CHICAGO,IL,60616,
93607856E,"BAXTER & WOODMAN, INC.",8678 RIDGEFIELD RD,CRYSTAL LAKE,IL,60012,
1059374,BAY SHIP BUILDING,605 N. THIRD AVENUE,STURGEON BAY,WI,542350830,
39362720M,BAYERISCHE LANDESBANK,LOAN OPERATIONS/MIRIAM RAMOS,NEW YORK,NY,10022,560 LEXINGTON AVE FL 18TH
48792672A,"BCI COMMERCIAL ROOFING, INC.",3062 W 167TH ST,MARKHAM,IL,60428,
93516802X,BCR LLC AUTOMOTIVE GROUP,333 W GRAND AVENUE EFT,BENSENVILLE,IL,60106,
50096121,BD OF ELECTIONS COMMISSIONERS,69 W WASHINGTON STE. 800,CHICAGO,IL,60602,
90070650A,BEACON STREET GALLERY,CLARENDON COMMUNITY CENTER,CHICAGO,IL,60605,4501 N CLARENDON AVENUE EFT
86546527P,BEACON THERAPEUTIC & TREATMENT,1912 W 103RD STREET EFT ST,CHICAGO,IL,60643,
31348191V,BEARCOM,PO BOX 200600,DALLAS,TX,75320-0600,
93216961E,BECHSTEIN CONSTRUCTION CORP,PO BOX 277  EFT,TINLEY PARK,IL,60477,
86857372H,BECK DISASTER RECOVERY INC,800 N MAGNOLIA AVE STE 400,ORLANDO,FL,32803,
92285311P,"BECKIT, INC",27992 WEST RTE UNIT 120 13,LAKEMOOR,IL,60051,
54626023,BEDFORD REPORTING LLC,77 W. WASHINGTON BLVD  (EFT),CHICAGO,IL,60602,SUITE 1906
23130718T,BE-HIV/BETTER EXISTENCE W/HIV,6924 N GLENWOOD AVE,CHICAGO,IL,60626,
56138021,BEIGE CURTAIN INC.,16000 VENTURA BOULEVARD,ENCINO,CA,91436,SUITE  #600
56760445,BEKKERMAN LAW OFFICE A/SO WANTAN MONTGOMERY,308 WEST ERIE STREET,CHICAGO,IL,60652,SUITE  #300
94132889X,"BELFOR USA GROUP, INC.",650 ANTHONY TRL  B,NORTHBROOK,IL,60062,
31287243M,BELL HELICOPTER-TEXTRON,PO BOX 482  EFT,FORT WORTH,TX,76101,
31348268A,BELL LITHO INC,370 CROSSEN AVE,ELK GROVE VILLAGE,IL,60007,
93340550E,DR DOROTHY APPIAH,19912 EVERETT LN,MOKENA,IL,60448,
55270021,BELLAS & WACHOWSKI,"IRENE GALOS, CENTERS FOR MEDICARE & MEDICAID SERVICES",PARK RIDGE,IL,60068,15 NORTHWEST HIGHWAY
93086779T,BELMONT BANK & TRUST CO,8250 W BELMONT AVE,CHICAGO,IL,60634,
25942644P,BELMONT-CENTRAL CHAMBER OF COMMERCE,3250 N CENTRAL AVE,CHICAGO,IL,60634,
94090844L,BELOVED COMMUNITY FAMILY WELLNESS CENTER,6821 S HALSTED ST,CHICAGO,IL,60621,
14597655T,BELT RAILWAY COMPANY. OF CHICAGO,6900 S CENTRAL AVE STE 2,CHICAGO,IL,60638-6315,
14927180Z,BENCH MARK CONSTRUCTION. CO. INC,3349 S KEDZIE AVE,CHICAGO,IL,60623,
67794833M,BENCHMARK,PO BOX 214,ROSEMONT,NJ,,
88430320H,BENIGNO GARCIA JR,1501 W PERSHING RD,CHICAGO,IL,60609,
50071177,"BENJAMIN GOLDBERG, MD",835 S. WOLCOTT,CHICAGO,IL,60612,ROOM 270
77289203X,BENJAMIN HAMPTON,3124 S SACRAMENTO AVE,CHICAGO,IL,60623,
84535964M,BENJAMIN HISTORIC CERTIFICATION,711 MARION AVE,HIGHLAND PARK,IL,60035,
93615195Z,BENSENVILLE PARK DISTRICT,1000 W WOOD ST,BENSENVILLE,IL,60106,
51453105,BERKELEY AGENCY,2608 9TH STREET #301,BERKELEY,CA,94710,
93730505X,BERKELEY RESEARCH GROUP,2200 POWELL ST # 1200,EMERYVILLE,CA,94608,
61907848A,BERNADETTE FREEMAN,801 S PLYMOUTH CT STE 1  EFT,CHICAGO,IL,60605,
93703639X,BERNITA WOOLFOLK,9605 S PERRY AVENUE EFT,CHICAGO,IL,60628,
95064183E,BESLY COURT ASSOCIATES,1640 W HUBBARD STREET EFT,CHICAGO,IL,60622,
94659752P,BEST EXPRESSION,625 W DEER VALLEY RD,PHOENIX,AZ,85027,
31320670E,"BEST TECHNOLOGY SYSTEMS, INC.*",12024 S AERO DR,PLAINFIELD,IL,60544,
5039317X,BETHEL HOUSE OF PRAYER,%CLAUDE D. LEWIS PASTOR,CHICAGO,IL,60628,10956 S STATE ST
3635517H,"BETHEL NEW LIFE, INC.",4952 W THOMAS ST,CHICAGO,IL,60651,
9372171H,BETTER BOYS FOUNDATION,1512 S PULASKI RD,CHICAGO,IL,60623,1512 S PULASKI RD
94538551L,BETTER WORLD ADVERTISING,333 KEARNY ST,SAN FRANCISCO,CA,94108,
51706021,BETTY GRIMES,1813 WEST AUGUSTA  BLVD,CHICAGO,IL,60622,(EFT)
85244322M,BETWEEN FRIENDS,2301 W HOWARD ST FL 1ST,CHICAGO,IL,60645,
94077605A,BEULAH A. G. SMITH SCHOLARSHIP FUND,243 W 119TH STREET EFT ST,CHICAGO,IL,60628,
59387401Z,BEVERLY AREA PLANNING ASSOCIATION,1987 W 111TH ST,CHICAGO,IL,60643,
23257726P,BEVERLY ARTS CENTER,"2407 W 111TH ST FL 1,2",CHICAGO,IL,60655,
94659818P,BEYOND THE BALL NFP,2657 S LAWNDALE AVE,CHICAGO,IL,60623,
93419955L,BEYONDMEDIA,4001 N RAVENSWOOD AVE STE 204B EFT,CHICAGO,IL,60613,
5121177L,"BGP LINCOLN VILLAGE, LLC.",8707 N SKOKIE BLVD STE 230,SKOKIE,IL,60077,
56013022,BHG STRUCTURED SETTLEMENTS INC,3024 HARNEY STREET,OMAHA,NE,681313580,
3676876H,BICKERDIKE REDEVELOPMENTCORPORATION CORP,2550 W NORTH AVE FL 2ND,CHICAGO,IL,60647,
93269246X,BIG BELLY SOLAR INC,85 WELLS AVE STE 305,NEWTON,MA,,
95146954P,BIG BROTHERS-BIG SISTERS OF METROPOLITAN CHICAGO,560 W LAKE STREET EFT,CHICAGO,IL,60661,
3776180L,"BIG 'O' MOVERS & STORAGE, INC",5951 W MADISON ST,CHICAGO,IL,60644,
21989910V,"BIG TOP PRODUCTIONS, INC.",1639 SHERIDAN RD,NORTH CHICAGO,IL,60064,
93320188X,BIGANE PAVING C/O PLOTE CONSTRUCTION INC JV,935 W CHESTNUT STREET EFT,CHICAGO,IL,60642,
42441106P,BIGANE PAVING COMPANY/O PLOTE CONSTRUCTION INC JV,935 W CHESTNUT ST STE 20,CHICAGO,IL,60622-5445,
31348709T,BILINGUAL PUBLICATIONS CO,270 LAFAYETTE ST,NEW YORK,NY,10012,STE 705
40746046E,BILLY BRANCH,8409 S INDIANA AVE,CHICAGO,IL,60649,APT 8J
23281707P,BILLY GOAT TAVERN & GRILL,1535 W MADISON ST,CHICAGO,IL,60606,
54000715X,BINDAN CORPORATION,603 MALLARD LN,HINSDALE,IL,60521,
94781137A,BIOPOOL US INC,2823 GIRTS RD,JAMESTOWN,NY,14701,
5263196T,"BISHOP PLAZA, LLC.",200 N LA SALLE ST # 2350,CHICAGO,IL,60601-1014,200 N LA SALLE ST RM 2350
55923023,BIZZIERI LAW OFFICES LLC,ALBERT GUTIERREZ,CHICAGO,IL,60643,10258 S WESTERN AVE. STE 210
85248162X,BLACK BOX NETWORK SERVICES,21398 NETWORK PL,CHICAGO,IL,60673-1213,
23313172Z,BLACK ENSEMBLE THEATER CORPORATION,4520 N BEACON ST FL BSMT,CHICAGO,IL,60640,
31304451V,BLACK ENSEMBLE THEATRE CORP,4520 N BEACON ST,CHICAGO,IL,60640,
90506646X,BLACK STAR PROJECT,3509 S KING DRIVE EFT,CHICAGO,IL,60653,
93493527T,BLACK TIE SANITATION,21730 S LAGRANGE,FRANKFORT,IL,60423,
45262104A,BLACK TOP INCF/S/O CLINT BLACK,9255 W SUNSET BLVD STE 600,LOS ANGELES,CA,90069,
5039588P,BLACK UNITED FUND OF ILLINOIS,1809 E 71ST ST  ED FUND OF ILLINOIS,CHICAGO,IL,60649,1809 E 71ST ST
85245022Z,BLACKSTONE HOTEL DEVELOPER LLC,800 LOCUST ST,DENVER,CO,80220,
22566036M,"BLACKWELL CONSULTING SERVICES, INC.",PO BOX 2150,BEDFORD PARK,IL,60499-2150,PO BOX 2150
93892393M,"BLACKWELL GLOBAL CONSULTING, LLC",30 N LASALLE STREET EFT,CHICAGO,IL,60602,
88359519P,BLACKWELL NOR. AMER. INC,PO BOX 809394,CHICAGO,IL,60680-9394,
67142751H,BLAKE HORWITZ LAW FIRM LIMITED,155 N MICHIGAN AVE STE 714,CHICAGO,IL,60601,
31286332H,BLANCHFLOWER CONSULTING,27 MULHERRIN FARM RD,HANOVER,NH,,
93810151M,BLAST CRAFT SERVICE INC.,750 INDUSTRIAL DR,SLINGER,WI,53086,
89033471H,BLESSED SACRAMENT YOUTH PROGRA,3528 S HERMITAGE AVE,CHICAGO,IL,60609,
38785860Z,"BLINDERMAN CONSTRUCTION COMPANY, INC.",8501 W HIGGINS RD STE 320,CHICAGO,IL,60631,
95235430L,BLOCK CLUB FEDERATION,3320 W HIRSCH ST,CHICAGO,IL,60651,
48305991V,"BLOOM CONSULTANTS, LLC",5420 S WESTRIDGE DRIVE EFT,NEW BERLIN,WI,60195,STE 101
93665546M,BLOOMBERG LP,PO BOX 416604,BOSTON,MA,,
93844976H,"BLR, BUSINESS & LEGAL RESOURCES",PO BOX 41503,NASHVILLE,TN,37204,
31348884T,BLUE CROSS & BLUE SHIELD,CONVERSION ADDRESS,CHICAGO,IL,60602,
55887051,BLUE CROSS BLUE SHIELD OF ILLINOIS,2329 S MACARTHUR BLVD,SPRINGFIELD,IL,627044503,
94066277A,"BLUE PEARL, ILLINOIS",1050 BONAVENTURE DR,ELK GROVE VILLAGE,IL,60007,
92220648E,BLUE PERFORMANCE HMO,300 E RANDOLPH ST,CHICAGO,IL,60601,
68360565L,BLUE SKY INN NFP,3056 W SUNNYSIDE AVE UNIT 3,CHICAGO,IL,60625,
95089556E,BLX GROUP LLC,DEPT  #34461,SAN FRANCISCO,CA,94139,PO BOX 39000
49109857V,BMG STONY ISLAND LLC,8707 SKOKIE BLVD # 230,SKOKIE,IL,60077,
93602625V,BMI MANAGEMENT,206 N RANDOLPH EFT,CHAMPAIGN,IL,61820,
94188637E,BMO HARRIS BANK N. A.,111 W MONROE ST STE 1200,CHICAGO,IL,60603,
85241398A,BOARD OF EDUC. CITY OF CHICAGO,CONVERSION ADDRESS,CHICAGO,IL,60602,
31344254V,BOARD OF EDUCATION 02,125 S CLARK ST,CHICAGO,IL,60603,
85240295E,BOARD OF TRUSTEES - U OF I,GRANTS & CONTRACTS MC 551,CHICAGO,IL,60612-7205,809 S MARSHFIELD AVE # 511MB
85241378X,BOARD OF TRUSTEES @ UNIVERSITY OF ILLINOIS @,CHGO JANE ADDAMS COLLEGE,CHICAGO,IL,60607,322 S GREEN ST STE 210
85240197L,BOARD OF TRUSTEES COMM COLLEGE,COLLEGE DISTRICT #508,CHICAGO,IL,60606,226 W JACKSON BLVD
94224533T,BOARD OF TRUSTEES OF COMMUNITY COLLEGE,COLLEGE DISTRICT #508,CHICAGO,IL,60606,226 W JACKSON BLVD
6060732V,BOBAK SAUSAGE COMPANY.INC.,5275 S ARCHER AVE,CHICAGO,IL,60632,
55980028,BODY CARTOGRAPHY,3528  10TH  AVENUE  SOUTH,MINNEAPOLIS,MN,55407,
5906693H,"BOEING COMPANY, INC.",100 N RIVERSIDE PLZ FL 25,CHICAGO,IL,60606-1596,
50085710,BOILERMAKERS UNION LOCAL ONE,2941 S. ARCHER AVE,CHICAGO,IL,60608,
23207701L,BOLAT AFRICAN CUISINE INC,3346 N CLARK ST,CHICAGO,IL,60657,
94722900X,BOLDPLANNING INC,4515 HARDING PIKE,NASHVILLE,TN,37205,
94563079H,BOMBAY SPICE,100 FIELD DR,LAKE FOREST,IL,60056,
31314560A,BONAVENTURE HOUSE INC.,825 W WELLINGTON EFT,CHICAGO,IL,60657,
54453021,BOND/CG BUCKTOWN LLC,350 W HUBBARD S#450,CHICAGO,IL,60654,
93487798E,"BONESTROO, INC.","TECHNOLOGIES, INC.",NORTHBROOK,IL,60062,647 ACADEMY DR
31349099H,BONNAMY & ASSOCIATES,PO BOX 2454,NAPERVILLE,IL,60567,
54295021,BONNIE LAI,632 W BRIAR PLACE APT3,CHICAGO,IL,60654,
94320963M,BONNIE POOLE,8446 S ASHLAND AVE,CHICAGO,IL,60620,
94016142P,BORINQUEN BELLA LP,OR CHICAGO TITLE & TRUST,CHICAGO,IL,60601,171 N CLARK ST FL 3RD
85357127T,BORKAN & SCAHILL LIMITED,20 S CLARK ST # 1700,CHICAGO,IL,60603,
31312345H,BOULEVARD ARTS CENTER,6011 S JUSTINE STREET EFT,CHICAGO,IL,60636,
93264192X,BOULEVARD COURT APARTMENTS LP,325 N WELLS ST FL 8TH,CHICAGO,IL,60654,
94274654H,"BOWMAN CONSULTING GROUP, LIMITED",3863 CENTERVIEW DR,CHANTILLY,VA,20151,
93688668Z,BOWMAN SYSTEMS LLC,333 TEXAS ST STE 300  EPAY,SHREVEPORT,LA,71101,
93366200A,"BOWMAN,BARRETT & ASSOCIATES",130 E RANDOLPH STREET EFT,CHICAGO,IL,60601,
7417368L,BOYS & GIRLS CLUBS OF CHICAGO,820 N ORLEANS ST STE 235,CHICAGO,IL,60610,
93385861L,"BPC AIRPORT PARTNERS,",C/O BOWMAN BARRETT & ASSOCIATE,CHICAGO,IL,60601,130 E RANDOLPH STREET SUITE- 2650 EFT
82686529A,BRACKEN BOX INC,2300 W 167TH ST,MARKHAM,IL,60428,
55969032,BRAD J BALKE P C,"CURTIS POWELL, BLUE CROSS BLUE CROSS BLUE SHIELD OF ILLINOIS",CHICAGO,IL,60605,542 SOUTH DEARBORN STREET SUITE 310
22772463Z,BRADFORD SYSTEMS CORPORATION,8145 RIVER DR,MORTON GROVE,IL,60053,
94675213L,"BRAINFUSE, INC.",271 MADISON AVE,NEW YORK,NY,10016,
57681470V,BRANCH FAMILY INSTITUTE,3139 W 111TH ST FL 1ST,CHICAGO,IL,60655,
31321206Z,BRAND NEW BEGINNINGS,103-115 E 58TH ST,CHICAGO,IL,60637,
93523771A,BRANDENBURG INDUSTRIAL CO,501 W LAKE STREET EFT,ELMHURST,IL,60126,
93523763L,BRANDENBURG INDUSTRIAL SRVCS CO.,501 W LAKE STREET EFT,ELMHURST,IL,60126-1419,
25943579V,"BRANIFF COMMUNICATIONS, INC.",4741 W 136TH ST,CRESTWOOD,IL,60445,
93508646T,BRATTLE GROUP,44 BRATTLE ST,CAMBRIDGE,MA,,
36765232A,BREAKER PRESS CO. INC,2421 S WESTERN AVE # 1,CHICAGO,IL,60608-4704,
29198643Z,"BREAKING GROUND, INC.",3501 W FILLMORE ST,CHICAGO,IL,60624,
94722896V,"BREAKTHROUGH URBAN MINISTRIES, INC.",402 N ST LOUIS AVENUE EFT,CHICAGO,IL,60624,
1041210,BREAST CANCER NETWORK OF STRENGTH,135 S LASALLE STREET  STE 2000,CHICAGO,IL,60603,
94781123E,BRECHEISEN ENGINEERING,516 W BRIAR PL,CHICAGO,IL,60657,
31342511E,BREEZE-EASTERN,GENERAL PO BOX 27090,NEW YORK,NY,10087-7090,
15256229L,"BRENNAN'S PEB. & ASSOCIATES., INC.",3501 N KENTON AVE,CHICAGO,IL,60641,
35727682P,BRIAN ALLENDORFER,448 ETON DR,NORTH BARRINGTON,IL,60010,
78142126A,BRIAN CURLEY,6321 N NORDIVA,CHICAGO,IL,60631,
93602615T,BRIAN D'ANDREA,1702 BRIDLE CT,BOURBONNAIS,IL,60914,
69406478P,BRIAN HEFFERNAN,1501 W PERSHING RD,CHICAGO,IL,60609,
93761113M,BRIAN J BEDTKE,5232 S NAGLE AVE,CHICAGO,IL,60638,
95236330H,BRICKLAYERS LOCAL 21,660 N INDUSTRIAL,ELMHURST,IL,60126,
58391992M,"BRICKMAN GROUP, LIMITED",PO BOX 71358,CHICAGO,IL,60618,
1007900,BRIDGET ARIMOND,1925 W WAVELAND,CHICAGO,IL,60613,
85243402L,BRIDGEVIEW BANK GROUP,C/O  MONICA HASENBANK,BRIDGEVIEW,IL,60455-1598,7940 S HARLEM AVE
93866067E,BRIDGING THE GAP COMMUNAL LIVING,6334 S NORMAL EFT,CHICAGO,IL,60621,
94231474Z,BRIGHT STAR COMMUNITY OUTREACH,4518 S COTTAGE GROVE AVE,CHICAGO,IL,60653,
92237450E,BRIGHTON PARK NEIGHBORHOOD COUNCIL,4477 S ARCHER AVENUE EFT,CHICAGO,IL,60632,
14813542A,BRINKS HOFER GILSON & LIONE,455 N CITYFRONT PLAZA DR FRNT PLAZA DRIVE,CHICAGO,IL,60611,
56779022,BRISKMAN BRISKMAN & GREENBERG,& GERALD J LOBOYKO,CHICAGO,IL,60654,351 W. HUBBARD SUITE 810
55282022,BRITISH SCHOOL OF CHICAGO,814 WEST EASTMAN STREET,CHICAGO,IL,60642,
93734476Z,BROADER.URBAN.INVESTMENT.L.D. INC,5100 W HARRISON ST,CHICAGO,IL,60644,
93765286L,"BROADWAY 55, LLC",ATTN. ROBERT ROTHSTEIN,CHICAGO,IL,60601,36 W RANDOLPH ST # 800
90404228Z,BROADWAY ELECTRIC INC,831 OAKTON STREET EFT,ELK GROVE VILLAGE,IL,60007,
23186072H,"BRONNER GROUP, LLC.",120 N LA SALLE ST STE 1300,CHICAGO,IL,60602,
22490663H,BRONZE MEMORIAL CO INC,1842 N ELSTON AVE # 1ST,CHICAGO,IL,60622,
93284888V,BRONZEVILLE ASSOCIATES LP,400 E 41ST ST,CHICAGO,IL,60653,
93965548E,BRONZEVILLE ASSOCIATES SENIOR APARTMENTS LIMITED,400 E 41ST ST,CHICAGO,IL,60653,
3629295A,BROOKS ELECTRICAL SUPPLY CO,2500 W NORTH AVE,CHICAGO,IL,60647,
93884409Z,BROOKWOOD FARMS LLC,7850 W US 12 EFT,THREE OAKS,MI,49128,
95236325E,BROTHERHOOD OF CARPENTERS,12 E ERIE ST,CHICAGO,IL,60611,
1059189,"BROTHERS & THOMPSON, P.C.","10 N. DEARBORN ST., 6TH FL.",CHICAGO,IL,60602,
28369889M,BROWN INC. MICHIGAN CITY (EFT),720 W U SOUTH HWY  20,MICHIGAN CITY,IN,46360,
56471029,"BRUBAKER & ASSOCIATES, INC.",16690 SWINGLEY RIDGE ROAD,CHESTERFIELD,MO,63017,SUITE  #140
54047026,BRUCE TEICHMAN,4425 SOUTH WALLACE,CHICAGO,IL,60609,
94322676V,BRUEL & KJAER EMS INC,1050 FULTON AVE  213 EFT,SACRAMENTO,CA,95825,
31334316V,"BRW, INC",100 S WACKER DRIVE EFT,CHICAGO,IL,60008,STE 1000
93703752X,BRYAN J BOUYER,3249 W 83 TH PL,CHICAGO,IL,60652,
79306159Z,BRYAN SHAW,1501 W PERSHING RD,CHICAGO,IL,60609,
94095239P,BRYANT INTERIOR DESIGNER FURNITURE,2059 E 75TH ST,CHICAGO,IL,60649,
53995021,BUCHANAN LAW OFFICES LLC,& LOEVY & LOEVY & JOSE LOUIS DURAN & EVELYN TORRES,CHICAGO,IL,60603,55 W. MONROE ST. STE. 600
94560613L,BUILDERS CHICAGO CORP,5129 PEARL STREET EFT,SCHILLER PARK,IL,60176,
52119031,BULBS.COM INC,243 STAFFORD STREET,WORCESTER,MA,01603,
94039896Z,BULLARD,PO BOX 710962,COLUMBUS,OH,43271,
85242489M,BULLEY & ANDREWS LLC,1458 W 38TH PL,CHICAGO,IL,60622,
31337192T,BUREAU OF NATIONAL AFFAIRS INC,1231 25TH ST. N.W. (EFT),WASHINGTON,DC,21264-4543,
31318684T,"BURKE BURNS & PINELLI, LIMITED",70 W MADISON ST STE 4300,CHICAGO,IL,60602,
55070022,BURKE WISE MORRISSEY & KAVENY LLC,& ERLITA SUERO,CHICAGO,IL,60601,161 N CLARK ST SUITE 2240
93824119H,"BURKE, WARREN, MACKAY & SERRITELLA PC",330 N WABASH EFT,CHICAGO,IL,60611-3607,
22637035X,"BURNS & MCDONNELL ENGINEERING CO., INC",9400 WARD PARKWAY EFT,KANSAS CITY,MO,64141,
23338208P,"BUS & TRUCK OF CHICAGO, INC",3330 S PULASKI RD,CHICAGO,IL,60623,
31287678P,"BUSINESS & LEGAL REPORTS, INC.",141 MILL ROCK RD EAST,OLD SAYBROOK,CT,,
57953668P,BUSINESS.PARTNERS-CHAMBERFORUPTOWN FOR UPTOWN,4753 N BROADWAY STE 822,CHICAGO,IL,60640,
74700219P,BUSY BEAVER BUTTON COMPANY,3279 W ARMITAGE AVE FL 1ST,CHICAGO,IL,60647,
44068751L,BUTLER COMPANY,5307 W 123RD PL,ALSIP,IL,60803-3276,
93866038A,BUTLER SCHEIN,PO BOX 223739,PITTSBURGH,PA,15251,
94680852M,BY THE HAND CLUB FOR KIDS,1000 N SEDGWICK ST,CHICAGO,IL,60610,
94265537L,"BYRNES & WALSH, LLC.",841 STRATFORD AVE,ELMHURST,IL,60126,
94260811A,"BYRNES, HOULIHAN & WALSH, LLC",210 W 22ND ST,OAK BROOK,IL,60523,
31317779T,C & C COMMUNICATIONS,9910 W 190TH STREET EFT,MOKENA,IL,60803,
48156927E,C & S ENGINEERS INC,499 COL EILEEN COLLINS BLVD,SYRACUSE,NY,13212,
94140238Z,C C C SUAVES JV,11921 SMITH ROAD EFT,HUNTLEY,IL,60142,
74775249V,C I O,PO BOX 489,NORTHBROOK,IL,60065,
31350038V,C S X TRANSPORTATION,500 WATER ST  J180,JACKSONVILLE,FL,32202,
94083208T,C.A.A.A.E.L.I.I.,4300 N HERMITAGE AVE,CHICAGO,IL,60613-1106,
94622991X,C.A.S.E. CHICAGOLAND INC,487 BROADVIEW AVE,HIGHLAND PARK,IL,60035,
93777343Z,C3 CONSTRUCTION SERVICES INC,5824 W 83RD ST,BURBANK,IL,60459,
93275021A,CA WHITAKER & COMPANY LLC,150 N MICHIGAN AVENUE EFT,CHICAGO,IL,60601,
93225541H,CABET GROUP INC,28 E JACKSON EFT,CHICAGO,IL,60604,
30363780L,CABO CONSTRUCTION CORP.,3155 S SHIELDS AVE,CHICAGO,IL,60609,
93925098X,CABRINI CONNECTION,800 W HURON STREET EFT,CHICAGO,IL,60642,
93783754X,CABRINI GREEN LEGAL AID CLINIC,740 N MILWAUKEE AVE,CHICAGO,IL,60642,
31336896V,CAEAR COALITION,PO BOX 21361,WASHINGTON,DC,20009-1361,
77194860T,"CAFFARELLI & SIEGEL, LIMITED",180 N STETSON AVE STE 3150,CHICAGO,IL,60601,
27045155T,CAFFE GELATO INC.,2034 W DIVISION ST,CHICAGO,IL,60622,
56760419,CAFFERTY CLOBES MERIWETHER & SPRENGEL LLP,30 N LASALLE STREET SUITE 3200,CHICAGO,IL,60602,
55673026,CALEXICO TOURING INC C/O PSBM,235 PARK AVENUE,NEW  YORK,NY,10003,SOUTH  9TH  FLOOR
56760373,CALIBRE,6354 WALKER LANE,ALEXANDRIA,VA,22310,SUITE  #300
25944622E,"CALLAGHAN PAVING, INC",7000 FRONTAGE RD,,IL,60521,
95062372A,CALSTART INC,48 S CHESTER AVE,PASADENA,CA,91106,
31304958E,CALUMET AREA INDUSTRIAL COMMIS,1000 E 111TH ST,CHICAGO,IL,60628,
94554494E,CALUMET LIFT TRUCK SERVICE CO.,35 E 168TH ST,SOUTH HOLLAND,IL,60473,
53865602H,CALVIN JONES,PO BOX 1063,SENATOBIA,MS,38668,
6319911L,CAMBODIAN ASSOCIATION OF ILLINOIS,2831 W LAWRENCE AVE,CHICAGO,IL,60625,
33663018V,CAMBRIDGE INTEGRATED SERVICES GP,PO BOX 71032,CHICAGO,IL,60694-1032,
93558577Z,"CAMBRIDGE SYSTEMATICS, INC.",100 CAMBRIDGE PARK DRIVE EFT,CAMBRIDGE,MA,,
31307636H,"CAMIROS, LIMITED",411 S WELLS ST # 400,CHICAGO,IL,60607,
25944016T,CANADIAN PACIFIC RAILWAY SYSTEM,PO BOX 71978,CHICAGO,IL,60694-1978,
93502134P,"CANNON COCHRAN MANAGEMENT SERVICES, INC.",PO BOX 1482,INDIANAPOLIS,IN,46206-1482,
21972801V,CANON FINANCIAL SERVICES INC,PO BOX 4004,CAROL STREAM,IL,60197-4004,
94233163H,CANON SOLUTIONS AMERICA INC,DEPT. 77 6024 STE 1700,CHICAGO,IL,60678-6024,
31323928E,"CANTICLE MINISTRIES, INC",PO BOX 667  EFT,WHEATON,IL,60189-0667,
31318780A,CAPFS/LEPS JOINT VENTURE,205 W RANDOLPH ST STE 830,CHICAGO,IL,60606,
56549031,CAPITAL DEVELOPMENT BOARD,401 SOUTH SPRING,SPRINGFIELD,IL,62706,3RD FLOOR
31350335V,CAPITAL ONE,PO BOX 60000,SEATTLE,WA,98190-6000,
15244443L,CAPITOL CEMENT CO INC 01,6231-6233 N PULASKI RD,CHICAGO,IL,60646,
40459334M,CAR WASH PARTNERS INC.,461 N ELIZABETH ST,CHICAGO,IL,60622,
90287879P,CARA PROGRAM,237 S DESPLAINES EFT,CHICAGO,IL,60661,
92730546H,CARBON ON 26TH LLC,300 W 26TH ST,CHICAGO,IL,60616,
74834067L,CARDELL HICKS,10012 S LOWE AVE,CHICAGO,IL,60628,
92285299V,CARDINAL HEALTH,C/O BANK OF AMERICA LOCK BOX,CHICAGO,IL,60693-0037,
95115230M,CARDIO PARTNER RESOURCES,259 LAMP LANTERN VLG,TOWN & COUNTRY,MI,63017,
93508584M,CARE PLUS LLC,500 W 18TH STREET EFT ST,CHICAGO,IL,60616,
33657888H,CAREER ADVANCEMENT NETWORK INC,23 W 029 RED OAK DR,GLEN ELLYN,IL,60137,
93683847M,CAREMARK INC,2211 SANDERS ROAD NBT 4 -L LENZI,NORTHBROOK,IL,60062,
93477362T,CARES CHICAGO,700 N SACRAMENTO BOULEVARD EFT,CHICAGO,IL,60612,
31350384A,CARF A R F,4891 E GRANT RD,TUCSON,AZ,85712,
14557434A,CARITAS,1234 S MICHIGAN AVE,CHICAGO,IL,60605,
93665566T,CARL WARREN & COMPANY,PO BOX 25161  EFT,SANTA ANA,CA,92799,
94282513M,CARLIN TRANSCRIPTION SERVICES,3656 W FULLERTON EFT,CHICAGO,IL,60647,
93487898L,CARMELLA SORICE,5623 S PARKSIDE AVE,CHICAGO,IL,60638,
93256316H,CARNICERIAS JIMENEZ INC,37 S YORK RD,BENSENVILLE,IL,60106,
93805440A,"CARNOW CONIBEAR & ASSOC., LIMITED",600 W VAN BUREN ST,CHICAGO,IL,60607,
93428784E,CAROL CHAVEZ,1660 N LA SALLE DR  3509 EFT,CHICAGO,IL,60614,
95156410P,CAROL J. KENNY,PO BOX 558610,CHICAGO,IL,60655,
90553743E,CAROL JORDAN,3041 W POLK ST,CHICAGO,IL,60612,
94159117M,CAROLE ROBERTSON CENTER FOR LRNG,2020 W ROOSEVELT RD,CHICAGO,IL,60608,
95236259A,CARPENTERS UNION NO. 13,300 S ASHLAND AVE RM 102,CHICAGO,IL,60607,
33674522Z,CARRIER CORPORATION,655 W GRAND AVE STE 300,ELMHURST,IL,43277,
88760637H,CARTER WARE GROUP,2455 E 75TH STREET EFT ST,CHICAGO,IL,60649,
93441483A,CARTER'S EXCAVATING & GRADING,235 E 157TH ST,HARVEY,IL,60426,
94018164L,CARUS CORP.,15111 COLLECTION CENTER DRIVE EFT,CHICAGO,IL,60693,
53123021,CARY J WINTROUB & ASSOCIATES,& EDWARD STOPEK & SHELLEY STOPEK,CHICAGO,IL,60603,10 S. LASALLE ST. STE. 2424
25944716A,CASA AZTLAN COMMUNITY CENTER,1831 S RACINE AVE,CHICAGO,IL,60608,
22617539H,CASA CENTRAL SOCIAL SERVICES CORPORATION,1343 N CALIFORNIA AVENUE EFT,CHICAGO,IL,60622,
31283467M,CASEY EQUIPMENT CO INC,1603 E ALGONQUIN,ARLINGTON HEIGHTS,IL,60005,
68805000P,CASPIO INC,485 N WHISMAN RD STE 200,MOUNTAIN VIEW,CA,94043,
50083421,CASSANDRA B WATSON,7940 S WOLCOTT,CHICAGO,IL,60620,
93243671Z,CASSANDRA MCMICHAEL,122 S WALLER AVE,CHICAGO,IL,60644,
94370928A,CASSANDRA SPROUSE,8538 S MAY ST,CHICAGO,IL,60620,
5041151L,CASTLE CONSTRUCTION CORPORATION.,3062 W 167TH STREET EFT,MARKHAM,IL,60426-5618,
31322149X,CASTLE GRAPHICS,66 S PARK BLVD,GLEN ELLYN,IL,60137-6204,
93897092E,CATALOG CHOICE,1845 BERKELEY WAY,BERKELEY,CA,94703,
87094261T,CATALYST CONSULTING GROUP,211 W WACKER DR STE 450,CHICAGO,IL,60606,
94643352Z,CATALYST EXHIBITS,C/O MERIDETH PATRIDGE,CHANNAHON,IL,60410,PO BOX 674
56162021,CATALYST SCHOOLS,6727 SOUTH CALIFORNIA,CHICAGO,IL,60629,
9378353M,CATHEDRAL SHELTER OF CHICAGO,ATT. MARK BALLARD,CHICAGO,IL,60612-3249,1668 W OGDEN AVE
85241441L,CATHL BISH OF CHICAGO ST SABINA,1701 W 87TH ST,CHICAGO,IL,60620,
85240219E,CATHOLIC ARCHDIOCESE CHICAGO,721 N LA SALLE DR,CHICAGO,IL,60610,
93428388E,CATHOLIC BISHOP OF CHIC 01,ST. PIUS V PARISH/HOPE,CHICAGO,IL,60608,1919 S ASHLAND AVE
5952108E,CATHOLIC BISHOP OF CHICAGO,FOOD SERVICE PROFESSIONALS,CHICAGO,IL,60630-4696,5150 N NORTHWEST HWY
93352714L,CATHOLIC BISHOP OF CHICAGO 01,4541 S WOOD ST,CHICAGO,IL,60609,4541 S WOOD ST
31344229M,CATHOLIC BISHOP OF CHICAGO ST. SABINA PARISH,ST. SABINA PARISH,CHICAGO,IL,60620,1210 W ST SABINA 78TH PL
9512553H,"CATHOLIC BISHOP OF CHICAGO, A CORP SOLE",835 N RUSH ST,CHICAGO,IL,60611,835 N RUSH ST
56374025,CATHOLIC CHARITIES HOUSING DEVELOPMENT CORPORATION,721 NORTH LA SALLE STREET,CHICAGO,IL,60628,
85240411Z,CATHOLIC CHARITIES OF CHICAGO,721 N LASALLE STREET EFT,CHICAGO,IL,60610,
85903404T,CATHOLIC CHARITIES OF CHICAGO,ARCHDIOCESE OF CHICAGO,CHICAGO,IL,60610,721 N LA SALLE DR FL 4TH  EFT
94722892Z,CATHOLIC YOUTH MINISTRY CENTER AT MORGAN PARK HIGH SCHOOL,MORGAN PARK HIGH SCHOOL,CHICAGO,IL,60643,1825 W MONTEREY AVE
94112206X,CAVANAUGH & ASSOCIATES,300 S ASHLAND AVE,CHICAGO,IL,60607,
85245509E,CBS OUTDOOR,211 E ONTARIO ST STE 900,CHICAGO,IL,60611,
86479440Z,CBS RADIO- WUSN FM,22521 NETWORK PLACE LK BX  22521,CHICAGO,IL,60673-1225,
87200966A,CCH INC,4025 W PETERSON AVENUE EFT,CHICAGO,IL,60646,
93215933E,CCH INC 01,PO BOX 4307,CAROL STREAM,IL,60197-4307,
39236127L,"CCJM ENGINEERS, LIMITED",550 W WASHINGTON BLVD # 950,CHICAGO,IL,60661,
94113217H,"CD-EB/EP RETAIL JV, LLC.",221 W ILLINOIS ST,WHEATON,IL,60187,
87488763T,CDI MARINE COMPANY,PO BOX 532432,CHARLOTTE,NC,28290,
93874164V,CDM SMITH,125 S WACKER DRIVE EFT,CHICAGO,IL,60606,
93786688A,CDM SMITH INC.,125 S WACKER DR STE 600,CHICAGO,IL,60606,
95137059T,"CDW GOVERNMENT, LLC.",75 REMITTANCE DR,CHICAGO,IL,60675-1515,
93446225Z,CED TECHNOLOGIES ILLINOIS INC,88 TRAP FALLS RD,SHELTON,CT,,
93146671E,CELEBRATION LIMOUSINES,832 S POPLAR,ELMHURST,IL,60126,
94578951Z,CELLMARK FORENSICS INC,4390 US ROUTE ONE,PRINCETON,NJ,,
48340965P,CEMENT MASONS LOCAL #502,739 S 25TH AVE,BELLWOOD,IL,60104,
95038407P,CENGAGE LEARNING INC,PO BOX 95501,CHICAGO,IL,60694,
94761770X,"CENGAGE LEARNING, INC.",27500 DRAKE RD,FARMINGTON HILLS,MI,48331,
1047758,CENTER FOR CHANGING LIVES,3051 WEST ARMITAGE    (EFT),CHICAGO,IL,60647,
93350728A,CENTER FOR DISABILITY & ELDER LAW INC,448 E ONTARIO ST FL 6TH,CHICAGO,IL,60611,
94729727V,CENTER FOR ECONOMIC PROGRESS,567 W LAKE ST,CHICAGO,IL,60661,
94136735V,CENTER FOR HOUSING & HEALTH,200 W JACKSON BLVD,CHICAGO,IL,60606,
33667866X,CENTER FOR LABOR & COMMUNITY. RESEARCH,3411 W DIVERSEY AVE # 10,CHICAGO,IL,60647,
3631773M,CENTER FOR NEIGHBORHOOD TECHNOLOGY,2125 W NORTH AVE,CHICAGO,IL,60647,2125 W NORTH AVE
68242396E,CENTER JOINT VENTURE,125 S WACKER DRIVE EFT,CHICAGO,IL,60611,
93339490A,CENTER OF HIGHER DEVELOPMENT,3515 S COTTAGE GROVE AVE,CHICAGO,IL,60616,
62852273V,CENTER ON HALSTED,"3656 N HALSTED ST FL 2, 3",CHICAGO,IL,60613,
93429018Z,CENTER ON HALSTED 01,3656 N HALSTED STREET EFT,CHICAGO,IL,60613,
14541018A,CENTERPOINT PROPERTIES TRUST,1808 SWIFT DR,OAK BROOK,IL,,
15427701H,CENTERS FOR NEW HORIZONS 01,4150 S KING DRIVE EFT,CHICAGO,IL,60653,
3743695T,CENTRAL AUTO BODY SHOP,3548 W NORTH AVE,CHICAGO,IL,60647,
31283471L,CENTRAL BLACKTOP CO INC,6301 S EAST AVE,LA GRANGE,IL,60525-8180,
94688773M,"CENTRAL CLEARING DRUGS, INC.",5600 W 63RD ST,CHICAGO,IL,60638,
25944834A,CENTRAL LAKE VIEW MERCHANTS ASSOCIATION INC,ASSOCIATION INC,CHICAGO,IL,60657,867 W BUCKINGHAM PL
25944839A,"CENTRAL LAWN SPRINKLERS, INC.",239 KING ST,ELK GROVE VILLAGE,IL,60007,
14896548E,CENTRAL PARKING CORPORATION,2234 N CANNON DR,CHICAGO,IL,60614,
95146946X,"CENTRAL STATES SER, JOBS FOR PROGRESS, INC.",3948 W 26TH ST,CHICAGO,IL,60623,
95235739V,CENTRO MEDIA INC,222 W HUBBARD ST,CHICAGO,IL,60654,
31314366X,CENTRO ROMERO,6216 N CLARK ST,CHICAGO,IL,60660-1208,FL 1ST
93824127Z,CENTRO SIN FRONTERAS COMMUNITY SERVICES NETWORK,2716 W DIVISION EFT,CHICAGO,IL,60622,
55393044,CERDA LAW OFFICE,& DAVID MENDEZ,CHICAGO,IL,60622,1624 W DIVISION ST SUITE 209
44234394V,CERNER CORPORATION,2800 ROCKCREEK PARKWAY EFT,KANSAS CITY,MO,64117,
25944264E,CERTIFIED PAINTING CO. INC.,11601 S KEELER AVE,ALSIP,IL,60803-1614,
50080022,CESAR IZQUIERDO,6464 N. CLARK,CHICAGO,IL,60639,
53433030,CESARIO & WALKER,& KYLE JACKSON,HINSDALE,IL,60521,211 W CHICAGO AVE STE. 118
11189327E,"C'EST SI BON, LIMITED",5225 S HARPER AVE FL 2ND,CHICAGO,IL,60615,
22576094X,"CH2M HILL, INC.",125 S WACKER DRIVE EFT,CHICAGO,IL,60606,
51349040,CHAKA KHAN ENTERPRISES,C/O CAA,BEVERLY HILLS,CA,90212,9100 WILSHIRE BLVD
3784928M,CHAMPION CYCLE CENTER INC.,3625 N WESTERN AVE,CHICAGO,IL,60618,
94920406A,CHANGELAB SOLUTIONS,2201 BROADWAY,OAKLAND,CA,94612,
91371340Z,CHANGING WORLDS,329 W 18TH STREET EFT ST,CHICAGO,IL,60616,
31286594T,CHANNING L. BETE CO. INC,PO BOX 84-5897,BOSTON,MA,,
93150959V,CHAPEL HILL GARDENS WEST CEMET,17 W 201 ROOSEVELT RD,OAKBROOK TERRACE,IL,60181,
93971428P,CHAPIN HALL CENTER FOR CHILDREN,6054 S DREXEL AVE,CHICAGO,IL,60637,
3620780A,CHAPMAN & CUTLER LLP,111 W MONROE ST STE 1700,CHICAGO,IL,60603,
31320959L,CHARITY & ASSOCIATES PC,20 N CLARK ST STE 1150,CHICAGO,IL,60602,STE 700
51684038,CHARITY OKORO,2133 W LEXINGTON,CHICAGO,IL,60612,
51243481X,CHARLES A. BECKETT ASSOC LP,400 E 41ST ST,CHICAGO,IL,60653,
31324765T,CHARLES A. HAYES FAMILY INVESTMENT CENTER,INVESTMENT CENTER,CHICAGO,IL,60615,4455 S KING DRIVE EFT
94569912T,CHARLES EQUIPMENT CO,530 SANTA ROSA DRIVE EFT,DES PLAINES,IL,60018,
31299688A,CHARLES FITZGERALD. FITZGERALD,10459 S KEDZIE AVE,CHICAGO,IL,60655,
56561070,CHARLES GLICK,70 WEST MADISON STREET,CHICAGO,IL,60602,
92015058E,CHARLES LEONE,1501 W PERSHING RD,CHICAGO,IL,60609,
56412028,CHARLES LLOYD C/O MAURICE MONTOYA MUSIC AGENCY,1133 BROADWAY TERRACE,New York,NY,10010,#1608
56171022,CHARLES M SHEPHERD,& LEROY MCCAMBRY,CHICAGO,IL,60605,410 S MICHIGAN SUITE 539
31283481M,CHARLES R TERR JR,14 OLD CREEK RD,PALOS PARK,IL,60464,
47492081H,CHARLES WAGNER,6840 S CREGIER AVE,CHICAGO,IL,60649,
1002908,CHARLES WILLIAMS,2957 W JARVIS,CHICAGO,IL,60645,
19269919Z,CHARTER ONE BANK FSB,ATTN: ADMIN. SERV. DEPT,CHICAGO,IL,60607-3895,6700 W NORTH AVE
93936028M,CHASE BANK,PO BOX 15153,WILMINGTON,DE,19886-5153,
95153388L,CHASTAIN & ASSOCIATES LLC,8609 W BRYN MAWR EFT,CHICAGO,IL,60631,
94639451L,CHATHAM BUSINESS ASSOCIATIO 01,800 E 78TH STREET EFT ST,CHICAGO,IL,60619,
44068944H,"CHATHAM CLUB, LLC",500 W MADISON-STE  3700,CHICAGO,IL,60661,
54192033,CHEPOV & SCOTT LLC,& YAROSLAV SHADEY,CHICAGO,IL,60656,5440 N CUMBERLAND AVE # 150
80647250X,CHERYL STEWART,1501 W PERSHING RD,CHICAGO,IL,60609,
14356174P,CHICAGO .HOUSING.AUTHORITY * ENERGY DEPARTMENT,60 E VAN BUREN ST,CHICAGO,IL,60605,101-0142
95251549M,CHICAGO 103RD STREET LLC,C/O IRG REALTY ADVISORS LLC,LARCHMONT,NY,10538,ONE WEST AVENUE
31308013L,CHICAGO ABUSED WOMEN 1223041,PO BOX 477916,CHICAGO,IL,60649,
6623712V,"CHICAGO ACADEMY OF SCIENCES, INC",2001 N CLARK ST,CHICAGO,IL,60614,
10182989M,CHICAGO ACCESS CORPORATION,322 S GREEN ST STE 100,CHICAGO,IL,60607-3502,
39761404V,CHICAGO AIRPORTS RESOURCES ENTERPRISE,401 N MICHIGAN AVE STE 2900,CHICAGO,IL,60611,401 N MICHIGAN AVE STE 2900
94397616A,CHICAGO ALLIANCE TO END HOMELESS,651 W WASHINGTON BLVD,CHICAGO,IL,60661,
94218840Z,CHICAGO ALLIES FOR YOUTH SUCCE,1401 S SACRAMENTO DR FL 2ND,CHICAGO,IL,60623,
3926466V,CHICAGO ANTI-HUNGER FEDERATION,4345 W DIVISION STREET EFT,CHICAGO,IL,60651,
31336031P,CHICAGO ARTISTS COALITION,11 E HUBBARD ST # 7TH,CHICAGO,IL,60611,
85605126P,CHICAGO AVIATION RUNWAY DESIGN,33 W MONROE ST # 1825,CHICAGO,IL,60603,
22604345T,CHICAGO BAKING COMPANY,500 N FULTON AVE,EVANSVILLE,IN,60694-1890,
81525487M,CHICAGO BAR ASSOCIATION CONDOMINIUM ASSOCIATION,321 S PLYMOUTH CT # 3B,CHICAGO,IL,60604,
94563126L,"CHICAGO BEARS FOOTBALL CLUB, INC.",C/O JAKE JONES,LAKE FOREST,IL,60045,1920 FOOTBALL DR
50479600M,CHICAGO BOARD OF EDUCATION,125 S CLARK ST FL 6TH,CHICAGO,IL,60603,
93366174L,CHICAGO BOTANIC GARDEN 01,1000 LAKE COOK ROAD EFT,GLENCOE,IL,60022,
51351048,CHICAGO CHARTER SCHOOL FOUNDATION,ELLISON CAMPUS,CHICAGO,IL,60604,228 S WABASH SUITE 500
83859242L,CHICAGO CHILD CARE SOCIETY,5467 S UNIVERSITY AVENUE EFT,CHICAGO,IL,60615,
92237475L,CHICAGO CHILDREN ADVOCACY CENTER,1240 S DAMEN AVE,CHICAGO,IL,60608,
94668073T,CHICAGO CHILDREN THEATRE,1464 N MILWAUKEE AVE FL 2ND,CHICAGO,IL,60642-2025,
3653750L,CHICAGO CHILDREN'S ADVOCACY CENTER,1240 S DAMEN AVE,CHICAGO,IL,60608,
15812769E,CHICAGO CHILDRENS MUSEUM,9223 S CLYDE AVE,CHICAGO,IL,60617,
95062415H,CHICAGO CHINATOWN CHAMBER OF COMMERCE,2169 S CHINA PLACE EFT  B,CHICAGO,IL,60616,
93283142T,CHICAGO CHRISTIAN INDUSTRIAL LEAGUE 01,2750 W ROOSEVELT ROAD EFT,CHICAGO,IL,60608,
60303394P,CHICAGO CHRISTIAN INDUSTRIAL LEAGUE PROP,2750 W ROOSEVELT RD FL 3RD,CHICAGO,IL,60607,
16073634L,CHICAGO CHRISTIAN INDUSTRIAL. LEAGUE,2750 W ROOSEVELT ROAD EFT,CHICAGO,IL,60608,
94039901H,CHICAGO CITY-WIDE COLLEGE,226 W JACKSON BLVD,CHICAGO,IL,60606,
94599884E,"CHICAGO COLLECTIONS CONSORTIUM, INC. NFP",2350 N KENMORE AVE,CHICAGO,IL,60614,
69884059P,CHICAGO COMMERCIAL CONTRACTORS,11921 SMITH DR,HUNTLEY,IL,60142,
74183175M,CHICAGO COMMONS ASSOCIATION,700 N SACRAMENTO BLVD  141/151,CHICAGO,IL,60612,
31351624E,"CHICAGO COMMUNICATIONS, LLC",200 SPANGLER AVENUE EFT,ELMHURST,IL,60126,
86968121P,CHICAGO COMMUNITY CHORUS,2605 S INDIANA AVE # 901,CHICAGO,IL,60616,
38665031V,CHICAGO COMMUNITY DEV CORP,343 S DEARBORN ST # 1110,CHICAGO,IL,60604,
93276847E,CHICAGO COMMUNITY FOUNDATI,111 E WACKER DRIVE EFT,CHICAGO,IL,60601,
93249918Z,CHICAGO COMMUNITY FOUNDATION,222 N LA SALLE ST STE 1450,CHICAGO,IL,60601,
93394332L,CHICAGO COMMUNITY LAND TRUST,121 N LA SALLE ST,CHICAGO,IL,60602,
92457293L,CHICAGO COMMUNITY VENTURES,105 W ADAMS ST STE 2300,CHICAGO,IL,60603,
22450547X,CHICAGO CONSULTANTS STUDIO,19 S LA SALLE ST # 803,CHICAGO,IL,60603,
14253061H,"CHICAGO CONVENTION & TOURISM BUREAU, INC.",2301 S LAKE SHORE DR,CHICAGO,IL,60616-1490,
94693060A,CHICAGO CULTURAL ALLIANCE,5211 N CLARK ST,CHICAGO,IL,60640,
85239714X,CHICAGO CULTURAL CENTER FOUNDATION,78 E WASHINGTON ST,CHICAGO,IL,60602,
85240406X,CHICAGO DEFENDER 01,2400 S MICHIGAN AVE,CHICAGO,IL,60616,
31283516Z,CHICAGO DEFENDER 02,4445 S DR MARTIN LUTHER KING JR DR,CHICAGO,IL,60616,
86655802E,CHICAGO DEFENDER CHARITIES INC,700 E OAKWOOD BLVD FL 5TH,CHICAGO,IL,60653,
54538002T,CHICAGO DEPARTMENT OF CULTURAL AFFAIRS,78 E WASHINGTON ST,CHICAGO,IL,60602,
31351686E,CHICAGO DEPARTMENT OF REVENUE,RM 107 CITY HALL,CHICAGO,IL,60602,
36816463E,CHICAGO EVENT GRAPHICS INC,400 N HART ST,CHICAGO,IL,60622,
53903824Z,CHICAGO FAMILY CLEANERS,6252 N CALIFORNIA AVE,CHICAGO,IL,60659,
3625067T,"CHICAGO FAMILY HEALTH CENTER, INC.",9119 S EXCHANGE AVE,CHICAGO,IL,60617,
33672107V,CHICAGO FED. OF LABOR WORKERS ASSI,130 E RANDOLPH ST STE 2600EFT,CHICAGO,IL,60601,
94763807Z,CHICAGO FIBERGLASS WORKS INC,1300 S KOSTNER AVE,CHICAGO,IL,60623,
93733619H,"CHICAGO FINE TAILORING & DESIGN INSTITUTE, LLC.",601 W ROOSEVELT ROAD EFT,CHICAGO,IL,60607,
95235354E,CHICAGO FIRE COMMISSARY INC.,4601 W TOUHY AVENUE EFT,LINCOLNWOOD,IL,60712,
53598021,CHICAGO FIRE DEPARTMENT CHARITIES INC,1140 W JACKSON BLVD,CHICAGO,IL,60607,
87200978P,CHICAGO FIRE FIGHTERS UNION,440 W 43RD STREET EFT ST,CHICAGO,IL,60609,
93534449A,CHICAGO FIRE SOCCER CLUB,7000 S HARLEM AVE,BRIDGEVIEW,IL,60455,
50085749,CHICAGO FIREMANS ASSN CREDIT,2453 S. ARCHER,CHICAGO,IL,60616,SUITES E & F
54467023,CHICAGO FLYHOUSE,2925 W CARROLL,CHICAGO,IL,60612,
22676631Z,CHICAGO FOOTBALL CLASSIC,41 W 84TH ST FL 1ST,CHICAGO,IL,60623,
93872438T,CHICAGO GAY & LESBIAN CHAMBER,3179 N CLARK EFT,CHICAGO,IL,60657,
85245254A,CHICAGO GREEN WORKS LLC,230 N WESTERN AVE,CHICAGO,IL,60612,
94104528A,CHICAGO HEARING SOCIETY/A,DIVISION OF ANIXTER CTR  (EFT),CHICAGO,IL,60626,6610 N CLARK ST
93824103Z,CHICAGO HORTICULTURAL SOCIETY,1000 LAKE COOK ROAD EFT,GLENCOE,IL,60022-0400,
89033463P,CHICAGO HOUSE&SOCIAL SRVC INC,1925 N CLYBOURN EFT,CHICAGO,IL,60614,
23429484Z,CHICAGO HUMAN RHYTHM PROJECTRAFFLE,2936 N SOUTHPORT AVE STE 210,CHICAGO,IL,60657,
95077239P,CHICAGO INFRASTRUCTURE TRUST 2012,222 W MERCHANDISE MART PLZ,CHICAGO,IL,60654,
54288028,CHICAGO INTERNATIONAL CHARTER,8038 S WOOD,CHICAGO,IL,60404,
93811912Z,CHICAGO INTERNATIONAL CHARTER SCHOOL,228 S WABASH AVE,CHICAGO,IL,60604,
95235566A,CHICAGO INTERNATIONAL MOVIES & MUSIC FESTIVAL,1658 N MILWAUKEE AVE,CHICAGO,IL,60647,
87200998V,CHICAGO INTERNATIONAL TRUCKS,4655 S CENTRAL AVENUE EFT,CHICAGO,IL,60638,
94254386Z,CHICAGO IRISH IMMIGRANT AGENCY,3525 S LAKE PARK AVENUE EFT,CHICAGO,IL,60653,
31312618E,CHICAGO JAZZ ORCHESTRA ASSOCIATION,6051 N MOZART ST UNIT 3,CHICAGO,IL,60659,
69057246E,"CHICAGO KLEE DEVELOPMENT, LLC",4006 N MILWAUKEE AVE # 200,CHICAGO,IL,60641,
79438002V,CHICAGO LABOR MANAGEMENT TRUST,180 N WACKER DR STE 600,CHICAGO,IL,60606,
31351778T,CHICAGO LAWYERS COMMITTE,188 W RANDOLPH ST STE 2103,CHICAGO,IL,60602,
57395066L,CHICAGO LAWYERS COMMITTEE FOR CIVIL RIGHTS,CIVIL RIGHTS,CHICAGO,IL,60604,220 S STATE ST
15345637T,CHICAGO LIGHTHOUSE FOR/PEOPLE BLIND OR VISUALLY IMPAIRED,1850 W ROOSEVELT RD,CHICAGO,IL,60608,1850 W ROOSEVELT RD
1070004,CHICAGO LOOP PARKING LLC,LAKE FRONT MILLENNIUM GARAGE,CHICAGO,IL,606036406,350 EAST MONROE ST.
85243507P,CHICAGO LOW-INCOME HOUSING TRUST FUND,33 N LA SALLE ST,CHICAGO,IL,60602,33 N LA SALLE ST
31351790H,CHICAGO MAGAZINE,CONVERSION ADDRESS,CHICAGO,IL,60602,
93927631H,CHICAGO MANUFACTURING CAMPUS,875 N MICHIGAN AVE,OAK BROOK,IL,60523-1501,
56532029,CHICAGO MATH AND SCIENCE ACADEMY,7212 NORTH CLARK STREET,CHICAGO,IL,60626,
51864541V,CHICAGO MESSENGER SERVICE,1600 S ASHLAND AVENUE EFT,CHICAGO,IL,60608,
22424644H,CHICAGO METRO AEYC,30 E ADAMS ST STE 1000,CHICAGO,IL,60603,
93441607M,CHICAGO METRO BATTERED WOMEN'S NETWORK,1 E WACKER DR STE 1630  EFT,CHICAGO,IL,60601,
93237117V,CHICAGO METROPOLITAN BATTERED,WOMENS NETWORK      (EFT),CHICAGO,IL,60601,1 E WACKER DR STE 1630
95258595X,CHICAGO MEZUZAH & MITZVAH CAMP,2939 W TOUHY AVE,CHICAGO,IL,60645,
95162640A,CHICAGO NEIGHBORHOOD INITIATIVES MICRO FINANCE GROUP,1000 E 111TH ST,CHICAGO,IL,60628,
86100114H,"CHICAGO NEIGHBORHOOD INITIATIVES, INC.",1000 E 111TH ST # 10TH,CHICAGO,IL,60628,
93607918L,CHICAGO OFFICE OF TOURISM & CULTURE,78 E WASHINGTON ST FL 4TH,CHICAGO,IL,60602,
1048596,CHICAGO PARENT NEWSMAGAZINE,141 S. OAK PARK AVE,OAK PARK,IL,60302,
87834406A,CHICAGO PARK DISTRICT,541 N FAIRBANKS COURT EFT,CHICAGO,IL,60611,
93798256Z,CHICAGO PARKING METERS LLC,205 N MICHIGAN AVE,CHICAGO,IL,60601,
50089129,CHICAGO PATROLMEN'S FCU,1407 WEST WASHINGTON    (EFT),CHICAGO,IL,60607,
55446024,CHICAGO PATROLMEN'S FEDERAL CREDIT UNION,FOR SIMONE LEWIS,RICHTON  PARK,IL,60471,4216 ANDOVER DRIVE
94129157H,CHICAGO PIPE & BOILER COVER 01,1274 RIDGEWOOD DR,HIGHLAND PARK,IL,60035,
95236335H,CHICAGO POLICE CAPTAINS ASSOC,1616 W PERSHING EFT,CHICAGO,IL,60609,
31351862P,CHICAGO POLICE DEPARTMENT-ACCT #1,3510 S MICHIGAN AVE # 3NE,CHICAGO,IL,60653,
95236314X,CHICAGO POLICE LTS ASSOCIATION,5359 N PITTSBURG AVENUE EFT,CHICAGO,IL,60656,
93323525V,CHICAGO POLICE ORGAN.CRIM DIV.,3510 S MICHIGAN AVE,CHICAGO,IL,60653,
95236309V,CHICAGO POLICE SERGEANTS ASSOC,1616 W PERSHING ROAD EFT,CHICAGO,IL,60609,
31351866L,CHICAGO POLICE TRAINING ACADMY,1300 W JACKSON BLVD,CHICAGO,IL,60607,
93915710T,CHICAGO PUBLIC ART GROUP,600 W CERMAK ROAD EFT,CHICAGO,IL,60616,
52137046,GEE PROPERTY,9449 S KEDZIE,EVERGREEN PARK,IL,60805,
61370472M,CHICAGO PUBLIC LIBRARY FOUNDAT,20 N MICHIGAN AVE STE 204,CHICAGO,IL,60602,
93802068V,CHICAGO PUBLIC SCHOOLS,125 S CLARK EFT,CHICAGO,IL,60603,
33658891A,CHICAGO RAIL LINK RAILROAD,252 CLAYTON ST FL 4TH,DENVER,CO,80206,
31318732Z,CHICAGO RECOVERY ALLIANCE,400 E OHIO ST STE 3103  EFT,CHICAGO,IL,60611,APT 3103
73166927T,"CHICAGO RESTAURANT PARTNERS, LLC.",2301 S LAKE SHORE DR,CHICAGO,IL,60616,
95122382M,CHICAGO RIVER MONTICELLO LLC,5844 N BERNARD ST,CHICAGO,IL,60659,
94556457P,CHICAGO RUNNING & SPECIAL EVENTS MANAGEMENT INC,2221 W 43RD ST,CHICAGO,IL,60609,
84581857L,"CHICAGO SCAFFOLDING, INC.",4824 W LAKE ST FL 1ST,CHICAGO,IL,60644,
30431100T,CHICAGO SIGNATURE SRVC @ NAVYP,600 E GRAND AVE,CHICAGO,IL,60611,
23324951M,CHICAGO SISTER CITIES INTERNATIONAL PROG,78 E WASHINGTON ST FL 4TH,CHICAGO,IL,60602,
38243256L,CHICAGO SPORTSERVICE,1410 S MUSEUM CAMPUS DR,CHICAGO,IL,60605,
14598458Z,CHICAGO STATE UNIVERSITY LEARNING CENTER,9501 S KING DRIVE EFT,CHICAGO,IL,60628-1598,
41420164A,CHICAGO SUN-TIMES,350 N ORLEANS ST,CHICAGO,IL,60654,
93786666M,CHICAGO TITLE & DEED,2818 W HENDERSON ST,CHICAGO,IL,60618,
31283554Z,CHICAGO TITLE & TRUST CO,PO BOX 97767,CHICAGO,IL,60678-7767,
22389045X,"CHICAGO TITLE INSURANCE, CO.",171 N. CLARK/B. O'LENA,CHICAGO,IL,60601,
93159145E,CHICAGO TRAINING CENTER,PO BOX 7076  EFT,CHICAGO,IL,60680,
85248875Z,CHICAGO TRANSIT AUTHORITY 01,MERCHANDISE MART,CHICAGO,IL,60654,CASHIER'S OFFICE
3697024T,CHICAGO TRANSITY AUTHORITY.,PO BOX 3555,CHICAGO,IL,60654-0555,
93120136V,CHICAGO TRIBUNE,435 N MICHIGAN AVE STE 1015,CHICAGO,IL,60611,
85248951E,CHICAGO TRIBUNE 02,435 N MICHIGAN AVE RM 300,CHICAGO,IL,60611,
14863642H,CHICAGO TROLLEY COMPANY. - (CHARTER/SIGHTSEEING OPER.),615 W 41ST ST,CHICAGO,IL,60609,
3605543E,CHICAGO UNION STATION CO MICKI FITZGERALD,210 S CANAL ST # 107,CHICAGO,IL,60606,
31330257V,"CHICAGO UNITED INC, LIMITED",53 W JACKSON BLVD STE 1450,CHICAGO,IL,60604,
22085024V,"CHICAGO UNITED INDUSTRIES, LIMITED",53 W JACKSON BLVD # 1450,CHICAGO,IL,60604-3806,
5042167L,CHICAGO URBAN LEAGUE,4510 S MICHIGAN AVE FL 1ST,CHICAGO,IL,60653,
31311292X,CHICAGO URBAN LEAGUE DEV CORP,4510 S MICHIGAN AVENUE EFT,CHICAGO,IL,60653-3898,
3786229H,CHICAGO VETERINARY EMERGENCY SERVICES ASSOC,SERV. ASSOC.,CHICAGO,IL,60618-6424,3123 N CLYBOURN AVE
43724964V,CHICAGO WEB MANAGEMENT,9540 S 50TH CT,OAK LAWN,IL,60625,
3787308A,"CHICAGO WHITE SOX, LIMITED",333 W 35TH ST,CHICAGO,IL,60616,
50078145,CHICAGO WHOLESALE HARDWARE,171 N HALSTED STREET,CHICAGO,IL,60661,
33308278V,CHICAGO WINTER COMPANY LLC,1 N LA SALLE ST # 3210,CHICAGO,IL,60602,
95253090L,CHICAGO WOMEN IN TRADES,2444 W 16TH ST,CHICAGO,IL,60608,
95274040L,CHICAGO WOMEN'S AIDS PROJEC 01,6363 N BROADWAY,CHICAGO,IL,60660,
90197633T,CHICAGO WOMEN'S AIDS PROJECT,6363 N BROADWAY,CHICAGO,IL,60660,
91709532M,CHICAGO WORKFORCE INVESTMENT COUNCIL,60 W RANDOLPH ST STE 200  EFT,CHICAGO,IL,60601,
94141280Z,CHICAGO YOUTH BOXING CLUB,2300 S MILLARD AVE,CHICAGO,IL,60623,
65101977V,CHICAGO YOUTH CENTERS,104 S MICHIGAN AVENUE EFT,CHICAGO,IL,60603,
93389965V,"CHICAGO YOUTH PROGRAMS, INC",5350 S PRAIRIE AVENUE EFT,CHICAGO,IL,60615,
22672839P,CHICAGO_KOREAN-AMERICAN CHAMBER OF COM,5601 N SPAULDING AVE FL 1ST,CHICAGO,IL,60659,5601 N SPAULDING AVE
33645712V,CHICAGO-KENT COLLEGE OF LAW,IL INSTITUTE OF TECH,CHICAGO,IL,60661-3691,565 W ADAMS ST STE 530
93815473E,CHICAGOLAND BILLARDS,251 ANDOVER DR,VALPARAISO,IN,46383,
91268529L,CHICAGOLAND CHAMBER OF COMMERC,200 E RANDOLPH EFT,CHICAGO,IL,60601-6436,
95087747M,CHICAGOLAND LABORERS' TRAINING & APPRENTICE FUND,3841 S HALSTED ST # 3200,CHICAGO,IL,60609,
40132248V,CHICAGOLAND TRUCKING INCORP.,1335 S LOMBARD,CICERO,IL,60804,
33657933Z,CHICAGOLAND YTH/ADULT TRNG CENTER,4649 S PRAIRIE AVE,CHICAGO,IL,60609,
56779034,CHICAGO'S DOG HOUSE,816 WEST FULLERTON,CHICAGO,IL,60614,
93231148T,CHILDLINK,1100 W CERMAK ROAD EFT,CHICAGO,IL,60608,
93427732E,CHILDREN'S HOME & AID SOCIETY OF ILLINOIS,125 S WACKER DR FL 14TH  EFT,CHICAGO,IL,60606-4475,
3645151E,CHILDRENS' MEMORIAL HOSPITAL,2300 CHILDRENS PLAZA-BOX  87,CHICAGO,IL,60614,
95235374L,CHILDREN'S PLACE ASSOCIATION,700 N SACRAMENTO BOULEVARD EFT,CHICAGO,IL,60612,
9571967T,CHILDSERV 01,8765 W HIGGINS RD # 450,CHICAGO,IL,60631,
89639439T,CHINESE AMERICAN SERVICE LEAGUE,2141 S TAN COURT EFT,CHICAGO,IL,60616,
5042943L,CHINESE CONSOLIDATED BENEVOLENT ASSOCIATION OF CHICAGO,250 W 22ND PL FL BSMT,CHICAGO,IL,60616,
6989228M,"CHINESE MUTUAL AID ASSOCIATION, INC.",1016 W ARGYLE ST FL 1ST,CHICAGO,IL,60640,
93683000A,CHI-TOWN PRINTING INC,6025 N CICERO AVENUE EFT,CHICAGO,IL,60646,
94659776P,CHP XIV - DARUL AMAAN SENIOR APARTMENTS,OR TITLE SERVICES,CHICAGO,IL,60603,19 S LA SALLE ST STE 501
